{"version":0.6,"generator":"Overpass API 0.7.61.8 b1080abd","osm3s":{"timestamp_osm_base":"2026-02-16T14:09:02Z","copyright":"The data included in this document is from www.openstreetmap.org. The data is made available under ODbL."},"elements":[{"type":"node","id":358534551,"lat":47.6706501,"lon":-122.1226737},{"type":"node","id":358534558,"lat":47.6706476,"lon":-122.1219159},{"type":"node","id":358534561,"lat":47.6705973,"lon":-122.1219163},{"type":"node","id":358534568,"lat":47.6697873,"lon":-122.1216594},{"type":"node","id":358534569,"lat":47.6697907,"lon":-122.1226773},{"type":"node","id":367119681,"lat":47.6722295,"lon":-122.1092805},{"type":"node","id":603452522,"lat":47.6706504,"lon":-122.123678},{"type":"node","id":603452523,"lat":47.6706492,"lon":-122.1229593},{"type":"node","id":603452525,"lat":47.6697944,"lon":-122.1229624},{"type":"node","id":603452526,"lat":47.6697962,"lon":-122.1236838},{"type":"node","id":796651070,"lat":47.6652814,"lon":-122.1212561},{"type":"node","id":796651076,"lat":47.6643985,"lon":-122.1064401},{"type":"node","id":796651086,"lat":47.6641899,"lon":-122.1066638},{"type":"node","id":796651091,"lat":47.6652347,"lon":-122.1211654},{"type":"node","id":796651106,"lat":47.6643011,"lon":-122.1065708},{"type":"node","id":796651118,"lat":47.6642121,"lon":-122.1058571},{"type":"node","id":796651155,"lat":47.6643391,"lon":-122.1062258},{"type":"node","id":796651167,"lat":47.6642298,"lon":-122.1066636},{"type":"node","id":796651187,"lat":47.6643014,"lon":-122.1065213},{"type":"node","id":796651200,"lat":47.6641442,"lon":-122.1058596},{"type":"node","id":796651229,"lat":47.6604188,"lon":-122.1174302,"tags":{"amenity":"toilets"}},{"type":"node","id":796651236,"lat":47.6642269,"lon":-122.1065705},{"type":"node","id":796651256,"lat":47.6643442,"lon":-122.1065208},{"type":"node","id":796651265,"lat":47.6641079,"lon":-122.1061595},{"type":"node","id":796651271,"lat":47.667268,"lon":-122.106229,"tags":{"changing_table":"yes","cuisine":"bagel","diet:vegetarian":"yes","drinking_straw":"paper","indoor_seating":"yes","name":"Blazing Bagels","opening_hours":"Mo-Fr 06:00-16:00; Sa-Su 07:00-16:00","outdoor_seating":"yes","phone":"+1-425-883-1550","shop":"bakery","takeaway":"yes","toilets":"yes","website":"https://www.blazingbagels.com/","wheelchair":"yes"}},{"type":"node","id":796651272,"lat":47.6651977,"lon":-122.1213512},{"type":"node","id":796651299,"lat":47.6642964,"lon":-122.105813},{"type":"node","id":796651326,"lat":47.664343,"lon":-122.1064757},{"type":"node","id":796651337,"lat":47.6641244,"lon":-122.1064012},{"type":"node","id":796651344,"lat":47.665151,"lon":-122.1212604},{"type":"node","id":796651370,"lat":47.664212,"lon":-122.1058091},{"type":"node","id":986076497,"lat":47.6737726,"lon":-122.1231522,"tags":{"addr:city":"Redmond","addr:housenumber":"7853","addr:postcode":"98052","addr:state":"WA","addr:street":"Leary Way","amenity":"pub","check_date":"2025-05-19","name":"Palmers","opening_hours":"Mo-Su 10:00-02:00","outdoor_seating":"yes","wheelchair":"limited"}},{"type":"node","id":1192049014,"lat":47.6696051,"lon":-122.1232696},{"type":"node","id":1192049017,"lat":47.6696481,"lon":-122.1221258},{"type":"node","id":1192049018,"lat":47.6693921,"lon":-122.1227466},{"type":"node","id":1192049019,"lat":47.6691066,"lon":-122.1225026},{"type":"node","id":1192049025,"lat":47.6691048,"lon":-122.1221298},{"type":"node","id":1192049031,"lat":47.6694263,"lon":-122.123089},{"type":"node","id":1192049033,"lat":47.6694874,"lon":-122.1230894},{"type":"node","id":1192049043,"lat":47.6696504,"lon":-122.1232205},{"type":"node","id":1192049045,"lat":47.6691391,"lon":-122.1227439},{"type":"node","id":1192049046,"lat":47.6694875,"lon":-122.1228287},{"type":"node","id":1192049047,"lat":47.6695274,"lon":-122.1232562},{"type":"node","id":1192049048,"lat":47.670493,"lon":-122.1216542,"tags":{"entrance":"yes"}},{"type":"node","id":1192049050,"lat":47.6693997,"lon":-122.1231581},{"type":"node","id":1192049062,"lat":47.6693921,"lon":-122.1228278},{"type":"node","id":1217780339,"lat":47.668538,"lon":-122.1046226},{"type":"node","id":1217780343,"lat":47.6685523,"lon":-122.1046514},{"type":"node","id":1217780360,"lat":47.6683749,"lon":-122.1044608},{"type":"node","id":1217780369,"lat":47.6685207,"lon":-122.1043013},{"type":"node","id":1217780372,"lat":47.668632,"lon":-122.1045258},{"type":"node","id":1217780389,"lat":47.6684843,"lon":-122.1046813},{"type":"node","id":1217780392,"lat":47.6685948,"lon":-122.1045665},{"type":"node","id":1217780411,"lat":47.6686072,"lon":-122.1045914},{"type":"node","id":1242268219,"lat":47.6702665,"lon":-122.110253,"tags":{"addr:city":"Redmond","addr:housenumber":"17209","addr:postcode":"98052","addr:state":"WA","addr:street":"Redmond Way","amenity":"clinic","healthcare":"clinic","name":"Overlake Clinics - Urgent Care","opening_hours":"Mo-Su 07:00-23:00","phone":"+1-425-635-6400","website":"https://www.overlakehospital.org/locations/"}},{"type":"node","id":1243260800,"lat":47.6726114,"lon":-122.1099678,"tags":{"addr:housenumber":"17218","addr:state":"WA","addr:street":"Redmond Way","amenity":"restaurant","check_date":"2025-03-11","cuisine":"asian","name":"Yummy Teriyaki","outdoor_seating":"no","wheelchair":"yes"}},{"type":"node","id":1372946370,"lat":47.673494,"lon":-122.1228658,"tags":{"addr:housenumber":"7844","addr:street":"Leary Way Northeast","name":"US Nails","opening_hours":"Mo-Fr 10:00-19:00; Sa 09:00-18:00","phone":"+1-425-885-2158","shop":"beauty","wheelchair":"yes"}},{"type":"node","id":1506645197,"lat":47.6712364,"lon":-122.1096684},{"type":"node","id":1506645199,"lat":47.6715117,"lon":-122.1094893},{"type":"node","id":1506645201,"lat":47.6716577,"lon":-122.1093467},{"type":"node","id":1506645206,"lat":47.6716575,"lon":-122.1093247},{"type":"node","id":1506645208,"lat":47.6713107,"lon":-122.1099879},{"type":"node","id":1506645210,"lat":47.671464,"lon":-122.1095479},{"type":"node","id":1506645211,"lat":47.6713187,"lon":-122.1099344},{"type":"node","id":1506645213,"lat":47.6714636,"lon":-122.1096078},{"type":"node","id":1506645214,"lat":47.6714795,"lon":-122.1095481},{"type":"node","id":1506645216,"lat":47.6714799,"lon":-122.1094889},{"type":"node","id":1506645219,"lat":47.6722298,"lon":-122.1091897},{"type":"node","id":1506645220,"lat":47.6720922,"lon":-122.1093228},{"type":"node","id":1506645221,"lat":47.671512,"lon":-122.1094492},{"type":"node","id":1506645223,"lat":47.6713206,"lon":-122.1100239},{"type":"node","id":1506645224,"lat":47.6720923,"lon":-122.109193},{"type":"node","id":1506645225,"lat":47.6712485,"lon":-122.1096607},{"type":"node","id":1506645227,"lat":47.6712497,"lon":-122.109611},{"type":"node","id":1738824043,"lat":47.6620289,"lon":-122.1188488},{"type":"node","id":1774361993,"lat":47.6710477,"lon":-122.1101164,"tags":{"addr:city":"Redmond","addr:housenumber":"17262","addr:postcode":"98052","addr:state":"WA","addr:street":"Redmond Way","air_conditioning":"yes","amenity":"fast_food","brand":"Panera Bread","brand:wikidata":"Q7130852","check_date":"2025-03-11","cuisine":"sandwich;bakery","diet:vegetarian":"yes","indoor_seating":"yes","name":"Panera Bread","opening_hours":"Mo-Sa 06:00-21:00; Su 07:00-21:00","outdoor_seating":"pedestrian_zone","phone":"+1-425-497-0727","short_name":"Panera","takeaway":"yes","website":"https://locations.panerabread.com/wa/redmond/17262-redmond-way.html","wheelchair":"yes"}},{"type":"node","id":2142181956,"lat":47.6646888,"lon":-122.1644158,"tags":{"addr:city":"Kirkland","addr:housenumber":"6507","addr:postcode":"98033","addr:street":"132nd Avenue Northeast","amenity":"dentist","healthcare":"dentist","name":"Bridle Trails Family Dentistry"}},{"type":"node","id":2302768172,"lat":47.6649888,"lon":-122.1138654},{"type":"node","id":2302768173,"lat":47.6650955,"lon":-122.1139675},{"type":"node","id":2302768181,"lat":47.6649884,"lon":-122.1139665},{"type":"node","id":2302768189,"lat":47.665096,"lon":-122.1138665},{"type":"node","id":2439935999,"lat":47.668177,"lon":-122.1456845},{"type":"node","id":2468911197,"lat":47.6540929,"lon":-122.091652,"tags":{"access":"yes","amenity":"toilets","changing_table":"no","fee":"no","toilets:disposal":"chemical","unisex":"yes","wheelchair":"yes"}},{"type":"node","id":2511048884,"lat":47.6736567,"lon":-122.1262491},{"type":"node","id":2511048885,"lat":47.6736999,"lon":-122.1263617},{"type":"node","id":2627471720,"lat":47.6704373,"lon":-122.1217426,"tags":{"addr:city":"Redmond","addr:housenumber":"7349","addr:postcode":"98052","addr:street":"164th Avenue Northeast","amenity":"ice_cream","brand":"Cold Stone Creamery","brand:wikidata":"Q1094923","cuisine":"ice_cream","name":"Cold Stone Creamery","phone":"+1-425-497-8484","website":"https://www.coldstonecreamery.com/","wheelchair":"yes"}},{"type":"node","id":2633074679,"lat":47.6713565,"lon":-122.1099634,"tags":{"addr:city":"Redmond","addr:housenumber":"17256","addr:postcode":"98052","addr:state":"WA","addr:street":"Northeast Redmond Way","check_date":"2025-03-11","name":"Apna Bazar","opening_hours":"Mo-Su 10:00-21:00","shop":"supermarket","wheelchair":"yes"}},{"type":"node","id":2657865691,"lat":47.6736746,"lon":-122.1268099},{"type":"node","id":2657865715,"lat":47.6737161,"lon":-122.1264709},{"type":"node","id":2657865776,"lat":47.6736761,"lon":-122.1268838},{"type":"node","id":2657865782,"lat":47.673687,"lon":-122.1266911},{"type":"node","id":2667886168,"lat":47.6705324,"lon":-122.1226718},{"type":"node","id":2667886170,"lat":47.6705904,"lon":-122.1226741},{"type":"node","id":2667886171,"lat":47.6705325,"lon":-122.1227206},{"type":"node","id":2667886172,"lat":47.6705905,"lon":-122.1227202},{"type":"node","id":2699075023,"lat":47.6468926,"lon":-122.1428634,"tags":{"bus":"yes","gtfs:stop_id:US-WA-KCM":"73342","highway":"bus_stop","name":"148th Avenue Northeast & Northeast 40th Street","network":"King County Metro","network:short":"KCM","network:wikidata":"Q6411393","operator":"King County Metro","operator:short":"KCM","operator:wikidata":"Q6411393","operator:wikipedia":"en:King County Metro","public_transport":"platform","ref":"73342","route_ref":"221;223;225;269;B Line","wheelchair":"yes"}},{"type":"node","id":2703202976,"lat":47.6698683,"lon":-122.1200285,"tags":{"addr:city":"Redmond","addr:housenumber":"16507","addr:postcode":"98052","addr:street":"Northeast 74th Street","level":"0","name":"Uncle's Games","note":"Board games, puzzles, cards, dice, gaming accessories, geek gifts, and so much more!","opening_hours":"Su 11:00-19:00; Mo-We 10:00-21:00; Th 10:00-22:00; Fr 10:00+; Sa 10:00-21:00","phone":"+1-425-497-9180","shop":"toys","source":"www.unclesgames.com/redmond","website":"https://www.unclesgames.com/","wheelchair":"yes"}},{"type":"node","id":2717955394,"lat":47.6643382,"lon":-122.106178},{"type":"node","id":2717955464,"lat":47.6642273,"lon":-122.1058091},{"type":"node","id":2717955466,"lat":47.664088,"lon":-122.1067554,"tags":{"amenity":"bench"}},{"type":"node","id":3054688261,"lat":47.6677353,"lon":-122.1025984,"tags":{"barrier":"kerb","kerb":"lowered","tactile_paving":"yes","wheelchair":"yes"}},{"type":"node","id":3224472016,"lat":47.6696923,"lon":-122.103507},{"type":"node","id":3224473882,"lat":47.6689616,"lon":-122.1018138},{"type":"node","id":3224473883,"lat":47.6689682,"lon":-122.1036598},{"type":"node","id":3224473887,"lat":47.6691324,"lon":-122.1018125},{"type":"node","id":3224473899,"lat":47.6696853,"lon":-122.1018627},{"type":"node","id":3224473904,"lat":47.6696897,"lon":-122.1027812},{"type":"node","id":3224473905,"lat":47.6696902,"lon":-122.1029292},{"type":"node","id":3224473906,"lat":47.6696912,"lon":-122.1031943},{"type":"node","id":3224473908,"lat":47.6696928,"lon":-122.1036541},{"type":"node","id":3224473913,"lat":47.6697173,"lon":-122.102781},{"type":"node","id":3224473920,"lat":47.6697409,"lon":-122.1027808},{"type":"node","id":3224473921,"lat":47.6697414,"lon":-122.1029288},{"type":"node","id":3224474337,"lat":47.6717416,"lon":-122.1000202,"tags":{"barrier":"kerb","kerb":"lowered","tactile_paving":"primitive","wheelchair":"yes"}},{"type":"node","id":3224474347,"lat":47.6718006,"lon":-122.100337,"tags":{"barrier":"kerb","kerb":"lowered","tactile_paving":"yes","wheelchair":"yes"}},{"type":"node","id":3224474351,"lat":47.6718875,"lon":-122.1001311,"tags":{"barrier":"kerb","kerb":"lowered","tactile_paving":"yes","wheelchair":"yes"}},{"type":"node","id":3224620730,"lat":47.6718777,"lon":-122.1026609},{"type":"node","id":3224620732,"lat":47.6718884,"lon":-122.1039574},{"type":"node","id":3224620745,"lat":47.6719538,"lon":-122.1026582},{"type":"node","id":3224620746,"lat":47.6719517,"lon":-122.1028044},{"type":"node","id":3224620755,"lat":47.6720351,"lon":-122.1028034},{"type":"node","id":3224620756,"lat":47.6720353,"lon":-122.1028514},{"type":"node","id":3224620964,"lat":47.6720688,"lon":-122.1039474},{"type":"node","id":3224620965,"lat":47.6720691,"lon":-122.1039954},{"type":"node","id":3224620979,"lat":47.6721662,"lon":-122.1039774},{"type":"node","id":3224620980,"lat":47.6721663,"lon":-122.1039944},{"type":"node","id":3224620988,"lat":47.672218,"lon":-122.1039764},{"type":"node","id":3224620989,"lat":47.6722181,"lon":-122.1039934},{"type":"node","id":3224620993,"lat":47.6722319,"lon":-122.1040144},{"type":"node","id":3224620999,"lat":47.6723036,"lon":-122.1040134,"tags":{"entrance":"main"}},{"type":"node","id":3224621004,"lat":47.672367,"lon":-122.1040124},{"type":"node","id":3224621005,"lat":47.6723805,"lon":-122.1039914},{"type":"node","id":3224621007,"lat":47.6723916,"lon":-122.1039914},{"type":"node","id":3224621008,"lat":47.6723917,"lon":-122.1040114},{"type":"node","id":3224621013,"lat":47.67246,"lon":-122.1040304},{"type":"node","id":3224621017,"lat":47.6725234,"lon":-122.1040364},{"type":"node","id":3224621023,"lat":47.6726056,"lon":-122.1040354},{"type":"node","id":3224621029,"lat":47.6726689,"lon":-122.1040274},{"type":"node","id":3224621035,"lat":47.6727368,"lon":-122.1039874},{"type":"node","id":3224621036,"lat":47.6727369,"lon":-122.1040074},{"type":"node","id":3224621040,"lat":47.6727479,"lon":-122.1039874},{"type":"node","id":3224621042,"lat":47.6727617,"lon":-122.1040074},{"type":"node","id":3224621050,"lat":47.6728968,"lon":-122.1040054},{"type":"node","id":3224621052,"lat":47.6729102,"lon":-122.1039674},{"type":"node","id":3224621053,"lat":47.6729103,"lon":-122.1039844},{"type":"node","id":3224621054,"lat":47.672962,"lon":-122.1039664},{"type":"node","id":3224621055,"lat":47.6729621,"lon":-122.1039844},{"type":"node","id":3224621059,"lat":47.673059,"lon":-122.1039344},{"type":"node","id":3224621060,"lat":47.6730593,"lon":-122.1039824},{"type":"node","id":3224621070,"lat":47.6732109,"lon":-122.1028364},{"type":"node","id":3224621071,"lat":47.6732174,"lon":-122.1039324},{"type":"node","id":3231008600,"lat":47.6639141,"lon":-122.1003955,"tags":{"barrier":"kerb","kerb":"flush","tactile_paving":"yes","wheelchair":"yes"}},{"type":"node","id":3231009047,"lat":47.6671085,"lon":-122.1032094,"tags":{"barrier":"kerb","kerb":"lowered","tactile_paving":"yes","wheelchair":"yes"}},{"type":"node","id":3237003861,"lat":47.6706253,"lon":-122.124341,"tags":{"barrier":"kerb","kerb":"lowered","tactile_paving":"yes","wheelchair":"yes"}},{"type":"node","id":3316610287,"lat":47.6726254,"lon":-122.1134875,"tags":{"barrier":"kerb","kerb":"lowered","tactile_paving":"yes","wheelchair":"yes"}},{"type":"node","id":3316610314,"lat":47.672806,"lon":-122.1155524},{"type":"node","id":3316610315,"lat":47.6728058,"lon":-122.1156558},{"type":"node","id":3316610334,"lat":47.6728997,"lon":-122.1155528},{"type":"node","id":3316610335,"lat":47.6728995,"lon":-122.1156562},{"type":"node","id":3316610349,"lat":47.6729914,"lon":-122.1187197,"tags":{"barrier":"kerb","kerb":"lowered","tactile_paving":"yes","wheelchair":"yes"}},{"type":"node","id":3316610413,"lat":47.6733134,"lon":-122.119043,"tags":{"barrier":"kerb","kerb":"lowered","tactile_paving":"yes","wheelchair":"yes"}},{"type":"node","id":3316610591,"lat":47.6738489,"lon":-122.1187607,"tags":{"barrier":"kerb","kerb":"lowered","tactile_paving":"yes","wheelchair":"yes"}},{"type":"node","id":3343029708,"lat":47.6671794,"lon":-122.164451,"tags":{"addr:city":"Kirkland","addr:housenumber":"13112","addr:postcode":"98033","addr:street":"Northeast 70th Place","healthcare":"optometrist","name":"Kirkland Vision Center","opening_hours":"Tu-Th 08:30-18:00; Fr 09:00-17:00; Sa 09:00-16:00","phone":"+1-425-822-8253","website":"https://www.kirklandvision.com/"}},{"type":"node","id":3518714008,"lat":47.6732863,"lon":-122.129091,"tags":{"amenity":"hospital","emergency":"no","healthcare":"hospital","name":"Kaiser Permanente Redmond Medical Center at Riverpark","operator":"Kaiser Permanente","operator:short":"KP","operator:website":"https://healthy.kaiserpermanente.org/","operator:wikidata":"Q1721601","operator:wikipedia":"en:Kaiser Permanente","phone":"+1-888-901-4636"}},{"type":"node","id":3900551372,"lat":47.6706107,"lon":-122.1219969,"tags":{"addr:city":"Redmond","addr:housenumber":"16349","addr:postcode":"98052","addr:state":"WA","addr:street":"Northeast 74th Street","alt_name":"Kitanda Espresso & Açaí","amenity":"cafe","branch":"Town Center, Redmond","brand":"Kitanda","brand:wikidata":"Q124249667","contact:email":"info@kitanda.com","contact:facebook":"KitandaEspressoAcai","contact:instagram":"KitandaEspressoAcai","cuisine":"coffee_shop;acai","diet:vegetarian":"yes","level":"0","name":"Kitanda","opening_hours":"Mo-Sa 07:00-19:00; Su 08:00-18:00","outdoor_seating":"yes","phone":"+1-425-556-7999","takeaway":"yes","website":"https://kitanda.com/redmond","wheelchair":"yes","wikipedia":"en:Kitanda"}},{"type":"node","id":3972118046,"lat":47.6642958,"lon":-122.1058532},{"type":"node","id":3972118079,"lat":47.6643322,"lon":-122.1058584},{"type":"node","id":4045186103,"lat":47.6520009,"lon":-122.1434216,"tags":{"bus":"yes","gtfs:stop_id:US-WA-KCM":"73243","highway":"bus_stop","name":"148th Avenue Northeast & Northeast 46th Street","network":"King County Metro","network:short":"KCM","network:wikidata":"Q6411393","operator":"King County Metro","operator:short":"KCM","operator:wikidata":"Q6411393","operator:wikipedia":"en:King County Metro","public_transport":"platform","ref":"73243","route_ref":"221;223;225;269;B Line","wheelchair":"yes"}},{"type":"node","id":4045186105,"lat":47.652706,"lon":-122.1431414,"tags":{"bus":"yes","gtfs:stop_id:US-WA-KCM":"73366","highway":"bus_stop","name":"148th Avenue Northeast & Northeast 46th Street","network":"King County Metro","network:short":"KCM","network:wikidata":"Q6411393","operator":"King County Metro","operator:short":"KCM","operator:wikidata":"Q6411393","operator:wikipedia":"en:King County Metro","public_transport":"platform","ref":"73366","route_ref":"221;223;225;269;B Line","wheelchair":"yes"}},{"type":"node","id":4045186107,"lat":47.6546925,"lon":-122.1434646,"tags":{"bench":"yes","bin":"yes","bus":"yes","gtfs:stop_id:US-WA-KCM":"73240","highway":"bus_stop","lit":"no","name":"148th Avenue Northeast & Northeast 51st Street","network":"King County Metro","network:short":"KCM","network:wikidata":"Q6411393","operator":"King County Metro","operator:short":"KCM","operator:wikidata":"Q6411393","operator:wikipedia":"en:King County Metro","public_transport":"platform","ref":"73240","route_ref":"221;223;225;269;B Line","shelter":"yes","tactile_paving":"no","wheelchair":"yes"}},{"type":"node","id":4045186109,"lat":47.6556826,"lon":-122.143081,"tags":{"bench":"yes","bin":"yes","bus":"yes","check_date:shelter":"2022-05-06","gtfs:stop_id:US-WA-KCM":"73350","highway":"bus_stop","name":"148th Avenue Northeast & Northeast 51st Street","network":"King County Metro","network:short":"KCM","network:wikidata":"Q6411393","operator":"King County Metro","operator:short":"KCM","operator:wikidata":"Q6411393","operator:wikipedia":"en:King County Metro","public_transport":"platform","ref":"73350","route_ref":"221;223;225;245;B Line","shelter":"yes","tactile_paving":"no","wheelchair":"yes"}},{"type":"node","id":4045186123,"lat":47.6671612,"lon":-122.143297,"tags":{"bench":"yes","bin":"yes","bus":"yes","gtfs:stop_id:US-WA-KCM":"73130","highway":"bus_stop","name":"148th Avenue Northeast & Northeast Old Redmond Road","network":"King County Metro","network:short":"KCM","network:wikidata":"Q6411393","operator":"King County Metro","operator:short":"KCM","operator:wikidata":"Q6411393","operator:wikipedia":"en:King County Metro","public_transport":"platform","ref":"73130","route_ref":"221;223;225;245;B Line","shelter":"yes","wheelchair":"yes"}},{"type":"node","id":4045186125,"lat":47.6684978,"lon":-122.1429451,"tags":{"bus":"yes","gtfs:stop_id:US-WA-KCM":"73391","highway":"bus_stop","name":"148th Avenue Northeast & Northeast Old Redmond Road","network":"King County Metro","network:short":"KCM","network:wikidata":"Q6411393","operator":"King County Metro","operator:short":"KCM","operator:wikidata":"Q6411393","operator:wikipedia":"en:King County Metro","public_transport":"platform","ref":"73391","route_ref":"B Line","shelter":"yes","wheelchair":"yes"}},{"type":"node","id":4045186150,"lat":47.6460864,"lon":-122.1379633,"tags":{"bench":"no","bus":"yes","gtfs:stop_id:US-WA-KCM":"71329","highway":"bus_stop","name":"Northeast 40th Street & 152nd Avenue Northeast","network":"King County Metro","network:short":"KCM","network:wikidata":"Q6411393","operator":"King County Metro","operator:short":"KCM","operator:wikidata":"Q6411393","operator:wikipedia":"en:King County Metro","public_transport":"platform","ref":"71329","route_ref":"225;269;B Line","shelter":"no","wheelchair":"yes"}},{"type":"node","id":4151068023,"lat":47.6649131,"lon":-122.1385769,"tags":{"amenity":"bench"}},{"type":"node","id":4151068024,"lat":47.6647753,"lon":-122.1389336,"tags":{"amenity":"bench"}},{"type":"node","id":4151068025,"lat":47.6645915,"lon":-122.1390724,"tags":{"amenity":"bench"}},{"type":"node","id":4151072279,"lat":47.6689541,"lon":-122.1435876},{"type":"node","id":4151072280,"lat":47.6688558,"lon":-122.1435882},{"type":"node","id":4151072281,"lat":47.6688554,"lon":-122.1434205},{"type":"node","id":4151072282,"lat":47.6689537,"lon":-122.1434199},{"type":"node","id":4158574596,"lat":47.6727778,"lon":-122.1153228,"tags":{"amenity":"bench"}},{"type":"node","id":4158612591,"lat":47.6728641,"lon":-122.1150258,"tags":{"amenity":"bench"}},{"type":"node","id":4158630589,"lat":47.6729163,"lon":-122.1151623,"tags":{"amenity":"bench"}},{"type":"node","id":4158630593,"lat":47.6729046,"lon":-122.1155576,"tags":{"amenity":"drinking_water","fountain":"bubbler","man_made":"drinking_fountain","wheelchair":"yes"}},{"type":"node","id":4158630594,"lat":47.6729691,"lon":-122.1158454,"tags":{"amenity":"bench"}},{"type":"node","id":4158630689,"lat":47.6728353,"lon":-122.1158107,"tags":{"amenity":"bench"}},{"type":"node","id":4239975270,"lat":47.6705223,"lon":-122.1219},{"type":"node","id":4239975271,"lat":47.6705211,"lon":-122.121654},{"type":"node","id":4239975272,"lat":47.6705972,"lon":-122.1218992},{"type":"node","id":4239975275,"lat":47.6705964,"lon":-122.1216534},{"type":"node","id":4266830249,"lat":47.6583427,"lon":-122.1163712,"tags":{"amenity":"toilets","changing_table":"no","check_date":"2024-06-09","wheelchair":"no"}},{"type":"node","id":4266830337,"lat":47.6611128,"lon":-122.105958,"tags":{"amenity":"toilets"}},{"type":"node","id":4266830372,"lat":47.6616014,"lon":-122.1227724,"tags":{"amenity":"drinking_water","check_date":"2024-06-03"}},{"type":"node","id":4266830406,"lat":47.6618831,"lon":-122.1189026},{"type":"node","id":4266830409,"lat":47.6619349,"lon":-122.1187687},{"type":"node","id":4266830414,"lat":47.6619771,"lon":-122.1189827},{"type":"node","id":4266830479,"lat":47.6624109,"lon":-122.1080635},{"type":"node","id":4266830483,"lat":47.6624427,"lon":-122.1080139},{"type":"node","id":4266830485,"lat":47.6624488,"lon":-122.1080224},{"type":"node","id":4266830491,"lat":47.6624816,"lon":-122.1081632},{"type":"node","id":4266830493,"lat":47.662485,"lon":-122.1080501,"tags":{"amenity":"drinking_water"}},{"type":"node","id":4266830503,"lat":47.6625379,"lon":-122.1082426},{"type":"node","id":4266830504,"lat":47.6625618,"lon":-122.1081819},{"type":"node","id":4266830506,"lat":47.6625696,"lon":-122.1081929},{"type":"node","id":4266830691,"lat":47.6649587,"lon":-122.114037,"tags":{"amenity":"bench"}},{"type":"node","id":4266830693,"lat":47.664982,"lon":-122.1138823,"tags":{"amenity":"drinking_water"}},{"type":"node","id":4266830740,"lat":47.6655926,"lon":-122.1127329,"tags":{"amenity":"drinking_water","fountain":"bubbler"}},{"type":"node","id":4274833357,"lat":47.6539892,"lon":-122.1389254,"tags":{"bus":"yes","gtfs:stop_id:US-WA-KCM":"71341","highway":"bus_stop","name":"State Route 520 & Northeast 51st Street","network":"King County Metro","network:short":"KCM","network:wikidata":"Q6411393","operator":"King County Metro","operator:short":"KCM","operator:wikidata":"Q6411393","operator:wikipedia":"en:King County Metro","public_transport":"platform","ref":"71341","route_ref":"542;545","wheelchair":"yes"}},{"type":"node","id":4274841893,"lat":47.6548715,"lon":-122.1367779,"tags":{"bench":"yes","bin":"yes","bus":"yes","gtfs:stop_id:US-WA-KCM":"71353","highway":"bus_stop","name":"State Route 520 & Northeast 51st Street","network":"King County Metro","network:short":"KCM","network:wikidata":"Q6411393","operator":"King County Metro","operator:short":"KCM","operator:wikidata":"Q6411393","operator:wikipedia":"en:King County Metro","public_transport":"platform","ref":"71353","route_ref":"269;542;545","shelter":"yes","wheelchair":"yes"}},{"type":"node","id":4333509552,"lat":47.6728517,"lon":-122.1155525},{"type":"node","id":4333509553,"lat":47.6728515,"lon":-122.115656},{"type":"node","id":4353378418,"lat":47.6735746,"lon":-122.1229096,"tags":{"addr:housenumber":"7844","addr:street":"Leary Way","addr:unit":"110","amenity":"restaurant","check_date":"2025-05-19","cuisine":"korean","name":"The Third Place","outdoor_seating":"no","wheelchair":"yes"}},{"type":"node","id":4434439110,"lat":47.6704791,"lon":-122.1218959,"tags":{"amenity":"toilets","opening_hours":"Mo-Sa 10:00-21:00;Su 10:00-20:00","wheelchair":"yes"}},{"type":"node","id":4434439111,"lat":47.6706945,"lon":-122.1200448,"tags":{"amenity":"toilets","changing_table":"yes","level":"0","opening_hours":"Mo-Sa 05:00-22:00,Su 10:00-20:00"}},{"type":"node","id":4499321735,"lat":47.6719369,"lon":-122.1093951,"tags":{"access":"customers","amenity":"toilets"}},{"type":"node","id":4525493626,"lat":47.6734346,"lon":-122.0922208},{"type":"node","id":4525493627,"lat":47.6747899,"lon":-122.0922345},{"type":"node","id":4525493628,"lat":47.6746458,"lon":-122.0912133},{"type":"node","id":4525493630,"lat":47.6736107,"lon":-122.0907873},{"type":"node","id":4525493632,"lat":47.6735016,"lon":-122.0909477},{"type":"node","id":4584387549,"lat":47.6582958,"lon":-122.1434534,"tags":{"bench":"yes","bin":"yes","bus":"yes","gtfs:feed":"US-WA-KCM","gtfs:stop_id":"73351","highway":"bus_stop","name":"148th Ave NE & NE 55th St","network":"King County Metro","network:short":"KCM","network:wikidata":"Q6411393","operator":"King County Metro","operator:short":"KCM","operator:wikidata":"Q6411393","operator:wikipedia":"en:King County Metro","public_transport":"platform","ref":"73351","route_ref":"221;223;225;245","shelter":"yes","tactile_paving":"no","wheelchair":"yes"}},{"type":"node","id":4584387550,"lat":47.6678986,"lon":-122.138798,"tags":{"bench":"no","bus":"yes","gtfs:feed":"US-WA-KCM","gtfs:stop_id":"72005","highway":"bus_stop","name":"NE Old Redmond Rd & 151st Ave NE","network":"King County Metro","network:short":"KCM","network:wikidata":"Q6411393","operator":"King County Metro","operator:short":"KCM","operator:wikidata":"Q6411393","operator:wikipedia":"en:King County Metro","public_transport":"platform","ref":"72005","route_ref":"221;223","shelter":"no","wheelchair":"yes"}},{"type":"node","id":4584387551,"lat":47.6678309,"lon":-122.1336308,"tags":{"bench":"no","bin":"no","bus":"yes","gtfs:feed":"US-WA-KCM","gtfs:stop_id":"71985","highway":"bus_stop","name":"NE Old Redmond Rd & NE 70th St","network":"King County Metro","network:short":"KCM","network:wikidata":"Q6411393","operator":"King County Metro","operator:short":"KCM","operator:wikidata":"Q6411393","operator:wikipedia":"en:King County Metro","public_transport":"platform","ref":"71985","route_ref":"221;223","shelter":"no","wheelchair":"yes"}},{"type":"node","id":4584387552,"lat":47.6671979,"lon":-122.1360453,"tags":{"bench":"yes","bus":"yes","gtfs:feed":"US-WA-KCM","gtfs:stop_id":"71990","highway":"bus_stop","name":"NE Old Redmond Rd & NE 68th St","network":"King County Metro","network:short":"KCM","network:wikidata":"Q6411393","operator":"King County Metro","operator:short":"KCM","operator:wikidata":"Q6411393","operator:wikipedia":"en:King County Metro","public_transport":"platform","ref":"71990","route_ref":"221;223","shelter":"yes","wheelchair":"yes"}},{"type":"node","id":4584387554,"lat":47.6717659,"lon":-122.133652,"tags":{"bench":"no","bin":"yes","bus":"yes","gtfs:feed":"US-WA-KCM","gtfs:stop_id":"71981","highway":"bus_stop","name":"NE Old Redmond Rd & West Lake Sammamish Way NE","network":"King County Metro","network:short":"KCM","network:wikidata":"Q6411393","operator":"King County Metro","operator:short":"KCM","operator:wikidata":"Q6411393","operator:wikipedia":"en:King County Metro","public_transport":"platform","ref":"71981","route_ref":"221;223","shelter":"no","wheelchair":"yes"}},{"type":"node","id":4584387558,"lat":47.6480836,"lon":-122.143242,"tags":{"bus":"yes","gtfs:feed":"US-WA-KCM","gtfs:stop_id":"73246","highway":"bus_stop","name":"148th Ave NE & NE 43rd Pl","network":"King County Metro","network:short":"KCM","network:wikidata":"Q6411393","operator":"King County Metro","operator:short":"KCM","operator:wikidata":"Q6411393","operator:wikipedia":"en:King County Metro","public_transport":"platform","ref":"73246","route_ref":"221;223;225;269","wheelchair":"yes"}},{"type":"node","id":4584387560,"lat":47.6618886,"lon":-122.143435,"tags":{"bus":"yes","gtfs:feed":"US-WA-KCM","gtfs:stop_id":"73152","highway":"bus_stop","name":"148th Ave NE & NE 61st St","network":"King County Metro","network:short":"KCM","network:wikidata":"Q6411393","operator":"King County Metro","operator:short":"KCM","operator:wikidata":"Q6411393","operator:wikipedia":"en:King County Metro","public_transport":"platform","ref":"73152","route_ref":"221;223;225;245","shelter":"no","wheelchair":"yes"}},{"type":"node","id":4584388005,"lat":47.6734451,"lon":-122.1326697,"tags":{"bench":"no","bin":"no","bus":"yes","covered":"no","departures_board":"no","gtfs:feed":"US-WA-KCM","gtfs:stop_id":"73430","highway":"bus_stop","name":"NE Redmond Way & West Lake Sammamish Pkwy NE","network":"King County Metro","network:short":"KCM","network:wikidata":"Q6411393","operator":"King County Metro","operator:short":"KCM","operator:wikidata":"Q6411393","operator:wikipedia":"en:King County Metro","public_transport":"platform","ref":"73430","route_ref":"221;222;250","shelter":"no","sign":"yes","wheelchair":"yes"}},{"type":"node","id":4584388006,"lat":47.6624955,"lon":-122.143065,"tags":{"bus":"yes","gtfs:feed":"US-WA-KCM","gtfs:stop_id":"73368","highway":"bus_stop","name":"148th Ave NE & NE 61st Way","network":"King County Metro","network:short":"KCM","network:wikidata":"Q6411393","operator":"King County Metro","operator:short":"KCM","operator:wikidata":"Q6411393","operator:wikipedia":"en:King County Metro","public_transport":"platform","ref":"73368","route_ref":"221;223;225;245","wheelchair":"yes"}},{"type":"node","id":4584388012,"lat":47.6683737,"lon":-122.1332952,"tags":{"bench":"no","bin":"no","bus":"yes","gtfs:feed":"US-WA-KCM","gtfs:stop_id":"72444","highway":"bus_stop","name":"NE Old Redmond Rd & NE 70th St","network":"King County Metro","network:short":"KCM","network:wikidata":"Q6411393","operator":"King County Metro","operator:short":"KCM","operator:wikidata":"Q6411393","operator:wikipedia":"en:King County Metro","public_transport":"platform","ref":"72444","route_ref":"221;223","shelter":"no","wheelchair":"yes"}},{"type":"node","id":4584388013,"lat":47.6713295,"lon":-122.133255,"tags":{"bus":"yes","gtfs:feed":"US-WA-KCM","gtfs:stop_id":"72446","highway":"bus_stop","name":"NE Old Redmond Rd & West Lake Sammamish Way NE","network":"King County Metro","network:short":"KCM","network:wikidata":"Q6411393","operator":"King County Metro","operator:short":"KCM","operator:wikidata":"Q6411393","operator:wikipedia":"en:King County Metro","public_transport":"platform","ref":"72446","route_ref":"221;223","wheelchair":"yes"}},{"type":"node","id":4584388014,"lat":47.6677647,"lon":-122.138912,"tags":{"bus":"yes","gtfs:feed":"US-WA-KCM","gtfs:stop_id":"72435","highway":"bus_stop","name":"NE Old Redmond Rd & 151st Ave NE","network":"King County Metro","network:short":"KCM","network:wikidata":"Q6411393","operator":"King County Metro","operator:short":"KCM","operator:wikidata":"Q6411393","operator:wikipedia":"en:King County Metro","public_transport":"platform","ref":"72435","route_ref":"221;223","wheelchair":"yes"}},{"type":"node","id":4584388015,"lat":47.6663722,"lon":-122.1354808,"tags":{"bench":"no","bin":"no","bus":"yes","gtfs:feed":"US-WA-KCM","gtfs:stop_id":"72442","highway":"bus_stop","name":"NE Old Redmond Rd & NE 68th St","network":"King County Metro","network:short":"KCM","network:wikidata":"Q6411393","operator":"King County Metro","operator:short":"KCM","operator:wikidata":"Q6411393","operator:wikipedia":"en:King County Metro","public_transport":"platform","ref":"72442","route_ref":"221;223","shelter":"no","wheelchair":"yes"}},{"type":"node","id":4584388016,"lat":47.6655922,"lon":-122.1429858,"tags":{"bench":"no","bin":"no","bus":"yes","gtfs:feed":"US-WA-KCM","gtfs:stop_id":"73380","highway":"bus_stop","name":"148th Ave NE & NE 66th St","network":"King County Metro","network:short":"KCM","network:wikidata":"Q6411393","operator":"King County Metro","operator:short":"KCM","operator:wikidata":"Q6411393","operator:wikipedia":"en:King County Metro","public_transport":"platform","ref":"73380","route_ref":"221;223;225;245","shelter":"no","tactile_paving":"no","wheelchair":"yes"}},{"type":"node","id":4584388017,"lat":47.6677897,"lon":-122.141887,"tags":{"bench":"no","bin":"no","bus":"yes","gtfs:feed":"US-WA-KCM","gtfs:stop_id":"72420","highway":"bus_stop","name":"NE Old Redmond Rd & 148th Ave NE","network":"King County Metro","network:short":"KCM","network:wikidata":"Q6411393","operator":"King County Metro","operator:short":"KCM","operator:wikidata":"Q6411393","operator:wikipedia":"en:King County Metro","public_transport":"platform","ref":"72420","route_ref":"221;223","shelter":"no","wheelchair":"yes"}},{"type":"node","id":4584388018,"lat":47.6583201,"lon":-122.1431306,"tags":{"bench":"yes","bus":"yes","gtfs:feed":"US-WA-KCM","gtfs:stop_id":"73352","highway":"bus_stop","name":"148th Ave NE & NE 55th St","network":"King County Metro","network:short":"KCM","network:wikidata":"Q6411393","operator":"King County Metro","operator:short":"KCM","operator:wikidata":"Q6411393","operator:wikipedia":"en:King County Metro","public_transport":"platform","ref":"73352","route_ref":"221;223;225;245","shelter":"yes","wheelchair":"yes"}},{"type":"node","id":4732541834,"lat":47.6693655,"lon":-122.1292128,"tags":{"barrier":"kerb","kerb":"lowered","tactile_paving":"yes","wheelchair":"yes"}},{"type":"node","id":4732708145,"lat":47.6652386,"lon":-122.1386792,"tags":{"amenity":"bench"}},{"type":"node","id":4775958858,"lat":47.6688554,"lon":-122.1434812},{"type":"node","id":4775958908,"lat":47.6688027,"lon":-122.1440492,"tags":{"amenity":"bench","backrest":"yes"}},{"type":"node","id":4775958909,"lat":47.6686232,"lon":-122.1440541,"tags":{"amenity":"bench","backrest":"yes"}},{"type":"node","id":4775959026,"lat":47.6682137,"lon":-122.1456323},{"type":"node","id":4775959027,"lat":47.6681865,"lon":-122.1455909},{"type":"node","id":4775959028,"lat":47.6681262,"lon":-122.1455945},{"type":"node","id":4775959029,"lat":47.6681259,"lon":-122.1456163},{"type":"node","id":4775959030,"lat":47.668103,"lon":-122.1456477},{"type":"node","id":4775959031,"lat":47.6681234,"lon":-122.1456819},{"type":"node","id":4789555218,"lat":47.6703359,"lon":-122.1217454,"tags":{"level":"0","name":"Paint Away!","opening_hours":"Mo-Sa 10:00-20:00; Su 11:00-19:00","phone":"+1-425-861-8388","shop":"doityourself","website":"https://paintawaynow.com/","wheelchair":"yes"}},{"type":"node","id":4789555220,"lat":47.6701418,"lon":-122.1217377,"tags":{"amenity":"school","level":"0","name":"Brightmont Academy","phone":"+1-425-373-0800","website":"https://www.brightmontacademy.com/","wheelchair":"yes"}},{"type":"node","id":4789555721,"lat":47.6698313,"lon":-122.1217339,"tags":{"addr:city":"Redmond","addr:housenumber":"7345","addr:postcode":"98052","addr:state":"WA","addr:street":"164th Avenue Northeast","addr:unit":"I-147","amenity":"restaurant","changing_table":"yes","cuisine":"poke","level":"0","name":"Just Poke","opening_hours":"Mo-Su 11:00-20:00","phone":"+1-425-242-0889","takeaway":"yes","toilets":"yes","website":"https://justpoke.com/locations/redmond/","wheelchair":"yes"}},{"type":"node","id":4792797637,"lat":47.6714522,"lon":-122.121334,"tags":{"addr:city":"Redmond","addr:housenumber":"7530","addr:postcode":"98052","addr:state":"WA","addr:street":"164th Avenue Northeast","addr:unit":"Suite A120","amenity":"dentist","healthcare":"dentist","level":"0","name":"Premier Periodontics","phone":"+1-425-289-0142","website":"https://www.premierperiodontics.com/"}},{"type":"node","id":4792797638,"lat":47.671254,"lon":-122.1213263,"tags":{"addr:city":"Redmond","addr:housenumber":"7530","addr:postcode":"98052","addr:state":"WA","addr:street":"164th Avenue Northeast","addr:unit":"Suite A135","amenity":"dentist","healthcare":"dentist","level":"0","name":"Redmond Signature Dentistry","phone":"+1-425-885-0008","website":"https://www.redmonddentistry.com/"}},{"type":"node","id":4792797639,"lat":47.6712219,"lon":-122.1212105,"tags":{"addr:city":"Redmond","addr:housenumber":"7530","addr:postcode":"98052","addr:state":"WA","addr:street":"164th Avenue Northeast","addr:unit":"Suite A250","amenity":"dentist","healthcare":"dentist","level":"1","name":"Redmond Orthodonics","phone":"+1-425-861-9685","website":"https://www.redmondortho.com/"}},{"type":"node","id":4792797641,"lat":47.671479,"lon":-122.1211357,"tags":{"addr:city":"Redmond","addr:housenumber":"7530","addr:postcode":"98052","addr:state":"WA","addr:street":"164th Avenue Northeast","addr:unit":"Suite A220","amenity":"dentist","healthcare":"dentist","level":"1","name":"Eastside Dental","phone":"+1-425-558-5600","website":"https://www.eastsidedental.com/"}},{"type":"node","id":4792797642,"lat":47.6709954,"lon":-122.1192469,"tags":{"check_date":"2023-07-11","healthcare":"physiotherapist","name":"Advantage Physical Therapy","phone":"+1-425-883-9630","website":"https://advantagesportstherapy.com/"}},{"type":"node","id":4853806258,"lat":47.6718086,"lon":-122.1177437,"tags":{"amenity":"doctors","healthcare":"doctor","name":"Redmond Foot & Ankle"}},{"type":"node","id":4853806261,"lat":47.6718582,"lon":-122.1177477,"tags":{"amenity":"dentist","healthcare":"dentist","name":"Traxler Dental"}},{"type":"node","id":4892892278,"lat":47.6599227,"lon":-122.138268,"tags":{"amenity":"bench"}},{"type":"node","id":5125495175,"lat":47.6747946,"lon":-122.0912148},{"type":"node","id":5125495176,"lat":47.6746472,"lon":-122.0909053},{"type":"node","id":5189972569,"lat":47.6701299,"lon":-122.1136514,"tags":{"barrier":"kerb","kerb":"lowered","tactile_paving":"yes","wheelchair":"yes"}},{"type":"node","id":5189976647,"lat":47.6716254,"lon":-122.1187356,"tags":{"barrier":"kerb","kerb":"lowered","tactile_paving":"yes","wheelchair":"yes"}},{"type":"node","id":5189976648,"lat":47.6714692,"lon":-122.1187474,"tags":{"barrier":"kerb","kerb":"lowered","tactile_paving":"yes","wheelchair":"yes"}},{"type":"node","id":5189976650,"lat":47.6715104,"lon":-122.118939,"tags":{"barrier":"kerb","kerb":"lowered","tactile_paving":"yes","wheelchair":"yes"}},{"type":"node","id":5189976651,"lat":47.6715457,"lon":-122.11898,"tags":{"barrier":"kerb","kerb":"lowered","tactile_paving":"yes","wheelchair":"yes"}},{"type":"node","id":5189976652,"lat":47.6716679,"lon":-122.1189734,"tags":{"barrier":"kerb","kerb":"lowered","tactile_paving":"yes","wheelchair":"yes"}},{"type":"node","id":5714261325,"lat":47.6672909,"lon":-122.102391,"tags":{"addr:city":"Redmond","addr:country":"US","addr:housenumber":"17875","addr:postcode":"98052","addr:state":"WA","addr:street":"Redmond Way","addr:unit":"160","amenity":"clinic","brand":"The Joint Chiropractic","brand:wikidata":"Q108611980","healthcare":"alternative","healthcare:speciality":"chiropractic","name":"The Joint Chiropractic","phone":"+1-425-970-9546","website":"https://www.thejoint.com/washington/redmond/redmond-whole-foods-42001"}},{"type":"node","id":5732604885,"lat":47.6617197,"lon":-122.157291},{"type":"node","id":5732604886,"lat":47.6617187,"lon":-122.1573867},{"type":"node","id":5732604887,"lat":47.6616544,"lon":-122.157394},{"type":"node","id":5732604888,"lat":47.6616328,"lon":-122.1574304},{"type":"node","id":5732604889,"lat":47.6616333,"lon":-122.1574865},{"type":"node","id":5732604890,"lat":47.6616264,"lon":-122.1575361},{"type":"node","id":5732604891,"lat":47.6616197,"lon":-122.1576177},{"type":"node","id":5880376222,"lat":47.6655354,"lon":-122.1659376,"tags":{"addr:city":"Kirkland","addr:housenumber":"12030","addr:postcode":"98033","addr:street":"Northeast 85th Street","addr:unit":"6623","brand":"Dollar Tree","brand:wikidata":"Q5289230","check_date":"2024-07-11","name":"Dollar Tree","opening_hours":"Mo-Su 08:00-21:00","shop":"variety_store","website":"https://www.dollartree.com/locations/wa/kirkland/7396/","wheelchair":"yes"}},{"type":"node","id":5919435642,"lat":47.6685452,"lon":-122.119029,"tags":{"barrier":"kerb","kerb":"lowered","tactile_paving":"yes","wheelchair":"yes"}},{"type":"node","id":5919435651,"lat":47.6689654,"lon":-122.119127,"tags":{"barrier":"kerb","kerb":"lowered","tactile_paving":"yes","wheelchair":"yes"}},{"type":"node","id":5919435653,"lat":47.6690761,"lon":-122.1190013,"tags":{"barrier":"kerb","kerb":"lowered","tactile_paving":"yes","wheelchair":"yes"}},{"type":"node","id":5919435701,"lat":47.6715803,"lon":-122.1216378,"tags":{"barrier":"kerb","kerb":"lowered","tactile_paving":"yes","wheelchair":"yes"}},{"type":"node","id":5919435709,"lat":47.6711837,"lon":-122.1214067,"tags":{"barrier":"kerb","kerb":"flush","tactile_paving":"no","wheelchair":"yes"}},{"type":"node","id":5919435716,"lat":47.6710868,"lon":-122.1214063,"tags":{"barrier":"kerb","kerb":"flush","tactile_paving":"no","wheelchair":"yes"}},{"type":"node","id":5953192260,"lat":47.6737579,"lon":-122.124157},{"type":"node","id":6040162636,"lat":47.6619373,"lon":-122.1189488},{"type":"node","id":6045070012,"lat":47.6700918,"lon":-122.1176235,"tags":{"barrier":"kerb","kerb":"lowered","tactile_paving":"yes","wheelchair":"yes"}},{"type":"node","id":6045070013,"lat":47.6700902,"lon":-122.1175146,"tags":{"barrier":"kerb","kerb":"lowered","tactile_paving":"yes","wheelchair":"yes"}},{"type":"node","id":6045070026,"lat":47.6700015,"lon":-122.1190076,"tags":{"barrier":"kerb","kerb":"lowered","tactile_paving":"yes","wheelchair":"yes"}},{"type":"node","id":6045077627,"lat":47.6690637,"lon":-122.1176204,"tags":{"barrier":"kerb","kerb":"flush","tactile_paving":"yes","wheelchair":"yes"}},{"type":"node","id":6050050587,"lat":47.6722268,"lon":-122.1100155},{"type":"node","id":6050050589,"lat":47.6713009,"lon":-122.1099942},{"type":"node","id":6050050591,"lat":47.6712873,"lon":-122.1099537},{"type":"node","id":6050050599,"lat":47.6720919,"lon":-122.1092471},{"type":"node","id":6074672145,"lat":47.6691212,"lon":-122.113667,"tags":{"barrier":"kerb","kerb":"lowered","tactile_paving":"no","wheelchair":"yes"}},{"type":"node","id":6074672146,"lat":47.6690961,"lon":-122.1135645,"tags":{"barrier":"kerb","kerb":"lowered","tactile_paving":"no","wheelchair":"yes"}},{"type":"node","id":6104013577,"lat":47.6738385,"lon":-122.0908968},{"type":"node","id":6104013578,"lat":47.673839,"lon":-122.0907897},{"type":"node","id":6104013579,"lat":47.6734781,"lon":-122.0909838},{"type":"node","id":6104013580,"lat":47.6734401,"lon":-122.091031},{"type":"node","id":6104013997,"lat":47.6735682,"lon":-122.0908032},{"type":"node","id":6104024012,"lat":47.6731586,"lon":-122.0897532,"tags":{"barrier":"kerb","kerb":"lowered","tactile_paving":"yes","wheelchair":"yes"}},{"type":"node","id":6104024022,"lat":47.6722341,"lon":-122.0921803,"tags":{"barrier":"kerb","kerb":"lowered","tactile_paving":"yes","wheelchair":"yes"}},{"type":"node","id":6114269350,"lat":47.673761,"lon":-122.1213881,"tags":{"barrier":"kerb","kerb":"lowered","tactile_paving":"yes","wheelchair":"yes"}},{"type":"node","id":6300031039,"lat":47.6733486,"lon":-122.1314804,"tags":{"access":"yes","amenity":"drinking_water","bottle":"no","dog":"yes","drinking_water":"yes","fee":"no","fountain":"bubbler","indoor":"no","man_made":"drinking_fountain","operator":"City of Redmond","wheelchair":"yes"}},{"type":"node","id":6300037087,"lat":47.668178,"lon":-122.1455888,"tags":{"amenity":"drinking_water","fountain":"bubbler"}},{"type":"node","id":6346218686,"lat":47.6603311,"lon":-122.1204557,"tags":{"amenity":"bench"}},{"type":"node","id":6486017399,"lat":47.6615286,"lon":-122.1235447,"tags":{"amenity":"bench","backrest":"yes","material":"wood"}},{"type":"node","id":6577643583,"lat":47.6715248,"lon":-122.1100226},{"type":"node","id":6585428782,"lat":47.6694911,"lon":-122.1182286,"tags":{"access":"private","door":"hinged","door:wings":"2","entrance":"main","level":"0","wheelchair":"yes"}},{"type":"node","id":6591918937,"lat":47.6728648,"lon":-122.1141204,"tags":{"barrier":"kerb","kerb":"raised","tactile_paving":"no","wheelchair":"no"}},{"type":"node","id":6648333803,"lat":47.6579585,"lon":-122.111126,"tags":{"amenity":"bench","backrest":"yes"}},{"type":"node","id":6693637293,"lat":47.6720295,"lon":-122.1270107},{"type":"node","id":6693637294,"lat":47.6722312,"lon":-122.1270486},{"type":"node","id":6693637305,"lat":47.6725432,"lon":-122.1270585,"tags":{"access":"private","entrance":"yes","level":"0"}},{"type":"node","id":6814417315,"lat":47.6733365,"lon":-122.1314513,"tags":{"amenity":"bench","backrest":"yes"}},{"type":"node","id":6898831349,"lat":47.6670952,"lon":-122.158295,"tags":{"bench":"yes","bin":"no","bus":"yes","gtfs:feed":"US-WA-KCM","gtfs:stop_id":"72050","highway":"bus_stop","lit":"no","name":"NE Old Redmond Rd & 137th Ave NE","network":"King County Metro","network:short":"KCM","network:wikidata":"Q6411393","operator":"King County Metro","operator:short":"KCM","operator:wikidata":"Q6411393","operator:wikipedia":"en:King County Metro","public_transport":"platform","ref":"72050","route_ref":"225;245","shelter":"yes","tactile_paving":"yes","wheelchair":"yes"}},{"type":"node","id":6898831350,"lat":47.667038,"lon":-122.164688,"tags":{"bus":"yes","gtfs:feed":"US-WA-KCM","gtfs:stop_id":"72060","highway":"bus_stop","name":"NE 70th Pl & 132nd Ave NE","network":"King County Metro","network:short":"KCM","network:wikidata":"Q6411393","operator":"King County Metro","operator:short":"KCM","operator:wikidata":"Q6411393","operator:wikipedia":"en:King County Metro","public_transport":"platform","ref":"72060","route_ref":"245;895","wheelchair":"yes"}},{"type":"node","id":6898831351,"lat":47.6663628,"lon":-122.148911,"tags":{"bench":"yes","bin":"yes","bus":"yes","gtfs:feed":"US-WA-KCM","gtfs:stop_id":"72030","highway":"bus_stop","lit":"no","name":"NE Old Redmond Rd & 143rd Ct NE","network":"King County Metro","network:short":"KCM","network:wikidata":"Q6411393","operator":"King County Metro","operator:short":"KCM","operator:wikidata":"Q6411393","operator:wikipedia":"en:King County Metro","public_transport":"platform","ref":"72030","route_ref":"225;245","shelter":"yes","tactile_paving":"no","wheelchair":"yes"}},{"type":"node","id":6898831352,"lat":47.6661758,"lon":-122.153076,"tags":{"bench":"yes","bin":"no","bus":"yes","gtfs:feed":"US-WA-KCM","gtfs:stop_id":"72040","highway":"bus_stop","name":"NE Old Redmond Rd & 140th Ave NE","network":"King County Metro","network:short":"KCM","network:wikidata":"Q6411393","operator":"King County Metro","operator:short":"KCM","operator:wikidata":"Q6411393","operator:wikipedia":"en:King County Metro","public_transport":"platform","ref":"72040","route_ref":"225;245","shelter":"yes","wheelchair":"yes"}},{"type":"node","id":6898831353,"lat":47.6546898,"lon":-122.139389,"tags":{"bench":"yes","bin":"no","bus":"yes","gtfs:feed":"US-WA-KCM","gtfs:stop_id":"73419","highway":"bus_stop","name":"NE 51st St & Sr 520","network":"King County Metro","network:short":"KCM","network:wikidata":"Q6411393","operator":"King County Metro","operator:short":"KCM","operator:wikidata":"Q6411393","operator:wikipedia":"en:King County Metro","public_transport":"platform","ref":"73419","route_ref":"245;269","shelter":"no","tactile_paving":"no","wheelchair":"yes"}},{"type":"node","id":6898831354,"lat":47.667527,"lon":-122.1439731,"tags":{"bench":"yes","bin":"yes","bus":"yes","gtfs:feed":"US-WA-KCM","gtfs:stop_id":"72015","highway":"bus_stop","lit":"no","name":"NE Old Redmond Rd & 148th Ave NE","network":"King County Metro","network:short":"KCM","network:wikidata":"Q6411393","operator":"King County Metro","operator:short":"KCM","operator:wikidata":"Q6411393","operator:wikipedia":"en:King County Metro","public_transport":"platform","ref":"72015","route_ref":"225;245","shelter":"yes","tactile_paving":"no","wheelchair":"yes"}},{"type":"node","id":6898831355,"lat":47.6520233,"lon":-122.132339,"tags":{"bench":"yes","bin":"no","bus":"yes","gtfs:feed":"US-WA-KCM","gtfs:stop_id":"68406","highway":"bus_stop","name":"156th Ave NE & NE 51st St","network":"King County Metro","network:short":"KCM","network:wikidata":"Q6411393","operator":"King County Metro","operator:short":"KCM","operator:wikidata":"Q6411393","operator:wikipedia":"en:King County Metro","public_transport":"platform","ref":"68406","route_ref":"245","shelter":"no","tactile_paving":"no","wheelchair":"yes"}},{"type":"node","id":6898831356,"lat":47.6541557,"lon":-122.134995,"tags":{"bench":"yes","bus":"yes","gtfs:feed":"US-WA-KCM","gtfs:stop_id":"73188","highway":"bus_stop","name":"NE 51st St & 154th Ave NE","network":"King County Metro","network:short":"KCM","network:wikidata":"Q6411393","operator":"King County Metro","operator:short":"KCM","operator:wikidata":"Q6411393","operator:wikipedia":"en:King County Metro","public_transport":"platform","ref":"73188","route_ref":"245","shelter":"yes","wheelchair":"yes"}},{"type":"node","id":6898831358,"lat":47.6500359,"lon":-122.132271,"tags":{"bench":"yes","bin":"no","bus":"yes","gtfs:feed":"US-WA-KCM","gtfs:stop_id":"68463","highway":"bus_stop","name":"156th Ave NE & NE 45th St","network":"King County Metro","network:short":"KCM","network:wikidata":"Q6411393","operator":"King County Metro","operator:short":"KCM","operator:wikidata":"Q6411393","operator:wikipedia":"en:King County Metro","public_transport":"platform","ref":"68463","route_ref":"245","shelter":"no","tactile_paving":"no","wheelchair":"yes"}},{"type":"node","id":6898831373,"lat":47.6492538,"lon":-122.132446,"tags":{"bench":"yes","bin":"yes","bus":"yes","gtfs:feed":"US-WA-KCM","gtfs:stop_id":"68462","highway":"bus_stop","lit":"yes","name":"156th Ave NE & NE 45th St","network":"King County Metro","network:short":"KCM","network:wikidata":"Q6411393","operator":"King County Metro","operator:short":"KCM","operator:wikidata":"Q6411393","operator:wikipedia":"en:King County Metro","public_transport":"platform","ref":"68462","route_ref":"245","shelter":"yes","tactile_paving":"no","wheelchair":"yes"}},{"type":"node","id":6898831375,"lat":47.6548615,"lon":-122.14212,"tags":{"bench":"yes","bin":"yes","bus":"yes","gtfs:feed":"US-WA-KCM","gtfs:stop_id":"73167","highway":"bus_stop","name":"NE 51st St & 148th Ave NE","network":"King County Metro","network:short":"KCM","network:wikidata":"Q6411393","operator":"King County Metro","operator:short":"KCM","operator:wikidata":"Q6411393","operator:wikipedia":"en:King County Metro","public_transport":"platform","ref":"73167","route_ref":"245;269","shelter":"yes","tactile_paving":"no","wheelchair":"yes"}},{"type":"node","id":6898831376,"lat":47.6519547,"lon":-122.132545,"tags":{"bench":"yes","bin":"yes","bus":"yes","gtfs:feed":"US-WA-KCM","gtfs:stop_id":"68391","highway":"bus_stop","name":"156th Ave NE & NE 51st St","network":"King County Metro","network:short":"KCM","network:wikidata":"Q6411393","operator":"King County Metro","operator:short":"KCM","operator:wikidata":"Q6411393","operator:wikipedia":"en:King County Metro","public_transport":"platform","ref":"68391","route_ref":"245","shelter":"yes","tactile_paving":"no","wheelchair":"yes"}},{"type":"node","id":6898831377,"lat":47.6663399,"lon":-122.148186,"tags":{"bench":"no","bin":"no","bus":"yes","gtfs:feed":"US-WA-KCM","gtfs:stop_id":"72400","highway":"bus_stop","name":"NE Old Redmond Rd & 143rd Ave NE","network":"King County Metro","network:short":"KCM","network:wikidata":"Q6411393","operator":"King County Metro","operator:short":"KCM","operator:wikidata":"Q6411393","operator:wikipedia":"en:King County Metro","public_transport":"platform","ref":"72400","route_ref":"225;245","shelter":"no","wheelchair":"yes"}},{"type":"node","id":6898831378,"lat":47.6671181,"lon":-122.144279,"tags":{"bench":"no","bin":"no","bus":"yes","gtfs:feed":"US-WA-KCM","gtfs:stop_id":"72410","highway":"bus_stop","name":"NE Old Redmond Rd & 147th Ct NE","network":"King County Metro","network:short":"KCM","network:wikidata":"Q6411393","operator":"King County Metro","operator:short":"KCM","operator:wikidata":"Q6411393","operator:wikipedia":"en:King County Metro","public_transport":"platform","ref":"72410","route_ref":"225;245","shelter":"no","tactile_paving":"no","wheelchair":"yes"}},{"type":"node","id":6898831379,"lat":47.6669884,"lon":-122.157791,"tags":{"bench":"yes","bin":"yes","bus":"yes","gtfs:feed":"US-WA-KCM","gtfs:stop_id":"72380","highway":"bus_stop","lit":"no","name":"NE Old Redmond Rd & 137th Ave NE","network":"King County Metro","network:short":"KCM","network:wikidata":"Q6411393","operator":"King County Metro","operator:short":"KCM","operator:wikidata":"Q6411393","operator:wikipedia":"en:King County Metro","public_transport":"platform","ref":"72380","route_ref":"225;245","shelter":"yes","tactile_paving":"no","wheelchair":"yes"}},{"type":"node","id":6898831380,"lat":47.6660309,"lon":-122.152985,"tags":{"bench":"yes","bin":"yes","bus":"yes","gtfs:feed":"US-WA-KCM","gtfs:stop_id":"72391","highway":"bus_stop","name":"NE Old Redmond Rd & 140th Ave NE","network":"King County Metro","network:short":"KCM","network:wikidata":"Q6411393","operator":"King County Metro","operator:short":"KCM","operator:wikidata":"Q6411393","operator:wikipedia":"en:King County Metro","public_transport":"platform","ref":"72391","route_ref":"225;245","shelter":"yes","wheelchair":"yes"}},{"type":"node","id":6898831381,"lat":47.6672134,"lon":-122.166153,"tags":{"bench":"yes","bin":"no","bus":"yes","disused:highway":"bus_stop","disused:public_transport":"platform","gtfs:feed":"US-WA-KCM","gtfs:stop_id":"72360","name":"NE 70th Pl & 130th Ave NE","network":"King County Metro","network:short":"KCM","network:wikidata":"Q6411393","operator":"King County Metro","operator:short":"KCM","operator:wikidata":"Q6411393","operator:wikipedia":"en:King County Metro","ref":"72360","route_ref":"245","shelter":"no","wheelchair":"yes"}},{"type":"node","id":6898831382,"lat":47.6665077,"lon":-122.163307,"tags":{"bench":"no","bin":"no","bus":"yes","gtfs:feed":"US-WA-KCM","gtfs:stop_id":"72371","highway":"bus_stop","name":"NE Old Redmond Rd & 132nd Ave NE","network":"King County Metro","network:short":"KCM","network:wikidata":"Q6411393","operator":"King County Metro","operator:short":"KCM","operator:wikidata":"Q6411393","operator:wikipedia":"en:King County Metro","public_transport":"platform","ref":"72371","route_ref":"225;245","shelter":"no","tactile_paving":"no","wheelchair":"yes"}},{"type":"node","id":6899037971,"lat":47.6728697,"lon":-122.118201,"tags":{"bench":"no","bin":"no","gtfs:stop_id:US-WA-KCM":"72488","highway":"bus_stop","lit":"no","name":"Redmond Way & 166th Avenue Northeast","network":"King County Metro","network:short":"KCM","network:wikidata":"Q6411393","operator":"King County Metro","operator:short":"KCM","operator:wikidata":"Q6411393","operator:wikipedia":"en:King County Metro","public_transport":"platform","ref":"72488","route_ref":"545","shelter":"no","tactile_paving":"no","wheelchair":"yes"}},{"type":"node","id":6899051414,"lat":47.673589,"lon":-122.1009946,"tags":{"bus":"yes","gtfs:stop_id:US-WA-KCM":"81755","highway":"bus_stop","name":"Bear Creek Park And Ride","network":"King County Metro","network:short":"KCM","network:wikidata":"Q6411393","operator":"King County Metro","operator:short":"KCM","operator:wikidata":"Q6411393","operator:wikipedia":"en:King County Metro","public_transport":"platform","ref":"81755","route_ref":"250;269;545;982","wheelchair":"yes"}},{"type":"node","id":6899051430,"lat":47.6717563,"lon":-122.103722,"tags":{"bench":"no","bin":"yes","bus":"yes","gtfs:stop_id:US-WA-KCM":"72305","highway":"bus_stop","lit":"no","name":"Northeast 76th Street & 177th Place Northeast","network":"King County Metro","network:short":"KCM","network:wikidata":"Q6411393","operator":"King County Metro","operator:short":"KCM","operator:wikidata":"Q6411393","operator:wikipedia":"en:King County Metro","public_transport":"platform","ref":"72305","route_ref":"269;545","shelter":"no","tactile_paving":"no","wheelchair":"yes"}},{"type":"node","id":6899051433,"lat":47.6715965,"lon":-122.103897,"tags":{"bench":"no","bin":"no","gtfs:stop_id:US-WA-KCM":"72306","highway":"bus_stop","lit":"no","name":"Northeast 76th Street & 177th Place Northeast","network":"King County Metro","network:short":"KCM","network:wikidata":"Q6411393","operator":"King County Metro","operator:short":"KCM","operator:wikidata":"Q6411393","operator:wikipedia":"en:King County Metro","public_transport":"platform","ref":"72306","route_ref":"269;545","shelter":"no","tactile_paving":"no","wheelchair":"yes"}},{"type":"node","id":6899051435,"lat":47.669899,"lon":-122.131017,"tags":{"bench":"yes","bin":"yes","bus":"yes","gtfs:stop_id:US-WA-KCM":"72456","highway":"bus_stop","name":"West Lake Sammamish Parkway Northeast & Leary Way","network":"King County Metro","network:short":"KCM","network:wikidata":"Q6411393","operator":"King County Metro","operator:short":"KCM","operator:wikidata":"Q6411393","operator:wikipedia":"en:King County Metro","public_transport":"platform","ref":"72456","route_ref":"222;542;545","shelter":"yes","tactile_paving":"no","wheelchair":"yes"}},{"type":"node","id":6899051437,"lat":47.6733603,"lon":-122.119372,"tags":{"gtfs:stop_id:US-WA-KCM":"72487","highway":"bus_stop","name":"Redmond Way & 166th Avenue Northeast","network":"King County Metro","network:short":"KCM","network:wikidata":"Q6411393","operator":"King County Metro","operator:short":"KCM","operator:wikidata":"Q6411393","operator:wikipedia":"en:King County Metro","public_transport":"platform","ref":"72487","route_ref":"545","wheelchair":"yes"}},{"type":"node","id":6899051438,"lat":47.6698189,"lon":-122.130348,"tags":{"bench":"no","bin":"no","bus":"yes","gtfs:stop_id:US-WA-KCM":"72458","highway":"bus_stop","name":"West Lake Sammamish Parkway Northeast & Leary Way","network":"King County Metro","network:short":"KCM","network:wikidata":"Q6411393","operator":"King County Metro","operator:short":"KCM","operator:wikidata":"Q6411393","operator:wikipedia":"en:King County Metro","public_transport":"platform","ref":"72458","route_ref":"222;542;545","shelter":"no","tactile_paving":"no","wheelchair":"yes"}},{"type":"node","id":6955721535,"lat":47.6735848,"lon":-122.090827},{"type":"node","id":6955721536,"lat":47.6734874,"lon":-122.0909272},{"type":"node","id":6955721537,"lat":47.6734778,"lon":-122.0910314},{"type":"node","id":6955721542,"lat":47.6735749,"lon":-122.0908127},{"type":"node","id":6955721543,"lat":47.6734352,"lon":-122.0920957},{"type":"node","id":6955721546,"lat":47.6734932,"lon":-122.0909355},{"type":"node","id":6955721547,"lat":47.673438,"lon":-122.0914816},{"type":"node","id":6955789053,"lat":47.6735282,"lon":-122.0908647,"tags":{"entrance":"main"}},{"type":"node","id":6955789244,"lat":47.6728821,"lon":-122.0908724,"tags":{"barrier":"kerb","kerb":"flush","tactile_paving":"no","wheelchair":"yes"}},{"type":"node","id":6955789245,"lat":47.6728034,"lon":-122.0908735,"tags":{"barrier":"kerb","kerb":"flush","tactile_paving":"no","wheelchair":"yes"}},{"type":"node","id":6955789248,"lat":47.6723345,"lon":-122.090867,"tags":{"barrier":"kerb","kerb":"flush","tactile_paving":"no","wheelchair":"yes"}},{"type":"node","id":6955789249,"lat":47.6723994,"lon":-122.0908674,"tags":{"barrier":"kerb","kerb":"flush","tactile_paving":"no","wheelchair":"yes"}},{"type":"node","id":6955789257,"lat":47.6722184,"lon":-122.0924494,"tags":{"barrier":"kerb","kerb":"lowered","tactile_paving":"yes","wheelchair":"yes"}},{"type":"node","id":6955789262,"lat":47.6720724,"lon":-122.0910895,"tags":{"barrier":"kerb","kerb":"lowered","tactile_paving":"yes","wheelchair":"yes"}},{"type":"node","id":7009961017,"lat":47.6468566,"lon":-122.1372083,"tags":{"amenity":"bench"}},{"type":"node","id":7009961018,"lat":47.6467998,"lon":-122.1371501,"tags":{"amenity":"bench"}},{"type":"node","id":7009961019,"lat":47.6467476,"lon":-122.1371087,"tags":{"amenity":"bench"}},{"type":"node","id":7009961020,"lat":47.6466882,"lon":-122.1370553,"tags":{"amenity":"bench"}},{"type":"node","id":7009961021,"lat":47.6469087,"lon":-122.1372634,"tags":{"amenity":"bench"}},{"type":"node","id":7009961022,"lat":47.6469263,"lon":-122.1372595,"tags":{"amenity":"bench"}},{"type":"node","id":7009961023,"lat":47.6469711,"lon":-122.1371664,"tags":{"amenity":"bench"}},{"type":"node","id":7009961024,"lat":47.6469718,"lon":-122.1371217,"tags":{"amenity":"bench"}},{"type":"node","id":7064219872,"lat":47.6651008,"lon":-122.118418,"tags":{"amenity":"toilets"}},{"type":"node","id":7064219873,"lat":47.6659442,"lon":-122.1181887,"tags":{"amenity":"toilets","toilets:disposal":"bucket"}},{"type":"node","id":7064219874,"lat":47.6655298,"lon":-122.1217834,"tags":{"amenity":"drinking_water"}},{"type":"node","id":7064219875,"lat":47.6660234,"lon":-122.1195412,"tags":{"amenity":"drinking_water"}},{"type":"node","id":7123592141,"lat":47.6579376,"lon":-122.0934493,"tags":{"barrier":"swing_gate","bicycle":"yes","foot":"yes","locked":"yes","material":"metal","opening_hours":"off","wheelchair":"no"}},{"type":"node","id":7157792192,"lat":47.6468017,"lon":-122.1336756,"tags":{"amenity":"bench","backrest":"no"}},{"type":"node","id":7157792194,"lat":47.6470213,"lon":-122.1336636,"tags":{"amenity":"bench","backrest":"no"}},{"type":"node","id":7164912843,"lat":47.646563,"lon":-122.1335177,"tags":{"amenity":"bench","backrest":"no"}},{"type":"node","id":7164913101,"lat":47.6494789,"lon":-122.1348176,"tags":{"amenity":"bench","backrest":"yes"}},{"type":"node","id":7165167817,"lat":47.6507546,"lon":-122.1345488,"tags":{"amenity":"bench","backrest":"yes"}},{"type":"node","id":7209775550,"lat":47.6594834,"lon":-122.1415446,"tags":{"amenity":"bench"}},{"type":"node","id":7209775551,"lat":47.6594834,"lon":-122.1415157,"tags":{"amenity":"bench"}},{"type":"node","id":7213677059,"lat":47.6585645,"lon":-122.1408637,"tags":{"amenity":"bench"}},{"type":"node","id":7213677060,"lat":47.6586453,"lon":-122.1409407,"tags":{"amenity":"bench"}},{"type":"node","id":7213677065,"lat":47.6591118,"lon":-122.139013,"tags":{"amenity":"bench"}},{"type":"node","id":7213677066,"lat":47.6591377,"lon":-122.1390137,"tags":{"amenity":"bench"}},{"type":"node","id":7213677078,"lat":47.659464,"lon":-122.1398619,"tags":{"amenity":"bench"}},{"type":"node","id":7213677079,"lat":47.6594409,"lon":-122.1398628,"tags":{"amenity":"bench"}},{"type":"node","id":7213677080,"lat":47.659474,"lon":-122.1397815,"tags":{"amenity":"bench"}},{"type":"node","id":7213677081,"lat":47.6594741,"lon":-122.139824,"tags":{"amenity":"bench"}},{"type":"node","id":7213682343,"lat":47.6586137,"lon":-122.1402517,"tags":{"amenity":"bench"}},{"type":"node","id":7213735605,"lat":47.6586627,"lon":-122.1392854,"tags":{"amenity":"bench"}},{"type":"node","id":7213735606,"lat":47.6586626,"lon":-122.1392527,"tags":{"amenity":"bench"}},{"type":"node","id":7221345267,"lat":47.6591676,"lon":-122.1391451,"tags":{"amenity":"bench"}},{"type":"node","id":7234329936,"lat":47.6522429,"lon":-122.1334453,"tags":{"amenity":"bench","backrest":"yes"}},{"type":"node","id":7240925698,"lat":47.6512618,"lon":-122.134651,"tags":{"amenity":"bench","backrest":"yes"}},{"type":"node","id":7241159881,"lat":47.6517169,"lon":-122.1354844,"tags":{"amenity":"bench","backrest":"yes"}},{"type":"node","id":7241160055,"lat":47.6512297,"lon":-122.1340364,"tags":{"amenity":"bench","backrest":"yes"}},{"type":"node","id":7251783910,"lat":47.6473199,"lon":-122.1331259,"tags":{"amenity":"bench","backrest":"no"}},{"type":"node","id":7251783911,"lat":47.6472599,"lon":-122.1331189,"tags":{"amenity":"bench","backrest":"no"}},{"type":"node","id":7251950317,"lat":47.6739811,"lon":-122.1238951},{"type":"node","id":7346644203,"lat":47.6466251,"lon":-122.1237599,"tags":{"amenity":"bench"}},{"type":"node","id":7346644204,"lat":47.646603,"lon":-122.1237589,"tags":{"amenity":"bench"}},{"type":"node","id":7346644205,"lat":47.646514,"lon":-122.1237123,"tags":{"amenity":"bench"}},{"type":"node","id":7346644206,"lat":47.6464871,"lon":-122.1236875,"tags":{"amenity":"bench"}},{"type":"node","id":7423999884,"lat":47.6694875,"lon":-122.1228735},{"type":"node","id":7424004285,"lat":47.6694874,"lon":-122.1230686},{"type":"node","id":7424004292,"lat":47.6698356,"lon":-122.1236828},{"type":"node","id":7424004293,"lat":47.66995,"lon":-122.1236806},{"type":"node","id":7424004294,"lat":47.6699501,"lon":-122.1237541},{"type":"node","id":7424004295,"lat":47.6698357,"lon":-122.1237546},{"type":"node","id":7836737198,"lat":47.669133,"lon":-122.118512,"tags":{"access":"private","door":"hinged","door:wings":"1","entrance":"service","level":"0","wheelchair":"yes"}},{"type":"node","id":7836764523,"lat":47.6697949,"lon":-122.1232913,"tags":{"access":"private","amenity":"parking_entrance"}},{"type":"node","id":7836764526,"lat":47.669795,"lon":-122.1233542,"tags":{"amenity":"parking_entrance"}},{"type":"node","id":7836764529,"lat":47.670257,"lon":-122.1229607,"tags":{"amenity":"parking_entrance"}},{"type":"node","id":7836764531,"lat":47.6702018,"lon":-122.1229609,"tags":{"amenity":"parking_entrance"}},{"type":"node","id":7836764535,"lat":47.6704036,"lon":-122.1226727,"tags":{"amenity":"parking_entrance"}},{"type":"node","id":8066641351,"lat":47.6662009,"lon":-122.157039},{"type":"node","id":8066641352,"lat":47.6662001,"lon":-122.1569656},{"type":"node","id":8385091466,"lat":47.6702071,"lon":-122.0915485,"tags":{"barrier":"kerb","kerb":"lowered","tactile_paving":"yes","wheelchair":"yes"}},{"type":"node","id":8385091468,"lat":47.6701241,"lon":-122.0915316,"tags":{"barrier":"kerb","kerb":"lowered","tactile_paving":"yes","wheelchair":"yes"}},{"type":"node","id":8385091477,"lat":47.6701967,"lon":-122.0906042,"tags":{"barrier":"kerb","kerb":"lowered","tactile_paving":"yes","wheelchair":"yes"}},{"type":"node","id":8385091522,"lat":47.6702401,"lon":-122.0902906,"tags":{"barrier":"kerb","kerb":"lowered","tactile_paving":"yes","wheelchair":"yes"}},{"type":"node","id":8395081153,"lat":47.6720737,"lon":-122.0909046,"tags":{"barrier":"kerb","kerb":"lowered","tactile_paving":"yes","wheelchair":"yes"}},{"type":"node","id":8395081162,"lat":47.6705146,"lon":-122.0895181,"tags":{"barrier":"kerb","kerb":"lowered","tactile_paving":"yes","wheelchair":"yes"}},{"type":"node","id":8395090065,"lat":47.6647278,"lon":-122.0935866,"tags":{"barrier":"kerb","kerb":"lowered","tactile_paving":"no","wheelchair":"yes"}},{"type":"node","id":8395090068,"lat":47.6648229,"lon":-122.0935866,"tags":{"barrier":"kerb","kerb":"lowered","tactile_paving":"no","wheelchair":"yes"}},{"type":"node","id":8703280984,"lat":47.6731969,"lon":-122.1290129,"tags":{"amenity":"pharmacy","check_date":"2024-08-11","healthcare":"pharmacy","name":"Kaiser Permanente","opening_hours":"Mo-Fr 08:15-17:15, Sa-Su closed"}},{"type":"node","id":8785261604,"lat":47.6697949,"lon":-122.1234942},{"type":"node","id":8827761975,"lat":47.662538,"lon":-122.125967,"tags":{"amenity":"bench","backrest":"no","material":"concrete"}},{"type":"node","id":8925611980,"lat":47.6488292,"lon":-122.0880169},{"type":"node","id":8925611981,"lat":47.6488879,"lon":-122.088091},{"type":"node","id":8925611982,"lat":47.64893,"lon":-122.0880175},{"type":"node","id":8925611983,"lat":47.6488712,"lon":-122.0879434},{"type":"node","id":9189037388,"lat":47.6461985,"lon":-122.1088073,"tags":{"bus":"yes","gtfs:feed":"US-WA-KCM","gtfs:stop_id":"68403","highway":"bus_stop","name":"NE 40th St & West Lake Sammamish Pkwy SE","network":"King County Metro","network:short":"KCM","network:wikidata":"Q6411393","operator":"King County Metro","operator:short":"KCM","operator:wikidata":"Q6411393","operator:wikipedia":"en:King County Metro","public_transport":"platform","ref":"68403","route_ref":"249;895","wheelchair":"yes"}},{"type":"node","id":9196183193,"lat":47.6713101,"lon":-122.164042,"tags":{"bus":"yes","gtfs:feed":"US-WA-KCM","gtfs:stop_id":"73924","highway":"bus_stop","name":"132nd Ave NE & NE 75th St","network":"King County Metro","network:short":"KCM","network:wikidata":"Q6411393","operator":"King County Metro","operator:short":"KCM","operator:wikidata":"Q6411393","operator:wikipedia":"en:King County Metro","public_transport":"platform","ref":"73924","route_ref":"225","wheelchair":"yes"}},{"type":"node","id":9196183194,"lat":47.6719458,"lon":-122.1638435,"tags":{"bench":"no","bin":"no","bus":"yes","gtfs:feed":"US-WA-KCM","gtfs:stop_id":"73925","highway":"bus_stop","name":"132nd Ave NE & NE 75th St","network":"King County Metro","network:short":"KCM","network:wikidata":"Q6411393","operator":"King County Metro","operator:short":"KCM","operator:wikidata":"Q6411393","operator:wikipedia":"en:King County Metro","public_transport":"platform","ref":"73925","route_ref":"225","shelter":"no","wheelchair":"yes"}},{"type":"node","id":9365661803,"lat":47.6461325,"lon":-122.1232215,"tags":{"bus":"yes","gtfs:feed":"US-WA-KCM","gtfs:stop_id":"68407","highway":"bus_stop","name":"NE 40th St & 163rd Ave NE","network":"King County Metro","network:short":"KCM","network:wikidata":"Q6411393","operator":"King County Metro","operator:short":"KCM","operator:wikidata":"Q6411393","operator:wikipedia":"en:King County Metro","public_transport":"platform","ref":"68407","route_ref":"249;895","wheelchair":"yes"}},{"type":"node","id":9365661804,"lat":47.6460088,"lon":-122.1145163,"tags":{"bench":"no","bin":"no","bus":"yes","gtfs:feed":"US-WA-KCM","gtfs:stop_id":"73092","highway":"bus_stop","name":"NE 40th St & NE Bel-Red Rd","network":"King County Metro","network:short":"KCM","network:wikidata":"Q6411393","operator":"King County Metro","operator:short":"KCM","operator:wikidata":"Q6411393","operator:wikipedia":"en:King County Metro","public_transport":"platform","ref":"73092","route_ref":"249;895","shelter":"no","wheelchair":"yes"}},{"type":"node","id":9365661805,"lat":47.6461407,"lon":-122.1151158,"tags":{"bus":"yes","gtfs:feed":"US-WA-KCM","gtfs:stop_id":"73077","highway":"bus_stop","name":"NE 40th St & NE Bel-Red Rd","network":"King County Metro","network:short":"KCM","network:wikidata":"Q6411393","operator":"King County Metro","operator:short":"KCM","operator:wikidata":"Q6411393","operator:wikipedia":"en:King County Metro","public_transport":"platform","ref":"73077","route_ref":"249;895","wheelchair":"yes"}},{"type":"node","id":9366553654,"lat":47.6728525,"lon":-122.1120152,"tags":{"bus":"yes","gtfs:feed":"US-WA-KCM","gtfs:stop_id":"80496","highway":"bus_stop","name":"Avondale Way NE & 170th Pl NE","network":"King County Metro","network:short":"KCM","network:wikidata":"Q6411393","operator":"King County Metro","operator:short":"KCM","operator:wikidata":"Q6411393","operator:wikipedia":"en:King County Metro","public_transport":"platform","ref":"80496","route_ref":"224;250","wheelchair":"yes"}},{"type":"node","id":9366553655,"lat":47.6727369,"lon":-122.111586,"tags":{"bus":"yes","gtfs:feed":"US-WA-KCM","gtfs:stop_id":"84014","highway":"bus_stop","name":"Avondale Way NE & 170th Pl NE","network":"King County Metro","network:short":"KCM","network:wikidata":"Q6411393","operator":"King County Metro","operator:short":"KCM","operator:wikidata":"Q6411393","operator:wikipedia":"en:King County Metro","public_transport":"platform","ref":"84014","route_ref":"224;250","wheelchair":"yes"}},{"type":"node","id":9366553656,"lat":47.6722547,"lon":-122.1145593,"tags":{"bench":"no","bin":"no","disused:highway":"bus_stop","disused:public_transport":"platform","gtfs:feed":"US-WA-KCM","gtfs:stop_id":"84013","name":"Avondale Way NE & NE Redmond Way","network":"King County Metro","network:short":"KCM","network:wikidata":"Q6411393","operator":"King County Metro","operator:short":"KCM","operator:wikidata":"Q6411393","operator:wikipedia":"en:King County Metro","ref":"84013","route_ref":"224;250","shelter":"no","tactile_paving":"no","wheelchair":"yes"}},{"type":"node","id":9366553657,"lat":47.6723676,"lon":-122.1149462,"tags":{"bench":"no","bin":"no","disused:highway":"bus_stop","disused:public_transport":"platform","gtfs:feed":"US-WA-KCM","gtfs:stop_id":"80498","lit":"no","name":"Avondale Way NE & NE Redmond Way","network":"King County Metro","network:short":"KCM","network:wikidata":"Q6411393","operator":"King County Metro","operator:short":"KCM","operator:wikidata":"Q6411393","operator:wikipedia":"en:King County Metro","ref":"80498","route_ref":"224;250","shelter":"no","tactile_paving":"no","wheelchair":"yes"}},{"type":"node","id":9488405005,"lat":47.6692999,"lon":-122.1297518,"tags":{"barrier":"kerb","kerb":"lowered","tactile_paving":"yes","wheelchair":"yes"}},{"type":"node","id":9488405006,"lat":47.6694928,"lon":-122.1295504,"tags":{"barrier":"kerb","kerb":"lowered","tactile_paving":"yes","wheelchair":"yes"}},{"type":"node","id":9598642228,"lat":47.6663676,"lon":-122.1002117,"tags":{"barrier":"kerb","kerb":"lowered","tactile_paving":"yes","wheelchair":"yes"}},{"type":"node","id":9598642230,"lat":47.6665412,"lon":-122.1002863,"tags":{"barrier":"kerb","kerb":"lowered","tactile_paving":"yes","wheelchair":"yes"}},{"type":"node","id":9598642234,"lat":47.6654046,"lon":-122.0997699,"tags":{"barrier":"kerb","kerb":"flush","tactile_paving":"yes","wheelchair":"yes"}},{"type":"node","id":9650423137,"lat":47.6648825,"lon":-122.1226444,"tags":{"amenity":"bench"}},{"type":"node","id":9650423138,"lat":47.6648848,"lon":-122.1221462,"tags":{"amenity":"bench"}},{"type":"node","id":9650423194,"lat":47.6642949,"lon":-122.111712,"tags":{"amenity":"bench"}},{"type":"node","id":9650423195,"lat":47.6641622,"lon":-122.1114513,"tags":{"amenity":"bench"}},{"type":"node","id":9650423196,"lat":47.6642436,"lon":-122.111273,"tags":{"amenity":"bench"}},{"type":"node","id":9650499123,"lat":47.6620212,"lon":-122.1193908,"tags":{"amenity":"bench"}},{"type":"node","id":9650499124,"lat":47.662174,"lon":-122.1193472,"tags":{"amenity":"bench"}},{"type":"node","id":9650512207,"lat":47.6599823,"lon":-122.1099179,"tags":{"amenity":"bench"}},{"type":"node","id":9650512208,"lat":47.6599392,"lon":-122.1100043,"tags":{"amenity":"bench"}},{"type":"node","id":9650528995,"lat":47.65667,"lon":-122.109126,"tags":{"amenity":"bench","armrest":"no","backrest":"yes","colour":"brown","material":"plastic","seats":"3"}},{"type":"node","id":9650529001,"lat":47.6580741,"lon":-122.1110755,"tags":{"amenity":"bench","backrest":"yes"}},{"type":"node","id":9650529002,"lat":47.6580991,"lon":-122.111149,"tags":{"amenity":"bench","backrest":"yes"}},{"type":"node","id":9650529664,"lat":47.6603758,"lon":-122.1122457,"tags":{"amenity":"toilets"}},{"type":"node","id":9701314317,"lat":47.658282,"lon":-122.1140643,"tags":{"amenity":"bench","backrest":"no","material":"wood"}},{"type":"node","id":9701314318,"lat":47.658247,"lon":-122.1139892,"tags":{"amenity":"bench","backrest":"no"}},{"type":"node","id":9701314319,"lat":47.6582314,"lon":-122.1139388,"tags":{"amenity":"bench","backrest":"no","material":"wood"}},{"type":"node","id":9701314320,"lat":47.6582117,"lon":-122.1138841,"tags":{"amenity":"bench","backrest":"no"}},{"type":"node","id":9701314321,"lat":47.6583219,"lon":-122.1141352,"tags":{"amenity":"bench","backrest":"no","material":"wood"}},{"type":"node","id":9701314322,"lat":47.6581988,"lon":-122.1138005,"tags":{"amenity":"bench","backrest":"no"}},{"type":"node","id":9701630289,"lat":47.6649919,"lon":-122.1137381,"tags":{"amenity":"bench"}},{"type":"node","id":9701630290,"lat":47.6651062,"lon":-122.1138753,"tags":{"amenity":"bench"}},{"type":"node","id":9701715617,"lat":47.6626129,"lon":-122.1259849,"tags":{"amenity":"bench","backrest":"no","material":"concrete"}},{"type":"node","id":9712749249,"lat":47.6518888,"lon":-122.1193828,"tags":{"amenity":"bench"}},{"type":"node","id":9712749250,"lat":47.6518815,"lon":-122.1196863,"tags":{"amenity":"bench"}},{"type":"node","id":9719458303,"lat":47.6691193,"lon":-122.159183,"tags":{"amenity":"bench"}},{"type":"node","id":9719458304,"lat":47.6690984,"lon":-122.159183,"tags":{"amenity":"bench"}},{"type":"node","id":9719875213,"lat":47.6688721,"lon":-122.1591692,"tags":{"amenity":"bench"}},{"type":"node","id":9719875216,"lat":47.6688617,"lon":-122.1591669,"tags":{"amenity":"bench"}},{"type":"node","id":9726242571,"lat":47.6731382,"lon":-122.1190378,"tags":{"barrier":"kerb","kerb":"lowered","tactile_paving":"yes","wheelchair":"yes"}},{"type":"node","id":9726242574,"lat":47.6731729,"lon":-122.118709,"tags":{"barrier":"kerb","kerb":"lowered","tactile_paving":"yes","wheelchair":"yes"}},{"type":"node","id":9726242575,"lat":47.673228,"lon":-122.1187812,"tags":{"barrier":"kerb","kerb":"lowered","tactile_paving":"yes","wheelchair":"yes"}},{"type":"node","id":9726242612,"lat":47.673878,"lon":-122.1190231,"tags":{"barrier":"kerb","kerb":"lowered","tactile_paving":"yes","wheelchair":"yes"}},{"type":"node","id":9726249119,"lat":47.6738273,"lon":-122.1189622,"tags":{"barrier":"kerb","kerb":"lowered","tactile_paving":"yes","wheelchair":"yes"}},{"type":"node","id":9726292463,"lat":47.6738091,"lon":-122.121604,"tags":{"barrier":"kerb","kerb":"lowered","tactile_paving":"yes","wheelchair":"yes"}},{"type":"node","id":9726292465,"lat":47.6738702,"lon":-122.1216977,"tags":{"barrier":"kerb","kerb":"lowered","tactile_paving":"yes","wheelchair":"yes"}},{"type":"node","id":9726355765,"lat":47.6739036,"lon":-122.1246575},{"type":"node","id":9726355766,"lat":47.6737992,"lon":-122.1242241},{"type":"node","id":9727738899,"lat":47.6683983,"lon":-122.1190344,"tags":{"barrier":"kerb","kerb":"lowered","tactile_paving":"yes","wheelchair":"yes"}},{"type":"node","id":9727738907,"lat":47.668582,"lon":-122.1187611,"tags":{"barrier":"kerb","kerb":"lowered","tactile_paving":"yes","wheelchair":"yes"}},{"type":"node","id":9727738908,"lat":47.6685875,"lon":-122.1214125,"tags":{"barrier":"kerb","kerb":"lowered","tactile_paving":"yes","wheelchair":"yes"}},{"type":"node","id":9727738909,"lat":47.6685705,"lon":-122.1216445,"tags":{"barrier":"kerb","kerb":"lowered","tactile_paving":"yes","wheelchair":"yes"}},{"type":"node","id":9727769018,"lat":47.6700622,"lon":-122.119007,"tags":{"barrier":"kerb","kerb":"lowered","tactile_paving":"yes","wheelchair":"yes"}},{"type":"node","id":9727769021,"lat":47.669936,"lon":-122.1189364,"tags":{"barrier":"kerb","kerb":"lowered","tactile_paving":"yes","wheelchair":"yes"}},{"type":"node","id":9727769022,"lat":47.6699367,"lon":-122.1188084,"tags":{"barrier":"kerb","kerb":"lowered","tactile_paving":"yes","wheelchair":"yes"}},{"type":"node","id":9727769023,"lat":47.669964,"lon":-122.1187681,"tags":{"barrier":"kerb","kerb":"lowered","tactile_paving":"yes","wheelchair":"yes"}},{"type":"node","id":9727769024,"lat":47.6700488,"lon":-122.1187659,"tags":{"barrier":"kerb","kerb":"lowered","tactile_paving":"yes","wheelchair":"yes"}},{"type":"node","id":9727769025,"lat":47.6701303,"lon":-122.1189357,"tags":{"barrier":"kerb","kerb":"lowered","tactile_paving":"yes","wheelchair":"yes"}},{"type":"node","id":9727769026,"lat":47.6701302,"lon":-122.118823,"tags":{"barrier":"kerb","kerb":"lowered","tactile_paving":"yes","wheelchair":"yes"}},{"type":"node","id":9727769047,"lat":47.6691257,"lon":-122.1188251,"tags":{"barrier":"kerb","kerb":"lowered","tactile_paving":"yes","wheelchair":"yes"}},{"type":"node","id":9727769048,"lat":47.6691271,"lon":-122.1189395,"tags":{"barrier":"kerb","kerb":"lowered","tactile_paving":"yes","wheelchair":"yes"}},{"type":"node","id":9727769051,"lat":47.6690725,"lon":-122.1187764,"tags":{"barrier":"kerb","kerb":"lowered","tactile_paving":"yes","wheelchair":"yes"}},{"type":"node","id":9727769052,"lat":47.6689834,"lon":-122.1187774,"tags":{"barrier":"kerb","kerb":"lowered","tactile_paving":"yes","wheelchair":"yes"}},{"type":"node","id":9727769053,"lat":47.6689778,"lon":-122.1190268,"tags":{"barrier":"kerb","kerb":"lowered","tactile_paving":"yes","wheelchair":"yes"}},{"type":"node","id":9727769057,"lat":47.668998,"lon":-122.1176213,"tags":{"barrier":"kerb","kerb":"flush","tactile_paving":"yes","wheelchair":"yes"}},{"type":"node","id":9727769068,"lat":47.6691117,"lon":-122.1170954,"tags":{"barrier":"kerb","kerb":"flush","tactile_paving":"yes","wheelchair":"yes"}},{"type":"node","id":9727769069,"lat":47.6691121,"lon":-122.1170093,"tags":{"barrier":"kerb","kerb":"flush","tactile_paving":"yes","wheelchair":"yes"}},{"type":"node","id":9727769070,"lat":47.6690628,"lon":-122.1169181,"tags":{"barrier":"kerb","kerb":"flush","tactile_paving":"yes","wheelchair":"yes"}},{"type":"node","id":9727769071,"lat":47.6691137,"lon":-122.1168343,"tags":{"barrier":"kerb","kerb":"flush","tactile_paving":"yes","wheelchair":"yes"}},{"type":"node","id":9727769072,"lat":47.6691127,"lon":-122.1167429,"tags":{"barrier":"kerb","kerb":"flush","tactile_paving":"yes","wheelchair":"yes"}},{"type":"node","id":9727769075,"lat":47.6685263,"lon":-122.1217623,"tags":{"barrier":"kerb","kerb":"lowered","tactile_paving":"yes","wheelchair":"yes"}},{"type":"node","id":9727769076,"lat":47.6684064,"lon":-122.1217608,"tags":{"barrier":"kerb","kerb":"lowered","tactile_paving":"yes","wheelchair":"yes"}},{"type":"node","id":9727769081,"lat":47.6706372,"lon":-122.1240926,"tags":{"barrier":"kerb","kerb":"lowered","tactile_paving":"yes","wheelchair":"yes"}},{"type":"node","id":9727769082,"lat":47.6707039,"lon":-122.1240627,"tags":{"barrier":"kerb","kerb":"lowered","tactile_paving":"yes","wheelchair":"yes"}},{"type":"node","id":9727956306,"lat":47.6676533,"lon":-122.1017862,"tags":{"barrier":"kerb","kerb":"lowered","tactile_paving":"yes","wheelchair":"yes"}},{"type":"node","id":9727956307,"lat":47.6674827,"lon":-122.1020582,"tags":{"barrier":"kerb","kerb":"lowered","tactile_paving":"yes","wheelchair":"yes"}},{"type":"node","id":9727956308,"lat":47.6675204,"lon":-122.1021429,"tags":{"barrier":"kerb","kerb":"lowered","tactile_paving":"yes","wheelchair":"yes"}},{"type":"node","id":9727974928,"lat":47.6682052,"lon":-122.1002687,"tags":{"barrier":"kerb","kerb":"lowered","tactile_paving":"yes","wheelchair":"yes"}},{"type":"node","id":9727974929,"lat":47.6680952,"lon":-122.1002636,"tags":{"barrier":"kerb","kerb":"lowered","tactile_paving":"yes","wheelchair":"yes"}},{"type":"node","id":9727974933,"lat":47.668243,"lon":-122.1002557,"tags":{"barrier":"kerb","kerb":"lowered","tactile_paving":"yes","wheelchair":"yes"}},{"type":"node","id":9727974956,"lat":47.6715145,"lon":-122.1002871,"tags":{"barrier":"kerb","kerb":"lowered","tactile_paving":"primitive","wheelchair":"yes"}},{"type":"node","id":9727974957,"lat":47.6715296,"lon":-122.1002436,"tags":{"barrier":"kerb","kerb":"lowered","tactile_paving":"primitive","wheelchair":"yes"}},{"type":"node","id":9727974958,"lat":47.6715735,"lon":-122.1002917,"tags":{"barrier":"kerb","kerb":"lowered","tactile_paving":"primitive","wheelchair":"yes"}},{"type":"node","id":9727974959,"lat":47.6717123,"lon":-122.1003518,"tags":{"barrier":"kerb","kerb":"lowered","tactile_paving":"no","wheelchair":"yes"}},{"type":"node","id":9727974984,"lat":47.6714478,"lon":-122.1003354,"tags":{"barrier":"kerb","kerb":"lowered","tactile_paving":"yes","wheelchair":"yes"}},{"type":"node","id":9728014869,"lat":47.6716405,"lon":-122.1044783,"tags":{"barrier":"kerb","kerb":"lowered","tactile_paving":"primitive","wheelchair":"yes"}},{"type":"node","id":9728014870,"lat":47.6717104,"lon":-122.1041991,"tags":{"barrier":"kerb","kerb":"lowered","tactile_paving":"primitive","wheelchair":"yes"}},{"type":"node","id":9728014871,"lat":47.6716972,"lon":-122.1041388,"tags":{"barrier":"kerb","kerb":"lowered","tactile_paving":"primitive","wheelchair":"yes"}},{"type":"node","id":9728014872,"lat":47.6715699,"lon":-122.1040944,"tags":{"barrier":"kerb","kerb":"lowered","tactile_paving":"primitive","wheelchair":"yes"}},{"type":"node","id":9728291374,"lat":47.6696882,"lon":-122.102382},{"type":"node","id":9728291377,"lat":47.6696871,"lon":-122.1020732},{"type":"node","id":9728332870,"lat":47.6728099,"lon":-122.10407,"tags":{"barrier":"kerb","kerb":"flush","tactile_paving":"no","wheelchair":"yes"}},{"type":"node","id":9728335753,"lat":47.672834,"lon":-122.1040063,"tags":{"entrance":"main"}},{"type":"node","id":9734113411,"lat":47.6693894,"lon":-122.1292676,"tags":{"barrier":"kerb","kerb":"lowered","tactile_paving":"yes","wheelchair":"yes"}},{"type":"node","id":9734113412,"lat":47.6693751,"lon":-122.1291276,"tags":{"barrier":"kerb","kerb":"lowered","tactile_paving":"yes","wheelchair":"yes"}},{"type":"node","id":9734114418,"lat":47.6695079,"lon":-122.1294963,"tags":{"barrier":"kerb","kerb":"lowered","tactile_paving":"yes","wheelchair":"yes"}},{"type":"node","id":9758491993,"lat":47.6710929,"lon":-122.1271152,"tags":{"barrier":"kerb","kerb":"lowered","tactile_paving":"yes","wheelchair":"yes"}},{"type":"node","id":9758491995,"lat":47.6708516,"lon":-122.127153,"tags":{"barrier":"kerb","kerb":"lowered","tactile_paving":"yes","wheelchair":"yes"}},{"type":"node","id":9758491997,"lat":47.670472,"lon":-122.1270557,"tags":{"amenity":"bench"}},{"type":"node","id":9758491998,"lat":47.670434,"lon":-122.1270772,"tags":{"amenity":"bench","backrest":"yes"}},{"type":"node","id":9758545575,"lat":47.6702871,"lon":-122.1107362},{"type":"node","id":9758545576,"lat":47.6702385,"lon":-122.1107627,"tags":{"barrier":"kerb","kerb":"lowered","tactile_paving":"yes"}},{"type":"node","id":9758842416,"lat":47.6716769,"lon":-122.1189361,"tags":{"barrier":"kerb","kerb":"lowered","tactile_paving":"yes","wheelchair":"yes"}},{"type":"node","id":9758924163,"lat":47.6709,"lon":-122.1274612,"tags":{"amenity":"bench","backrest":"no"}},{"type":"node","id":9791566414,"lat":47.6704314,"lon":-122.1116519,"tags":{"addr:city":"Redmond","addr:housenumber":"17181","addr:postcode":"98052","addr:state":"WA","addr:street":"Northeast Redmond Way","addr:unit":"300","amenity":"doctors","healthcare":"doctor","name":"Overlake Clinics - Primary Care"}},{"type":"node","id":10139054943,"lat":47.6739162,"lon":-122.1249218,"tags":{"access":"yes","amenity":"bench","backrest":"no","seats":"4"}},{"type":"node","id":10145003666,"lat":47.6735238,"lon":-122.1254946,"tags":{"access":"private","amenity":"bench","material":"metal"}},{"type":"node","id":10152513536,"lat":47.6722465,"lon":-122.1040755,"tags":{"barrier":"kerb","kerb":"flush","tactile_paving":"no","wheelchair":"yes"}},{"type":"node","id":10152530944,"lat":47.6729506,"lon":-122.1039735,"tags":{"amenity":"bench","backrest":"yes"}},{"type":"node","id":10152530951,"lat":47.673066,"lon":-122.1039609,"tags":{"amenity":"bench","backrest":"yes"}},{"type":"node","id":10152530953,"lat":47.6726967,"lon":-122.1040357,"tags":{"amenity":"bench","backrest":"yes"}},{"type":"node","id":10152530959,"lat":47.6730783,"lon":-122.1039423,"tags":{"amenity":"bench","backrest":"yes"}},{"type":"node","id":10152530960,"lat":47.6724604,"lon":-122.104039,"tags":{"amenity":"bench","backrest":"yes"}},{"type":"node","id":10152782256,"lat":47.6722468,"lon":-122.1041995,"tags":{"barrier":"kerb","kerb":"lowered","tactile_paving":"yes","wheelchair":"yes"}},{"type":"node","id":10727010123,"lat":47.6675527,"lon":-122.1076337,"tags":{"access":"yes","bicycle":"yes","entrance":"main","wheelchair":"yes"}},{"type":"node","id":10731573612,"lat":47.6589494,"lon":-122.1323097,"tags":{"amenity":"bench","backrest":"yes","colour":"brown","material":"wood","seats":"3"}},{"type":"node","id":10731573616,"lat":47.6590811,"lon":-122.1322583,"tags":{"amenity":"bench","backrest":"yes","colour":"brown","material":"wood","seats":"3"}},{"type":"node","id":10731573619,"lat":47.65908,"lon":-122.1321215,"tags":{"amenity":"bench","backrest":"yes","colour":"brown","material":"wood","seats":"3"}},{"type":"node","id":10733156200,"lat":47.664079,"lon":-122.1067941,"tags":{"amenity":"bench"}},{"type":"node","id":10735557710,"lat":47.6693512,"lon":-122.1065931,"tags":{"barrier":"kerb","kerb":"lowered","tactile_paving":"yes","wheelchair":"yes"}},{"type":"node","id":10735557712,"lat":47.6693202,"lon":-122.1064809,"tags":{"barrier":"kerb","kerb":"flush","tactile_paving":"yes","wheelchair":"yes"}},{"type":"node","id":10735557713,"lat":47.6692908,"lon":-122.1064255,"tags":{"barrier":"kerb","kerb":"flush","tactile_paving":"yes","wheelchair":"yes"}},{"type":"node","id":10736108784,"lat":47.6595414,"lon":-122.1311645,"tags":{"amenity":"bench","backrest":"yes","colour":"brown","material":"wood","seats":"3"}},{"type":"node","id":10736108785,"lat":47.6595277,"lon":-122.1310196,"tags":{"amenity":"bench","backrest":"yes","colour":"brown","material":"wood","seats":"3"}},{"type":"node","id":10736108786,"lat":47.6592415,"lon":-122.1318089,"tags":{"amenity":"bench","backrest":"yes","colour":"brown","material":"wood","seats":"3"}},{"type":"node","id":10736108787,"lat":47.6593497,"lon":-122.1320694,"tags":{"amenity":"bench","backrest":"yes","colour":"brown","material":"wood","seats":"3"}},{"type":"node","id":10740129851,"lat":47.6708244,"lon":-122.1240826,"tags":{"barrier":"kerb","kerb":"lowered","tactile_paving":"yes","wheelchair":"yes"}},{"type":"node","id":10767316238,"lat":47.6666006,"lon":-122.1003389,"tags":{"barrier":"kerb","kerb":"lowered","wheelchair":"yes"}},{"type":"node","id":10778870153,"lat":47.6633768,"lon":-122.0852682,"tags":{"barrier":"kerb","kerb":"lowered","tactile_paving":"no","wheelchair":"yes"}},{"type":"node","id":10778870154,"lat":47.6634078,"lon":-122.0853131,"tags":{"barrier":"kerb","kerb":"lowered","tactile_paving":"no","wheelchair":"yes"}},{"type":"node","id":10778870155,"lat":47.6639343,"lon":-122.0854449,"tags":{"barrier":"kerb","kerb":"lowered","tactile_paving":"no","wheelchair":"yes"}},{"type":"node","id":10778870156,"lat":47.6639231,"lon":-122.0853467,"tags":{"barrier":"kerb","kerb":"lowered","tactile_paving":"no","wheelchair":"yes"}},{"type":"node","id":10778870158,"lat":47.6635699,"lon":-122.0854834,"tags":{"barrier":"kerb","kerb":"lowered","tactile_paving":"no","wheelchair":"yes"}},{"type":"node","id":10778870159,"lat":47.6635488,"lon":-122.0854311,"tags":{"barrier":"kerb","kerb":"lowered","tactile_paving":"no","wheelchair":"yes"}},{"type":"node","id":10778870160,"lat":47.6636821,"lon":-122.0859092,"tags":{"amenity":"bench","colour":"brown","material":"wood","seats":"4"}},{"type":"node","id":10778870161,"lat":47.663676,"lon":-122.0856668,"tags":{"amenity":"bench","colour":"brown","material":"wood","seats":"4"}},{"type":"node","id":10778870162,"lat":47.6636392,"lon":-122.0857651,"tags":{"amenity":"bench","colour":"brown","material":"wood","seats":"4"}},{"type":"node","id":10778870165,"lat":47.6638551,"lon":-122.0860866,"tags":{"amenity":"bench","colour":"brown","material":"wood","seats":"4"}},{"type":"node","id":10778870166,"lat":47.6639447,"lon":-122.086035,"tags":{"amenity":"bench","colour":"brown","material":"wood","seats":"4"}},{"type":"node","id":10778870174,"lat":47.6649599,"lon":-122.0862874,"tags":{"amenity":"bench","colour":"brown","material":"wood","seats":"4"}},{"type":"node","id":10778870176,"lat":47.6653702,"lon":-122.0859361,"tags":{"amenity":"bench","colour":"brown","material":"wood","seats":"4"}},{"type":"node","id":10789168516,"lat":47.6686217,"lon":-122.1438339,"tags":{"amenity":"recycling","operator":"City of Redmond","recycling:cans":"yes","recycling:glass_bottles":"yes","recycling:plastic_bottles":"yes","recycling_type":"container","wheelchair":"yes"}},{"type":"node","id":10789168518,"lat":47.6683506,"lon":-122.1439167,"tags":{"amenity":"bench","backrest":"yes","colour":"brown","material":"wood","seats":"3"}},{"type":"node","id":10789168519,"lat":47.6684766,"lon":-122.1439134,"tags":{"amenity":"bench","backrest":"yes","colour":"brown","material":"wood","seats":"3"}},{"type":"node","id":10789168520,"lat":47.6689503,"lon":-122.1436096,"tags":{"amenity":"bench","backrest":"no","material":"concrete","seats":"4"}},{"type":"node","id":10789168521,"lat":47.6689193,"lon":-122.1435878,"tags":{"entrance":"yes","name":"Men's Restroom"}},{"type":"node","id":10789168522,"lat":47.6688956,"lon":-122.143588,"tags":{"entrance":"yes","name":"Women's Restroom"}},{"type":"node","id":10789168524,"lat":47.6688732,"lon":-122.1435979,"tags":{"amenity":"recycling","operator":"City of Redmond","recycling:cans":"yes","recycling:glass_bottles":"yes","recycling:plastic_bottles":"yes","recycling_type":"container","wheelchair":"yes"}},{"type":"node","id":10789168525,"lat":47.6687326,"lon":-122.1434778,"tags":{"amenity":"bench","backrest":"no","material":"concrete","seats":"4"}},{"type":"node","id":10789168526,"lat":47.6687252,"lon":-122.143503,"tags":{"amenity":"bench","backrest":"no","material":"concrete","seats":"4"}},{"type":"node","id":10789168527,"lat":47.6686668,"lon":-122.1436452,"tags":{"amenity":"bench","backrest":"no","material":"concrete","seats":"4"}},{"type":"node","id":10789168528,"lat":47.6684895,"lon":-122.1436934,"tags":{"amenity":"bench","backrest":"no","material":"concrete","seats":"4"}},{"type":"node","id":10789168529,"lat":47.6684337,"lon":-122.143685,"tags":{"amenity":"recycling","operator":"City of Redmond","recycling:cans":"yes","recycling:glass_bottles":"yes","recycling:plastic_bottles":"yes","recycling_type":"container","wheelchair":"yes"}},{"type":"node","id":10789168533,"lat":47.6684116,"lon":-122.1438604,"tags":{"amenity":"bench","backrest":"yes","colour":"brown","material":"wood","seats":"3"}},{"type":"node","id":10789168534,"lat":47.6683732,"lon":-122.1438366,"tags":{"amenity":"bench","backrest":"no","material":"concrete","seats":"4"}},{"type":"node","id":10789168535,"lat":47.668373,"lon":-122.1438017,"tags":{"amenity":"bench","backrest":"no","material":"concrete","seats":"4"}},{"type":"node","id":10815589077,"lat":47.6692069,"lon":-122.1063569,"tags":{"barrier":"kerb","kerb":"lowered","tactile_paving":"yes","wheelchair":"yes"}},{"type":"node","id":10817302804,"lat":47.6720375,"lon":-122.1100169,"tags":{"entrance":"main"}},{"type":"node","id":10817715005,"lat":47.6717284,"lon":-122.11002,"tags":{"entrance":"main"}},{"type":"node","id":10817717517,"lat":47.6704648,"lon":-122.1115824},{"type":"node","id":10817717518,"lat":47.670562,"lon":-122.1115268},{"type":"node","id":10830962494,"lat":47.6671215,"lon":-122.1034764,"tags":{"barrier":"kerb","kerb":"lowered","tactile_paving":"yes","wheelchair":"yes"}},{"type":"node","id":10830962495,"lat":47.6671761,"lon":-122.1034098,"tags":{"barrier":"kerb","kerb":"lowered","tactile_paving":"yes","wheelchair":"yes"}},{"type":"node","id":10830962496,"lat":47.6672077,"lon":-122.1032947,"tags":{"barrier":"kerb","kerb":"lowered","tactile_paving":"yes","wheelchair":"yes"}},{"type":"node","id":10833038958,"lat":47.6619082,"lon":-122.118924,"tags":{"entrance":"yes","female":"yes"}},{"type":"node","id":10833038959,"lat":47.6619572,"lon":-122.1189657,"tags":{"entrance":"yes","male":"yes"}},{"type":"node","id":10834360416,"lat":47.6652454,"lon":-122.1207795,"tags":{"amenity":"bench","backrest":"yes","colour":"brown","material":"wood","seats":"3"}},{"type":"node","id":10834360417,"lat":47.6654211,"lon":-122.1208084,"tags":{"amenity":"bench","backrest":"yes","colour":"brown","material":"wood","seats":"3"}},{"type":"node","id":10874962805,"lat":47.6701408,"lon":-122.1166345,"tags":{"addr:city":"Redmond","addr:country":"US","addr:housenumber":"7405","addr:postcode":"98052","addr:state":"WA","addr:street":"168th Avenue Northeast","addr:unit":"150","amenity":"fast_food","check_date":"2023-05-06","cuisine":"sushi","description":"Suite 150","name":"Musashi's","payment:cash":"no","payment:mastercard":"yes","payment:visa":"yes","phone":"+1-425-240-7846","takeaway":"yes","website":"https://www.musashis-sushi.com","wheelchair":"yes"}},{"type":"node","id":10874962806,"lat":47.6701435,"lon":-122.1168307,"tags":{"addr:city":"Redmond","addr:country":"US","addr:housenumber":"7405","addr:postcode":"98052","addr:state":"WA","addr:street":"168th Avenue Northeast","addr:unit":"140","amenity":"restaurant","check_date":"2024-11-18","cuisine":"chicken;hainanese;cambodian","name":"A Ma Chicken Rice","opening_hours":"Mo-Sa 11:00-14:30,16:30-20:00; Su off","phone":"+1-206-580-8247","takeaway":"yes","website":"https://www.amachickenrice.com","wheelchair":"yes"}},{"type":"node","id":10875047895,"lat":47.6700419,"lon":-122.117396,"tags":{"barrier":"kerb","kerb":"lowered","tactile_paving":"yes","wheelchair":"yes"}},{"type":"node","id":10875047896,"lat":47.6699464,"lon":-122.1173913,"tags":{"barrier":"kerb","kerb":"lowered","tactile_paving":"yes","wheelchair":"yes"}},{"type":"node","id":10875047897,"lat":47.6699523,"lon":-122.1163968,"tags":{"barrier":"kerb","kerb":"lowered","tactile_paving":"no","wheelchair":"yes"}},{"type":"node","id":10875047898,"lat":47.6700559,"lon":-122.1163962,"tags":{"barrier":"kerb","kerb":"lowered","tactile_paving":"no","wheelchair":"yes"}},{"type":"node","id":10875047899,"lat":47.670133,"lon":-122.1163181,"tags":{"barrier":"kerb","kerb":"lowered","tactile_paving":"no","wheelchair":"yes"}},{"type":"node","id":10875047900,"lat":47.6701315,"lon":-122.1162095,"tags":{"barrier":"kerb","kerb":"lowered","tactile_paving":"no","wheelchair":"yes"}},{"type":"node","id":10875047904,"lat":47.6699299,"lon":-122.1161588,"tags":{"barrier":"kerb","kerb":"lowered","tactile_paving":"no","wheelchair":"yes"}},{"type":"node","id":10875050505,"lat":47.6700645,"lon":-122.116161,"tags":{"barrier":"kerb","kerb":"lowered","tactile_paving":"no","wheelchair":"yes"}},{"type":"node","id":10875050514,"lat":47.6701406,"lon":-122.1169974,"tags":{"addr:city":"Redmond","addr:country":"US","addr:housenumber":"7405","addr:postcode":"98052","addr:state":"WA","addr:street":"168th Avenue Northeast","addr:unit":"130","branch":"Redmond","healthcare":"alternative","healthcare:speciality":"chiropractic","name":"Airrosti","phone":"+1-425-333-1117","website":"https://www.airrosti.com/location/Washington/ARED"}},{"type":"node","id":10875058101,"lat":47.6691269,"lon":-122.1222237},{"type":"node","id":10875058102,"lat":47.6691282,"lon":-122.1223222},{"type":"node","id":10875058103,"lat":47.6691295,"lon":-122.1224517},{"type":"node","id":10875068306,"lat":47.6689794,"lon":-122.1164019,"tags":{"barrier":"kerb","kerb":"lowered","tactile_paving":"no","wheelchair":"yes"}},{"type":"node","id":10875068307,"lat":47.6690688,"lon":-122.1164008,"tags":{"barrier":"kerb","kerb":"lowered","tactile_paving":"no","wheelchair":"yes"}},{"type":"node","id":10875068309,"lat":47.6685753,"lon":-122.1161676,"tags":{"barrier":"kerb","kerb":"lowered","tactile_paving":"no","wheelchair":"yes"}},{"type":"node","id":10875068310,"lat":47.6685547,"lon":-122.1163934,"tags":{"barrier":"kerb","kerb":"lowered","tactile_paving":"no","wheelchair":"yes"}},{"type":"node","id":10932488525,"lat":47.6727008,"lon":-122.1131699,"tags":{"barrier":"kerb","kerb":"lowered","tactile_paving":"yes","wheelchair":"yes"}},{"type":"node","id":10932488526,"lat":47.6726843,"lon":-122.1130837,"tags":{"barrier":"kerb","kerb":"lowered","tactile_paving":"yes","wheelchair":"yes"}},{"type":"node","id":10932488527,"lat":47.6725272,"lon":-122.1129687,"tags":{"barrier":"kerb","kerb":"lowered","tactile_paving":"yes","wheelchair":"yes"}},{"type":"node","id":10932488528,"lat":47.6724606,"lon":-122.1131618,"tags":{"barrier":"kerb","kerb":"lowered","tactile_paving":"yes","wheelchair":"yes"}},{"type":"node","id":10932488529,"lat":47.672492,"lon":-122.1130023,"tags":{"barrier":"kerb","kerb":"lowered","tactile_paving":"yes","wheelchair":"yes"}},{"type":"node","id":10932488530,"lat":47.6730182,"lon":-122.113886,"tags":{"barrier":"kerb","kerb":"lowered","tactile_paving":"yes","wheelchair":"yes"}},{"type":"node","id":10932488531,"lat":47.6731013,"lon":-122.1140852,"tags":{"barrier":"kerb","kerb":"lowered","tactile_paving":"yes","wheelchair":"yes"}},{"type":"node","id":10932488533,"lat":47.6736161,"lon":-122.1138597,"tags":{"barrier":"kerb","kerb":"lowered","tactile_paving":"no","wheelchair":"yes"}},{"type":"node","id":10932488534,"lat":47.6737155,"lon":-122.1138589,"tags":{"barrier":"kerb","kerb":"lowered","tactile_paving":"yes","wheelchair":"yes"}},{"type":"node","id":10932508609,"lat":47.6716531,"lon":-122.1216396,"tags":{"barrier":"kerb","kerb":"lowered","tactile_paving":"yes","wheelchair":"yes"}},{"type":"node","id":10932508610,"lat":47.6707205,"lon":-122.1139683,"tags":{"barrier":"kerb","kerb":"flush","tactile_paving":"no","wheelchair":"yes"}},{"type":"node","id":10932508611,"lat":47.6706916,"lon":-122.1139861,"tags":{"barrier":"kerb","kerb":"flush","tactile_paving":"no","wheelchair":"yes"}},{"type":"node","id":10932508612,"lat":47.6707971,"lon":-122.1137057,"tags":{"barrier":"kerb","kerb":"flush","tactile_paving":"no","wheelchair":"yes"}},{"type":"node","id":10932508613,"lat":47.6708493,"lon":-122.1138857,"tags":{"barrier":"kerb","kerb":"flush","tactile_paving":"no","wheelchair":"yes"}},{"type":"node","id":10932522114,"lat":47.6733598,"lon":-122.1151162,"tags":{"barrier":"kerb","kerb":"lowered","tactile_paving":"yes","wheelchair":"yes"}},{"type":"node","id":10932522116,"lat":47.6734519,"lon":-122.115032,"tags":{"barrier":"kerb","kerb":"lowered","tactile_paving":"yes","wheelchair":"yes"}},{"type":"node","id":10985402522,"lat":47.6722039,"lon":-122.0937731,"tags":{"barrier":"kerb","kerb":"lowered","tactile_paving":"yes","wheelchair":"yes"}},{"type":"node","id":10985402523,"lat":47.6720831,"lon":-122.0937859,"tags":{"barrier":"kerb","kerb":"lowered","tactile_paving":"yes","wheelchair":"yes"}},{"type":"node","id":10985402525,"lat":47.6720409,"lon":-122.0937262,"tags":{"barrier":"kerb","kerb":"lowered","tactile_paving":"yes","wheelchair":"yes"}},{"type":"node","id":10985402528,"lat":47.6720416,"lon":-122.0935375,"tags":{"barrier":"kerb","kerb":"lowered","tactile_paving":"yes","wheelchair":"yes"}},{"type":"node","id":10985402529,"lat":47.6720752,"lon":-122.0934811,"tags":{"barrier":"kerb","kerb":"lowered","tactile_paving":"yes","wheelchair":"yes"}},{"type":"node","id":10985402530,"lat":47.6722066,"lon":-122.0934761,"tags":{"barrier":"kerb","kerb":"lowered","tactile_paving":"yes","wheelchair":"yes"}},{"type":"node","id":10985402532,"lat":47.6722425,"lon":-122.0935358,"tags":{"barrier":"kerb","kerb":"lowered","tactile_paving":"yes","wheelchair":"yes"}},{"type":"node","id":10985402534,"lat":47.6722436,"lon":-122.0937249,"tags":{"barrier":"kerb","kerb":"lowered","tactile_paving":"yes","wheelchair":"yes"}},{"type":"node","id":10985402562,"lat":47.6733152,"lon":-122.0897597,"tags":{"barrier":"kerb","kerb":"lowered","tactile_paving":"yes","wheelchair":"yes"}},{"type":"node","id":10985402566,"lat":47.6703565,"lon":-122.0894687,"tags":{"barrier":"kerb","kerb":"lowered","tactile_paving":"yes","wheelchair":"yes"}},{"type":"node","id":10985402567,"lat":47.6720976,"lon":-122.0897481,"tags":{"barrier":"kerb","kerb":"lowered","tactile_paving":"yes","wheelchair":"yes"}},{"type":"node","id":10985402568,"lat":47.6722384,"lon":-122.0897513,"tags":{"barrier":"kerb","kerb":"lowered","tactile_paving":"yes","wheelchair":"yes"}},{"type":"node","id":10985402569,"lat":47.67215,"lon":-122.0910872,"tags":{"barrier":"kerb","kerb":"lowered","tactile_paving":"yes","wheelchair":"yes"}},{"type":"node","id":10985402570,"lat":47.6721772,"lon":-122.0910864,"tags":{"barrier":"kerb","kerb":"lowered","tactile_paving":"yes","wheelchair":"yes"}},{"type":"node","id":10985402571,"lat":47.6722217,"lon":-122.0910851,"tags":{"barrier":"kerb","kerb":"lowered","tactile_paving":"yes","wheelchair":"yes"}},{"type":"node","id":10987926903,"lat":47.6703989,"lon":-122.1000246,"tags":{"barrier":"kerb","kerb":"lowered","tactile_paving":"no","wheelchair":"yes"}},{"type":"node","id":10987926904,"lat":47.6701966,"lon":-122.1000272,"tags":{"barrier":"kerb","kerb":"lowered","tactile_paving":"no","wheelchair":"yes"}},{"type":"node","id":10987929507,"lat":47.6682434,"lon":-122.1000953,"tags":{"barrier":"kerb","kerb":"lowered","tactile_paving":"yes","wheelchair":"yes"}},{"type":"node","id":10987929515,"lat":47.666343,"lon":-122.100235,"tags":{"barrier":"kerb","kerb":"lowered","tactile_paving":"yes","wheelchair":"yes"}},{"type":"node","id":10987929516,"lat":47.6658337,"lon":-122.1002226,"tags":{"barrier":"kerb","kerb":"lowered","tactile_paving":"yes","wheelchair":"yes"}},{"type":"node","id":10987929520,"lat":47.6659238,"lon":-122.0998022,"tags":{"barrier":"kerb","kerb":"lowered","tactile_paving":"yes","wheelchair":"yes"}},{"type":"node","id":10987929521,"lat":47.6655205,"lon":-122.0998085,"tags":{"barrier":"kerb","kerb":"flush","tactile_paving":"yes","wheelchair":"yes"}},{"type":"node","id":10987929522,"lat":47.6655403,"lon":-122.0998867,"tags":{"barrier":"kerb","kerb":"flush","tactile_paving":"yes","wheelchair":"yes"}},{"type":"node","id":10987929535,"lat":47.6661612,"lon":-122.0999891,"tags":{"barrier":"kerb","kerb":"lowered","tactile_paving":"yes","wheelchair":"yes"}},{"type":"node","id":10996332901,"lat":47.6675513,"lon":-122.0938714,"tags":{"barrier":"kerb","kerb":"lowered","tactile_paving":"yes","wheelchair":"yes"}},{"type":"node","id":10996332903,"lat":47.667657,"lon":-122.0938734,"tags":{"barrier":"kerb","kerb":"lowered","tactile_paving":"yes","wheelchair":"yes"}},{"type":"node","id":10996344705,"lat":47.667699,"lon":-122.093805,"tags":{"barrier":"kerb","kerb":"lowered","tactile_paving":"yes","wheelchair":"yes"}},{"type":"node","id":10996344707,"lat":47.6676981,"lon":-122.0936622,"tags":{"barrier":"kerb","kerb":"lowered","tactile_paving":"yes","wheelchair":"yes"}},{"type":"node","id":10996344709,"lat":47.667508,"lon":-122.0936608,"tags":{"barrier":"kerb","kerb":"lowered","tactile_paving":"yes","wheelchair":"yes"}},{"type":"node","id":10996344710,"lat":47.6675102,"lon":-122.0938097,"tags":{"barrier":"kerb","kerb":"lowered","tactile_paving":"yes","wheelchair":"yes"}},{"type":"node","id":10996344713,"lat":47.6661407,"lon":-122.0935501,"tags":{"barrier":"kerb","kerb":"lowered","tactile_paving":"no","wheelchair":"yes"}},{"type":"node","id":10996344714,"lat":47.6662781,"lon":-122.0935596,"tags":{"barrier":"kerb","kerb":"lowered","tactile_paving":"no","wheelchair":"yes"}},{"type":"node","id":10996344717,"lat":47.6641184,"lon":-122.0936367,"tags":{"barrier":"kerb","kerb":"lowered","tactile_paving":"yes","wheelchair":"yes"}},{"type":"node","id":10996344719,"lat":47.6641355,"lon":-122.0937775,"tags":{"barrier":"kerb","kerb":"lowered","tactile_paving":"yes","wheelchair":"yes"}},{"type":"node","id":10996344721,"lat":47.6640547,"lon":-122.0936055,"tags":{"barrier":"kerb","kerb":"lowered","tactile_paving":"yes","wheelchair":"yes"}},{"type":"node","id":10996344722,"lat":47.6639077,"lon":-122.0936411,"tags":{"barrier":"kerb","kerb":"lowered","tactile_paving":"yes","wheelchair":"yes"}},{"type":"node","id":10996344725,"lat":47.6638668,"lon":-122.09374,"tags":{"barrier":"kerb","kerb":"lowered","tactile_paving":"yes","wheelchair":"yes"}},{"type":"node","id":10996344727,"lat":47.6639165,"lon":-122.0938908,"tags":{"barrier":"kerb","kerb":"lowered","tactile_paving":"yes","wheelchair":"yes"}},{"type":"node","id":10996344749,"lat":47.6633847,"lon":-122.0872583,"tags":{"barrier":"kerb","kerb":"lowered","tactile_paving":"no","wheelchair":"yes"}},{"type":"node","id":10996344750,"lat":47.6634992,"lon":-122.0872542,"tags":{"barrier":"kerb","kerb":"lowered","tactile_paving":"no","wheelchair":"yes"}},{"type":"node","id":10996344751,"lat":47.6635443,"lon":-122.0873352,"tags":{"barrier":"kerb","kerb":"lowered","tactile_paving":"yes","wheelchair":"yes"}},{"type":"node","id":10996344752,"lat":47.6635452,"lon":-122.0875461,"tags":{"barrier":"kerb","kerb":"lowered","tactile_paving":"yes","wheelchair":"yes"}},{"type":"node","id":10996344753,"lat":47.6635038,"lon":-122.087609,"tags":{"barrier":"kerb","kerb":"lowered","tactile_paving":"yes","wheelchair":"yes"}},{"type":"node","id":10996344754,"lat":47.663373,"lon":-122.0876058,"tags":{"barrier":"kerb","kerb":"lowered","tactile_paving":"no","wheelchair":"yes"}},{"type":"node","id":10996344755,"lat":47.6633391,"lon":-122.0875474,"tags":{"barrier":"kerb","kerb":"lowered","tactile_paving":"no","wheelchair":"yes"}},{"type":"node","id":10996344756,"lat":47.6633413,"lon":-122.0873295,"tags":{"barrier":"kerb","kerb":"lowered","tactile_paving":"no","wheelchair":"yes"}},{"type":"node","id":10996425947,"lat":47.6628024,"lon":-122.0863833,"tags":{"barrier":"kerb","kerb":"lowered","tactile_paving":"no","wheelchair":"yes"}},{"type":"node","id":10996425948,"lat":47.6628774,"lon":-122.086376,"tags":{"barrier":"kerb","kerb":"lowered","tactile_paving":"no","wheelchair":"yes"}},{"type":"node","id":10996425961,"lat":47.6616754,"lon":-122.0866844,"tags":{"barrier":"kerb","kerb":"lowered","tactile_paving":"no","wheelchair":"yes"}},{"type":"node","id":10996425963,"lat":47.6617397,"lon":-122.08667,"tags":{"barrier":"kerb","kerb":"lowered","tactile_paving":"no","wheelchair":"yes"}},{"type":"node","id":10996425972,"lat":47.6618391,"lon":-122.0875726,"tags":{"barrier":"kerb","kerb":"lowered","tactile_paving":"no","wheelchair":"yes"}},{"type":"node","id":10996425982,"lat":47.6617872,"lon":-122.0876373,"tags":{"barrier":"kerb","kerb":"lowered","tactile_paving":"no","wheelchair":"yes"}},{"type":"node","id":10996426002,"lat":47.6612933,"lon":-122.0869037,"tags":{"barrier":"kerb","kerb":"lowered","tactile_paving":"no","wheelchair":"yes"}},{"type":"node","id":10996426003,"lat":47.6611923,"lon":-122.0869494,"tags":{"barrier":"kerb","kerb":"lowered","tactile_paving":"no","wheelchair":"yes"}},{"type":"node","id":10996437006,"lat":47.661037,"lon":-122.0870489,"tags":{"barrier":"kerb","kerb":"lowered","tactile_paving":"no","wheelchair":"yes"}},{"type":"node","id":10996437007,"lat":47.6609419,"lon":-122.0871159,"tags":{"barrier":"kerb","kerb":"lowered","tactile_paving":"no","wheelchair":"yes"}},{"type":"node","id":10996437009,"lat":47.660864,"lon":-122.0870056,"tags":{"barrier":"kerb","kerb":"lowered","tactile_paving":"no","wheelchair":"yes"}},{"type":"node","id":10996437011,"lat":47.6608807,"lon":-122.0871001,"tags":{"barrier":"kerb","kerb":"lowered","tactile_paving":"no","wheelchair":"yes"}},{"type":"node","id":10996437022,"lat":47.660426,"lon":-122.0876409,"tags":{"barrier":"kerb","kerb":"lowered","tactile_paving":"no","wheelchair":"yes"}},{"type":"node","id":10996437023,"lat":47.6605147,"lon":-122.0876471,"tags":{"barrier":"kerb","kerb":"lowered","tactile_paving":"no","wheelchair":"yes"}},{"type":"node","id":10996437029,"lat":47.6603842,"lon":-122.0871702,"tags":{"barrier":"kerb","kerb":"lowered","tactile_paving":"no","wheelchair":"yes"}},{"type":"node","id":10996437030,"lat":47.6603828,"lon":-122.0872688,"tags":{"barrier":"kerb","kerb":"lowered","tactile_paving":"no","wheelchair":"yes"}},{"type":"node","id":10996437033,"lat":47.6604226,"lon":-122.0873043,"tags":{"barrier":"kerb","kerb":"lowered","tactile_paving":"no","wheelchair":"yes"}},{"type":"node","id":10996437034,"lat":47.6605115,"lon":-122.0873027,"tags":{"barrier":"kerb","kerb":"lowered","tactile_paving":"no","wheelchair":"yes"}},{"type":"node","id":11177663175,"lat":47.6660153,"lon":-122.1003529,"tags":{"barrier":"kerb","kerb":"lowered","tactile_paving":"yes","wheelchair":"yes"}},{"type":"node","id":11189348997,"lat":47.6726395,"lon":-122.1134797,"tags":{"barrier":"kerb","kerb":"lowered","tactile_paving":"yes","wheelchair":"yes"}},{"type":"node","id":11189349000,"lat":47.6724885,"lon":-122.1133196,"tags":{"barrier":"kerb","crossing:signals":"yes","highway":"crossing","kerb":"lowered","tactile_paving":"yes","wheelchair":"yes"}},{"type":"node","id":11218039567,"lat":47.6677775,"lon":-122.1462766,"tags":{"amenity":"drinking_water","fountain":"bubbler"}},{"type":"node","id":11225590944,"lat":47.6710586,"lon":-122.1127522,"tags":{"barrier":"kerb","kerb":"lowered","tactile_paving":"yes","wheelchair":"yes"}},{"type":"node","id":11225590947,"lat":47.6710193,"lon":-122.1127789,"tags":{"barrier":"kerb","kerb":"lowered","tactile_paving":"yes","wheelchair":"yes"}},{"type":"node","id":11225629121,"lat":47.6704782,"lon":-122.1115747,"tags":{"barrier":"kerb","kerb":"lowered"}},{"type":"node","id":11227933627,"lat":47.6653879,"lon":-122.1097161,"tags":{"barrier":"kerb","kerb":"flush","tactile_paving":"yes","wheelchair":"yes"}},{"type":"node","id":11335154006,"lat":47.6735961,"lon":-122.1235086,"tags":{"amenity":"bench","backrest":"yes","material":"wood"}},{"type":"node","id":11335154009,"lat":47.6736158,"lon":-122.1235855,"tags":{"amenity":"bench","backrest":"yes","material":"wood"}},{"type":"node","id":11335154010,"lat":47.6734375,"lon":-122.1233878,"tags":{"access":"yes","amenity":"bench","backrest":"no","material":"wood"}},{"type":"node","id":11335154011,"lat":47.6735435,"lon":-122.123373,"tags":{"access":"yes","amenity":"bench","backrest":"no","material":"wood"}},{"type":"node","id":11357377560,"lat":47.6706164,"lon":-122.1224141,"tags":{"addr:city":"Redmond","addr:housenumber":"7345","addr:postcode":"98052","addr:state":"WA","addr:street":"164th Avenue Northeast","addr:unit":"I105","amenity":"doctors","healthcare":"doctor","healthcare:speciality":"general","name":"Evergreen Health","opening_hours":"Mo-Fr 08:00-17:00","wikidata":"Q30280138"}},{"type":"node","id":11357378266,"lat":47.6704655,"lon":-122.1207729,"tags":{"amenity":"bench","backrest":"yes","material":"wood"}},{"type":"node","id":11357398870,"lat":47.6704819,"lon":-122.1208311,"tags":{"amenity":"bench","backrest":"yes","material":"wood"}},{"type":"node","id":11357398887,"lat":47.6706449,"lon":-122.1213343,"tags":{"amenity":"bench","backrest":"yes","material":"wood"}},{"type":"node","id":11490090379,"lat":47.6726615,"lon":-122.1037651,"tags":{"amenity":"drinking_water","fountain":"bubbler"}},{"type":"node","id":11685214859,"lat":47.6683356,"lon":-122.143773,"tags":{"amenity":"bench","backrest":"no"}},{"type":"node","id":11688272360,"lat":47.6705439,"lon":-122.123678},{"type":"node","id":11688317735,"lat":47.6697887,"lon":-122.1220753,"tags":{"amenity":"parking_entrance"}},{"type":"node","id":11688561811,"lat":47.6688554,"lon":-122.14349},{"type":"node","id":11836170799,"lat":47.6709883,"lon":-122.1292679,"tags":{"amenity":"bench","backrest":"no","material":"wood"}},{"type":"node","id":11870229472,"lat":47.6693285,"lon":-122.1064288,"tags":{"barrier":"kerb","kerb":"flush","tactile_paving":"yes","wheelchair":"yes"}},{"type":"node","id":11904623069,"lat":47.6678241,"lon":-122.1474915,"tags":{"amenity":"drinking_water","fountain":"bubbler"}},{"type":"node","id":11946857714,"lat":47.6729885,"lon":-122.1318515},{"type":"node","id":11954701917,"lat":47.6735038,"lon":-122.1260028},{"type":"node","id":11954701918,"lat":47.6734749,"lon":-122.126018},{"type":"node","id":11954701919,"lat":47.6734452,"lon":-122.1258714},{"type":"node","id":11954701920,"lat":47.6734457,"lon":-122.1260851},{"type":"node","id":11954701921,"lat":47.6734348,"lon":-122.1257406},{"type":"node","id":11954701922,"lat":47.6734626,"lon":-122.1257256},{"type":"node","id":11954701923,"lat":47.6734828,"lon":-122.1260645},{"type":"node","id":11954701924,"lat":47.6733893,"lon":-122.1259017},{"type":"node","id":11954814599,"lat":47.6555058,"lon":-122.1124649,"tags":{"amenity":"bench","backrest":"yes","material":"wood"}},{"type":"node","id":11954820829,"lat":47.6593969,"lon":-122.1198914,"tags":{"amenity":"bench","backrest":"yes","material":"wood"}},{"type":"node","id":11954823077,"lat":47.6576147,"lon":-122.1212256,"tags":{"amenity":"bench","backrest":"yes","material":"wood"}},{"type":"node","id":11968078349,"lat":47.6603208,"lon":-122.1148911,"tags":{"amenity":"bench","backrest":"yes","material":"metal"}},{"type":"node","id":11968090620,"lat":47.6597338,"lon":-122.1151791,"tags":{"amenity":"bench","backrest":"yes","material":"wood"}},{"type":"node","id":11968092006,"lat":47.658372,"lon":-122.1136987,"tags":{"amenity":"bench","backrest":"yes","material":"wood"}},{"type":"node","id":11968099439,"lat":47.6577421,"lon":-122.1154198,"tags":{"amenity":"bench","backrest":"yes","material":"wood"}},{"type":"node","id":11968099440,"lat":47.6578413,"lon":-122.1157007,"tags":{"amenity":"bench","backrest":"yes","material":"wood"}},{"type":"node","id":11968102058,"lat":47.6599556,"lon":-122.1149026,"tags":{"amenity":"bench","backrest":"yes","material":"wood"}},{"type":"node","id":11968106651,"lat":47.6578061,"lon":-122.1156048,"tags":{"amenity":"bench","backrest":"yes","material":"wood"}},{"type":"node","id":11968108261,"lat":47.6571367,"lon":-122.114174,"tags":{"amenity":"bench","backrest":"yes","material":"wood"}},{"type":"node","id":11968109979,"lat":47.6572055,"lon":-122.1142687,"tags":{"amenity":"bench","backrest":"yes","material":"wood"}},{"type":"node","id":11984359604,"lat":47.6725429,"lon":-122.1270246},{"type":"node","id":12018664729,"lat":47.6711096,"lon":-122.1125577,"tags":{"amenity":"bench","backrest":"yes","colour":"brown"}},{"type":"node","id":12052724785,"lat":47.6732887,"lon":-122.1314831},{"type":"node","id":12052724786,"lat":47.6726587,"lon":-122.1315051},{"type":"node","id":12052724787,"lat":47.6725725,"lon":-122.1318213},{"type":"node","id":12052724788,"lat":47.6729701,"lon":-122.1313055},{"type":"node","id":12052724789,"lat":47.6730246,"lon":-122.1313009},{"type":"node","id":12052724790,"lat":47.6731337,"lon":-122.1313246},{"type":"node","id":12052724791,"lat":47.6727757,"lon":-122.1313739},{"type":"node","id":12052724792,"lat":47.67334,"lon":-122.1316116},{"type":"node","id":12052724793,"lat":47.6731605,"lon":-122.1313403},{"type":"node","id":12052724794,"lat":47.6733164,"lon":-122.1315442},{"type":"node","id":12052724795,"lat":47.672837,"lon":-122.1313381},{"type":"node","id":12052724796,"lat":47.6726264,"lon":-122.131573},{"type":"node","id":12052724797,"lat":47.6732324,"lon":-122.1313982},{"type":"node","id":12052724798,"lat":47.6732633,"lon":-122.1314405},{"type":"node","id":12052724799,"lat":47.6730799,"lon":-122.1313088},{"type":"node","id":12052724800,"lat":47.6727157,"lon":-122.1314245},{"type":"node","id":12052724801,"lat":47.6732108,"lon":-122.131373},{"type":"node","id":12052724802,"lat":47.6729143,"lon":-122.131313},{"type":"node","id":12063563397,"lat":47.6506828,"lon":-122.1525428,"tags":{"amenity":"toilets"}},{"type":"node","id":12063563399,"lat":47.6507151,"lon":-122.1525217,"tags":{"amenity":"drinking_water"}},{"type":"node","id":12074325122,"lat":47.6728007,"lon":-122.1312794,"tags":{"amenity":"bench","backrest":"yes","material":"wood"}},{"type":"node","id":12117095706,"lat":47.6715088,"lon":-122.100006,"tags":{"bench":"no","bin":"no","bus":"yes","gtfs:feed":"US-WA-KCM","gtfs:stop_id":"81802","highway":"bus_stop","lit":"no","name":"180th Ave NE & NE 76th St","network":"King County Metro","network:short":"KCM","network:wikidata":"Q6411393","operator":"King County Metro","operator:short":"KCM","operator:wikidata":"Q6411393","operator:wikipedia":"en:King County Metro","public_transport":"platform","ref":"81802","route_ref":"269","shelter":"no","tactile_paving":"no","wheelchair":"yes"}},{"type":"node","id":12117095709,"lat":47.6711731,"lon":-122.100227,"tags":{"bench":"no","bin":"no","bus":"yes","gtfs:feed":"US-WA-KCM","gtfs:stop_id":"81791","highway":"bus_stop","lit":"no","name":"180th Ave NE & NE 76th St","network":"King County Metro","network:short":"KCM","network:wikidata":"Q6411393","operator":"King County Metro","operator:short":"KCM","operator:wikidata":"Q6411393","operator:wikipedia":"en:King County Metro","public_transport":"platform","ref":"81791","route_ref":"269","shelter":"no","tactile_paving":"no","wheelchair":"yes"}},{"type":"node","id":12117095948,"lat":47.6676865,"lon":-122.163879,"tags":{"bus":"yes","gtfs:feed":"US-WA-KCM","gtfs:stop_id":"73926","highway":"bus_stop","name":"132nd Ave NE & NE 70th Pl","network":"King County Metro","network:short":"KCM","network:wikidata":"Q6411393","operator":"King County Metro","operator:short":"KCM","operator:wikidata":"Q6411393","operator:wikipedia":"en:King County Metro","public_transport":"platform","ref":"73926","route_ref":"225","wheelchair":"yes"}},{"type":"node","id":12117095962,"lat":47.6540337,"lon":-122.135139,"tags":{"bus":"yes","gtfs:feed":"US-WA-KCM","gtfs:stop_id":"73168","highway":"bus_stop","name":"NE 51st St & 154th Ave NE","network":"King County Metro","network:short":"KCM","network:wikidata":"Q6411393","operator":"King County Metro","operator:short":"KCM","operator:wikidata":"Q6411393","operator:wikipedia":"en:King County Metro","public_transport":"platform","ref":"73168","route_ref":"245","wheelchair":"yes"}},{"type":"node","id":12117095965,"lat":47.6461372,"lon":-122.127586,"tags":{"bus":"yes","gtfs:feed":"US-WA-KCM","gtfs:stop_id":"73079","highway":"bus_stop","name":"NE 40th St & 159th Ave NE","network":"King County Metro","network:short":"KCM","network:wikidata":"Q6411393","operator":"King County Metro","operator:short":"KCM","operator:wikidata":"Q6411393","operator:wikipedia":"en:King County Metro","public_transport":"platform","ref":"73079","route_ref":"249;269;895","wheelchair":"yes"}},{"type":"node","id":12117095966,"lat":47.6461182,"lon":-122.130539,"tags":{"bus":"yes","gtfs:feed":"US-WA-KCM","gtfs:stop_id":"73059","highway":"bus_stop","name":"NE 40th St & 156th Ave NE","network":"King County Metro","network:short":"KCM","network:wikidata":"Q6411393","operator":"King County Metro","operator:short":"KCM","operator:wikidata":"Q6411393","operator:wikipedia":"en:King County Metro","public_transport":"platform","ref":"73059","route_ref":"249;269;895","wheelchair":"yes"}},{"type":"node","id":12117095982,"lat":47.6610985,"lon":-122.094818,"tags":{"bus":"yes","gtfs:feed":"US-WA-KCM","gtfs:stop_id":"72329","highway":"bus_stop","name":"NE Redmond Way & 185th Ave NE","network":"King County Metro","network:short":"KCM","network:wikidata":"Q6411393","operator":"King County Metro","operator:short":"KCM","operator:wikidata":"Q6411393","operator:wikipedia":"en:King County Metro","public_transport":"platform","ref":"72329","route_ref":"554","wheelchair":"yes"}},{"type":"node","id":12117095983,"lat":47.6633682,"lon":-122.087654,"tags":{"bus":"yes","gtfs:feed":"US-WA-KCM","gtfs:stop_id":"72326","highway":"bus_stop","name":"NE 65th St & 188th Ave NE","network":"King County Metro","network:short":"KCM","network:wikidata":"Q6411393","operator":"King County Metro","operator:short":"KCM","operator:wikidata":"Q6411393","operator:wikipedia":"en:King County Metro","public_transport":"platform","ref":"72326","route_ref":"269","wheelchair":"yes"}},{"type":"node","id":12117095984,"lat":47.6638985,"lon":-122.093132,"tags":{"bus":"yes","gtfs:feed":"US-WA-KCM","gtfs:stop_id":"72324","highway":"bus_stop","name":"NE 65th St & 185th Ave NE","network":"King County Metro","network:short":"KCM","network:wikidata":"Q6411393","operator":"King County Metro","operator:short":"KCM","operator:wikidata":"Q6411393","operator:wikipedia":"en:King County Metro","public_transport":"platform","ref":"72324","route_ref":"269","wheelchair":"yes"}},{"type":"node","id":12117095988,"lat":47.6706009,"lon":-122.1241,"tags":{"bench":"no","bin":"no","bus":"yes","gtfs:feed":"US-WA-KCM","gtfs:stop_id":"72308","highway":"bus_stop","name":"Bear Creek Pkwy & NE 74th St","network":"King County Metro","network:short":"KCM","network:wikidata":"Q6411393","operator":"King County Metro","operator:short":"KCM","operator:wikidata":"Q6411393","operator:wikipedia":"en:King County Metro","public_transport":"platform","ref":"72308","route_ref":"930","shelter":"no","wheelchair":"yes"}},{"type":"node","id":12117095990,"lat":47.6666298,"lon":-122.093788,"tags":{"bus":"yes","gtfs:feed":"US-WA-KCM","gtfs:stop_id":"72304","highway":"bus_stop","name":"185th Ave NE & NE 68th St","network":"King County Metro","network:short":"KCM","network:wikidata":"Q6411393","operator":"King County Metro","operator:short":"KCM","operator:wikidata":"Q6411393","operator:wikipedia":"en:King County Metro","public_transport":"platform","ref":"72304","route_ref":"269","wheelchair":"yes"}},{"type":"node","id":12117095991,"lat":47.6698341,"lon":-122.11895,"tags":{"bench":"yes","bin":"yes","bus":"yes","gtfs:feed":"US-WA-KCM","gtfs:stop_id":"72303","highway":"bus_stop","lit":"yes","name":"166th Ave NE & NE 74th St","network":"King County Metro","network:short":"KCM","network:wikidata":"Q6411393","operator":"King County Metro","operator:short":"KCM","operator:wikidata":"Q6411393","operator:wikipedia":"en:King County Metro","public_transport":"platform","ref":"72303","route_ref":"930","shelter":"no","tactile_paving":"no","wheelchair":"yes"}},{"type":"node","id":12117095992,"lat":47.6685525,"lon":-122.1224416,"tags":{"bus":"yes","gtfs:feed":"US-WA-KCM","gtfs:stop_id":"72299","highway":"bus_stop","name":"Bear Creek Pkwy & 164th Ave NE","network":"King County Metro","network:short":"KCM","network:wikidata":"Q6411393","operator":"King County Metro","operator:short":"KCM","operator:wikidata":"Q6411393","operator:wikipedia":"en:King County Metro","public_transport":"platform","ref":"72299","route_ref":"930","shelter":"no","wheelchair":"yes"}},{"type":"node","id":12117095993,"lat":47.6672592,"lon":-122.09359,"tags":{"bus":"yes","gtfs:feed":"US-WA-KCM","gtfs:stop_id":"72291","highway":"bus_stop","name":"185th Ave NE & NE 68th St","network":"King County Metro","network:short":"KCM","network:wikidata":"Q6411393","operator":"King County Metro","operator:short":"KCM","operator:wikidata":"Q6411393","operator:wikipedia":"en:King County Metro","public_transport":"platform","ref":"72291","route_ref":"269","wheelchair":"yes"}},{"type":"node","id":12117096000,"lat":47.6460228,"lon":-122.140671,"tags":{"bus":"yes","gtfs:feed":"US-WA-KCM","gtfs:stop_id":"71327","highway":"bus_stop","name":"NE 40th St & 150th Ave NE","network":"King County Metro","network:short":"KCM","network:wikidata":"Q6411393","operator":"King County Metro","operator:short":"KCM","operator:wikidata":"Q6411393","operator:wikipedia":"en:King County Metro","public_transport":"platform","ref":"71327","route_ref":"225;269","wheelchair":"yes"}},{"type":"node","id":12117096155,"lat":47.6669807,"lon":-122.098885,"tags":{"bus":"yes","gtfs:feed":"US-WA-KCM","gtfs:stop_id":"63811","highway":"bus_stop","name":"NE 68th St & 180th Ave NE","network":"King County Metro","network:short":"KCM","network:wikidata":"Q6411393","operator":"King County Metro","operator:short":"KCM","operator:wikidata":"Q6411393","operator:wikipedia":"en:King County Metro","public_transport":"platform","ref":"63811","route_ref":"269","wheelchair":"yes"}},{"type":"node","id":12117096158,"lat":47.6640396,"lon":-122.093246,"tags":{"bus":"yes","gtfs:feed":"US-WA-KCM","gtfs:stop_id":"62341","highway":"bus_stop","name":"NE 65th St & 185th Ave NE","network":"King County Metro","network:short":"KCM","network:wikidata":"Q6411393","operator":"King County Metro","operator:short":"KCM","operator:wikidata":"Q6411393","operator:wikipedia":"en:King County Metro","public_transport":"platform","ref":"62341","route_ref":"269","wheelchair":"yes"}},{"type":"node","id":12117096159,"lat":47.6635056,"lon":-122.087852,"tags":{"bus":"yes","gtfs:feed":"US-WA-KCM","gtfs:stop_id":"62339","highway":"bus_stop","name":"NE 65th St & 188th Ave NE","network":"King County Metro","network:short":"KCM","network:wikidata":"Q6411393","operator":"King County Metro","operator:short":"KCM","operator:wikidata":"Q6411393","operator:wikipedia":"en:King County Metro","public_transport":"platform","ref":"62339","route_ref":"269","wheelchair":"yes"}},{"type":"node","id":12117096160,"lat":47.6573334,"lon":-122.087685,"tags":{"bus":"yes","gtfs:feed":"US-WA-KCM","gtfs:stop_id":"62338","highway":"bus_stop","name":"NE Redmond Fall City Rd & 188th Ave NE","network":"King County Metro","network:short":"KCM","network:wikidata":"Q6411393","operator":"King County Metro","operator:short":"KCM","operator:wikidata":"Q6411393","operator:wikipedia":"en:King County Metro","public_transport":"platform","ref":"62338","route_ref":"269","wheelchair":"yes"}},{"type":"node","id":12117096161,"lat":47.6578751,"lon":-122.087784,"tags":{"bus":"yes","gtfs:feed":"US-WA-KCM","gtfs:stop_id":"62337","highway":"bus_stop","name":"188th Ave NE & Redmond Fall City Rd","network":"King County Metro","network:short":"KCM","network:wikidata":"Q6411393","operator":"King County Metro","operator:short":"KCM","operator:wikidata":"Q6411393","operator:wikipedia":"en:King County Metro","public_transport":"platform","ref":"62337","route_ref":"269","wheelchair":"yes"}},{"type":"node","id":12117096163,"lat":47.6608734,"lon":-122.095009,"tags":{"bus":"yes","gtfs:feed":"US-WA-KCM","gtfs:stop_id":"62329","highway":"bus_stop","name":"NE Redmond Fall City Rd & 185th Ave NE","network":"King County Metro","network:short":"KCM","network:wikidata":"Q6411393","operator":"King County Metro","operator:short":"KCM","operator:wikidata":"Q6411393","operator:wikipedia":"en:King County Metro","public_transport":"platform","ref":"62329","route_ref":"554","wheelchair":"yes"}},{"type":"node","id":12121320228,"lat":47.6645982,"lon":-122.1392782,"tags":{"amenity":"bench"}},{"type":"node","id":12121320240,"lat":47.6645774,"lon":-122.1387448,"tags":{"amenity":"bench"}},{"type":"node","id":12128305625,"lat":47.6730066,"lon":-122.1264745,"tags":{"amenity":"bench","backrest":"no","colour":"black","material":"metal"}},{"type":"node","id":12128305626,"lat":47.6730003,"lon":-122.1264289,"tags":{"amenity":"bench","backrest":"no","colour":"black","material":"metal"}},{"type":"node","id":12128305627,"lat":47.6730024,"lon":-122.1263802,"tags":{"amenity":"bench","backrest":"no","colour":"black","material":"metal"}},{"type":"node","id":12162246658,"lat":47.6704528,"lon":-122.1263147,"tags":{"amenity":"bench","backrest":"yes","count":"2"}},{"type":"node","id":12209306650,"lat":47.6674714,"lon":-122.1457978,"tags":{"amenity":"bench","backrest":"yes"}},{"type":"node","id":12209306652,"lat":47.667497,"lon":-122.1457899,"tags":{"amenity":"bench","backrest":"yes"}},{"type":"node","id":12209306655,"lat":47.6676763,"lon":-122.1463732,"tags":{"amenity":"bench","backrest":"yes"}},{"type":"node","id":12209306657,"lat":47.6677196,"lon":-122.1463665,"tags":{"amenity":"bench","backrest":"yes"}},{"type":"node","id":12209306659,"lat":47.6676263,"lon":-122.1463902,"tags":{"amenity":"bench","backrest":"yes"}},{"type":"node","id":12245048862,"lat":47.6653557,"lon":-122.1018569,"tags":{"amenity":"bench","backrest":"yes","material":"wood"}},{"type":"node","id":12245048863,"lat":47.6653262,"lon":-122.1018453,"tags":{"amenity":"bench","backrest":"yes","material":"wood"}},{"type":"node","id":12280187604,"lat":47.6665813,"lon":-122.0839984,"tags":{"amenity":"bench"}},{"type":"node","id":12280187605,"lat":47.6665592,"lon":-122.0837802,"tags":{"amenity":"bench"}},{"type":"node","id":12298833252,"lat":47.6744226,"lon":-122.1239684},{"type":"node","id":12298833253,"lat":47.6740313,"lon":-122.1241638},{"type":"node","id":12298833254,"lat":47.6739867,"lon":-122.1242502},{"type":"node","id":12298833255,"lat":47.6738085,"lon":-122.1243529},{"type":"node","id":12298833259,"lat":47.6743671,"lon":-122.1239961},{"type":"node","id":12298833274,"lat":47.674412,"lon":-122.1239737},{"type":"node","id":12300249145,"lat":47.6738762,"lon":-122.1239326},{"type":"node","id":12300249146,"lat":47.6737732,"lon":-122.1239881},{"type":"node","id":12300249147,"lat":47.673756,"lon":-122.1240264},{"type":"node","id":12300249148,"lat":47.6737573,"lon":-122.1240601},{"type":"node","id":12300249149,"lat":47.6737748,"lon":-122.1240807},{"type":"node","id":12300249150,"lat":47.6737907,"lon":-122.1240848},{"type":"node","id":12300249151,"lat":47.6738118,"lon":-122.1241333},{"type":"node","id":12300249152,"lat":47.6738598,"lon":-122.1243233},{"type":"node","id":12300249153,"lat":47.673882,"lon":-122.1239368},{"type":"node","id":12300249154,"lat":47.6739146,"lon":-122.1239191},{"type":"node","id":12300249155,"lat":47.6739215,"lon":-122.1239447},{"type":"node","id":12300249156,"lat":47.6739715,"lon":-122.1239164},{"type":"node","id":12300249157,"lat":47.6739088,"lon":-122.123921},{"type":"node","id":12300249165,"lat":47.6738191,"lon":-122.1243061},{"type":"node","id":12300249166,"lat":47.6738379,"lon":-122.1243742},{"type":"node","id":12300249171,"lat":47.6737242,"lon":-122.1240282},{"type":"node","id":12300249172,"lat":47.6738191,"lon":-122.1243468},{"type":"node","id":12300249173,"lat":47.6738045,"lon":-122.1241166},{"type":"node","id":12300249174,"lat":47.6737699,"lon":-122.1241517},{"type":"node","id":12300249175,"lat":47.6738528,"lon":-122.1242956},{"type":"node","id":12437588685,"lat":47.6709848,"lon":-122.1273045,"tags":{"barrier":"kerb","kerb":"lowered","tactile_paving":"yes","wheelchair":"yes"}},{"type":"node","id":12438022988,"lat":47.6488288,"lon":-122.0879596,"tags":{"amenity":"drinking_water"}},{"type":"node","id":12438022989,"lat":47.6491519,"lon":-122.0887086,"tags":{"amenity":"bench","armrest":"no","backrest":"yes","material":"wood","seats":"2"}},{"type":"node","id":12438022990,"lat":47.6493493,"lon":-122.0889567,"tags":{"amenity":"bench","armrest":"no","backrest":"yes","material":"wood","seats":"2"}},{"type":"node","id":12438022991,"lat":47.6495674,"lon":-122.0892061,"tags":{"amenity":"bench","armrest":"no","backrest":"yes","material":"wood","seats":"2"}},{"type":"node","id":12508614180,"lat":47.6640709,"lon":-122.1241072,"tags":{"amenity":"toilets","portable":"yes"}},{"type":"node","id":12508614181,"lat":47.6640722,"lon":-122.1240876,"tags":{"amenity":"toilets","portable":"yes"}},{"type":"node","id":12508614213,"lat":47.6639377,"lon":-122.1247276,"tags":{"amenity":"bench"}},{"type":"node","id":12508614214,"lat":47.6641287,"lon":-122.1250194,"tags":{"amenity":"bench"}},{"type":"node","id":12508614215,"lat":47.6641735,"lon":-122.1248726,"tags":{"amenity":"bench"}},{"type":"node","id":12508614216,"lat":47.6644333,"lon":-122.124499,"tags":{"amenity":"bench"}},{"type":"node","id":12508614217,"lat":47.664437,"lon":-122.1243811,"tags":{"amenity":"bench"}},{"type":"node","id":12508614218,"lat":47.6641834,"lon":-122.1239929,"tags":{"amenity":"bench"}},{"type":"node","id":12594273092,"lat":47.6725104,"lon":-122.1202837,"tags":{"amenity":"bench","armrest":"no","backrest":"yes","material":"wood"}},{"type":"node","id":12654205520,"lat":47.6728743,"lon":-122.1097132,"tags":{"addr:housenumber":"17223","addr:state":"WA","addr:street":"Redmond Way","check_date":"2025-03-11","healthcare":"physiotherapist","name":"Summit Rehabilitation","website":"https://summitrehab.com"}},{"type":"node","id":12777181254,"lat":47.6660575,"lon":-122.1023992,"tags":{"amenity":"bench","armrest":"yes","backrest":"yes","colour":"brown","material":"plastic"}},{"type":"node","id":12789645320,"lat":47.6544039,"lon":-122.1112853,"tags":{"amenity":"bench","armrest":"no","backrest":"yes"}},{"type":"node","id":12798130951,"lat":47.6715166,"lon":-122.1179495,"tags":{"access":"yes","highway":"elevator","level":"0:1","operator":"Sound Transit","wheelchair":"yes"}},{"type":"node","id":12798130952,"lat":47.6718645,"lon":-122.1192566,"tags":{"access":"yes","highway":"elevator","level":"0:1","operator":"Sound Transit","wheelchair":"yes"}},{"type":"node","id":12798613821,"lat":47.6694976,"lon":-122.1186929,"tags":{"access":"private","door":"hinged","door:wings":"2","entrance":"service","level":"0","wheelchair":"yes"}},{"type":"node","id":12798613822,"lat":47.6698571,"lon":-122.1184875,"tags":{"access":"private","door":"hinged","door:wings":"1","entrance":"service","level":"0","wheelchair":"yes"}},{"type":"node","id":12800792709,"lat":47.6718286,"lon":-122.1191519,"tags":{"bicycle":"yes","railway":"subway_entrance","ref":"A","wheelchair":"yes"}},{"type":"node","id":12800792725,"lat":47.6716566,"lon":-122.1184166,"tags":{"bicycle":"yes","railway":"subway_entrance","ref":"B","wheelchair":"yes"}},{"type":"node","id":12822509773,"lat":47.6674624,"lon":-122.1081828,"tags":{"access":"yes","bicycle":"yes","entrance":"yes","wheelchair":"yes"}},{"type":"node","id":12826258019,"lat":47.6720958,"lon":-122.1206289,"tags":{"amenity":"bench","backrest":"yes"}},{"type":"node","id":12826258020,"lat":47.6720971,"lon":-122.1205253,"tags":{"amenity":"bench","backrest":"yes"}},{"type":"node","id":12826297097,"lat":47.6724946,"lon":-122.1213265,"tags":{"amenity":"bench","backrest":"no"}},{"type":"node","id":12826297098,"lat":47.6724287,"lon":-122.1213582,"tags":{"amenity":"bench","backrest":"no"}},{"type":"node","id":12826321810,"lat":47.6723794,"lon":-122.1203145,"tags":{"bench":"yes","bin":"yes","gtfs:feed":"US-WA-KCM","gtfs:stop_id":"72479","highway":"bus_stop","local_ref":"4","name":"Downtown Redmond Station - Bay 4","network":"King County Metro","network:short":"KCM","network:wikidata":"Q6411393","network:wikipedia":"en:King County Metro","operator":"King County Metro","operator:short":"KCM","operator:wikidata":"Q6411393","operator:wikipedia":"en:King County Metro","public_transport":"platform","ref":"72479","route_ref":"222;224;250;930","shelter":"yes","tactile_paving":"no","wheelchair":"yes"}},{"type":"node","id":12826322042,"lat":47.6723629,"lon":-122.1206501,"tags":{"amenity":"bench","backrest":"no"}},{"type":"node","id":12826322044,"lat":47.6724009,"lon":-122.1208038,"tags":{"amenity":"bench","backrest":"no"}},{"type":"node","id":12826322046,"lat":47.6723662,"lon":-122.121024,"tags":{"amenity":"bench","backrest":"no"}},{"type":"node","id":12826379250,"lat":47.6727785,"lon":-122.1232688,"tags":{"amenity":"bench"}},{"type":"node","id":12826442593,"lat":47.6719271,"lon":-122.1191102,"tags":{"amenity":"bench","backrest":"no"}},{"type":"node","id":12826484171,"lat":47.6724473,"lon":-122.1217235,"tags":{"amenity":"bench","backrest":"no"}},{"type":"node","id":12826484172,"lat":47.6724225,"lon":-122.1216785,"tags":{"amenity":"bench","backrest":"no"}},{"type":"node","id":12826484173,"lat":47.6725058,"lon":-122.1216956,"tags":{"amenity":"bench","backrest":"no"}},{"type":"node","id":12827255500,"lat":47.6674491,"lon":-122.1083558,"tags":{"amenity":"bench","backrest":"yes"}},{"type":"node","id":12827341580,"lat":47.6642839,"lon":-122.1094513,"tags":{"barrier":"kerb","kerb":"flush","tactile_paving":"yes","wheelchair":"yes"}},{"type":"node","id":12827341584,"lat":47.6641743,"lon":-122.1094573,"tags":{"barrier":"kerb","kerb":"flush","tactile_paving":"yes","wheelchair":"yes"}},{"type":"node","id":12827341592,"lat":47.6651225,"lon":-122.1093189,"tags":{"amenity":"bench","backrest":"no"}},{"type":"node","id":12827810111,"lat":47.6672232,"lon":-122.1100954,"tags":{"description":"Marymoor Village to South Bellevue","gtfs:dataset_id":"KCGIS","gtfs:stop_id":"E29-T1","light_rail":"yes","name":"Marymoor Village","network":"Link","network:wikidata":"Q2778618","operator":"Sound Transit","operator:wikidata":"Q3965367","public_transport":"stop_position","railway":"stop","ref":"64","source":"King County GIS","website":"https://www.soundtransit.org/ride-with-us/stops-stations/marymoor-village-station","wheelchair":"yes"}},{"type":"node","id":12827810112,"lat":47.6673526,"lon":-122.1090506,"tags":{"description":"Marymoor Village to Downtown Redmond","gtfs:dataset_id":"KCGIS","gtfs:stop_id":"E29-T2","light_rail":"yes","name":"Marymoor Village","network":"Link","network:wikidata":"Q2778618","operator":"Sound Transit","operator:wikidata":"Q3965367","public_transport":"stop_position","railway":"stop","ref":"64","source":"King County GIS","website":"https://www.soundtransit.org/ride-with-us/stops-stations/marymoor-village-station","wheelchair":"yes"}},{"type":"node","id":12827810113,"lat":47.6719091,"lon":-122.119327,"tags":{"description":"Downtown Redmond to/from South Bellevue","gtfs:dataset_id":"KCGIS","gtfs:stop_id":"E31-T2","light_rail":"yes","name":"Downtown Redmond","network":"Link","network:wikidata":"Q2778618","operator":"Sound Transit","operator:wikidata":"Q3965367","public_transport":"stop_position","railway":"stop","ref":"65","source":"King County GIS","website":"https://www.soundtransit.org/ride-with-us/stops-stations/downtown-redmond-station","wheelchair":"yes"}},{"type":"node","id":12827810114,"lat":47.6715477,"lon":-122.1183363,"tags":{"description":"Downtown Redmond to/from South Bellevue","gtfs:dataset_id":"KCGIS","gtfs:stop_id":"E31-T1","light_rail":"yes","name":"Downtown Redmond","network":"Link","network:wikidata":"Q2778618","operator":"Sound Transit","operator:wikidata":"Q3965367","public_transport":"stop_position","railway":"stop","ref":"65","source":"King County GIS","website":"https://www.soundtransit.org/ride-with-us/stops-stations/downtown-redmond-station","wheelchair":"yes"}},{"type":"node","id":12829079116,"lat":47.6650473,"lon":-122.1089664},{"type":"node","id":12829079117,"lat":47.6651469,"lon":-122.1084228},{"type":"node","id":12829695655,"lat":47.6672852,"lon":-122.1095737,"tags":{"light_rail":"yes","name":"Marymoor Village","network":"Link","network:wikidata":"Q2778618","not:network:wikidata":"Q7564853","operator":"Sound Transit","operator:wikidata":"Q3965367","public_transport":"station","railway":"station","ref":"64","route_ref":"2 Line","station":"light_rail","wheelchair":"yes"}},{"type":"node","id":12829695656,"lat":47.6720151,"lon":-122.1196187},{"type":"node","id":12835119199,"lat":47.6691324,"lon":-122.1018612},{"type":"node","id":12835182907,"lat":47.6690898,"lon":-122.1018128,"tags":{"amenity":"loading_dock"}},{"type":"node","id":12835182908,"lat":47.669054,"lon":-122.1018131,"tags":{"amenity":"loading_dock"}},{"type":"node","id":12835182909,"lat":47.6689865,"lon":-122.1018136,"tags":{"amenity":"loading_dock"}},{"type":"node","id":12835182910,"lat":47.6690214,"lon":-122.1018133,"tags":{"amenity":"loading_dock"}},{"type":"node","id":12863800732,"lat":47.6593131,"lon":-122.1319189,"tags":{"amenity":"bench","backrest":"yes","colour":"brown","material":"wood","seats":"3"}},{"type":"node","id":12877545790,"lat":47.6733485,"lon":-122.1202174,"tags":{"amenity":"dentist","check_date":"2025-05-31","healthcare":"dentist","name":"Tru Dental"}},{"type":"node","id":12882387280,"lat":47.6704671,"lon":-122.1213357,"tags":{"amenity":"bench","backrest":"yes"}},{"type":"node","id":12882394057,"lat":47.6700286,"lon":-122.121619,"tags":{"amenity":"bench","backrest":"yes"}},{"type":"node","id":12882394058,"lat":47.6701675,"lon":-122.1216185,"tags":{"amenity":"bench","backrest":"yes"}},{"type":"node","id":12882394059,"lat":47.6703059,"lon":-122.1216162,"tags":{"amenity":"bench","backrest":"yes"}},{"type":"node","id":12882394060,"lat":47.6699566,"lon":-122.1216208,"tags":{"amenity":"bench","backrest":"yes"}},{"type":"node","id":12897254580,"lat":47.668263,"lon":-122.1054463,"tags":{"barrier":"kerb","kerb":"raised","tactile_paving":"no","wheelchair":"no"}},{"type":"node","id":12963723377,"lat":47.6671181,"lon":-122.099091,"tags":{"gtfs:feed":"US-WA-KCM","gtfs:stop_id":"63810","highway":"bus_stop","name":"NE 68th St & 180th Ave NE","network":"King County Metro","network:short":"KCM","network:wikidata":"Q6411393","network:wikipedia":"en:King County Metro","operator":"King County Metro","operator:short":"KCM","operator:wikidata":"Q6411393","operator:wikipedia":"en:King County Metro","public_transport":"platform","ref":"63810","route_ref":"269","wheelchair":"yes"}},{"type":"node","id":12963723384,"lat":47.6720924,"lon":-122.119255,"tags":{"bench":"no","bin":"yes","gtfs:stop_id:US-WA-KCM":"72478","highway":"bus_stop","local_ref":"3","name":"Cleveland Street & 166th Avenue Northeast - Bay 3","network":"King County Metro","network:short":"KCM","network:wikidata":"Q6411393","network:wikipedia":"en:King County Metro","operator":"King County Metro","operator:short":"KCM","operator:wikidata":"Q6411393","operator:wikipedia":"en:King County Metro","public_transport":"platform","ref":"72478","route_ref":"223;B Line","shelter":"no","tactile_paving":"no","wheelchair":"yes"}},{"type":"node","id":12963723385,"lat":47.6721464,"lon":-122.1208709,"tags":{"bench":"yes","gtfs:stop_id:US-WA-KCM":"72476","highway":"bus_stop","local_ref":"1","name":"Northeast 76th Street & 164th Avenue Northeast - Bay 1","network":"King County Metro","network:short":"KCM","network:wikidata":"Q6411393","network:wikipedia":"en:King County Metro","operator":"King County Metro","operator:short":"KCM","operator:wikidata":"Q6411393","operator:wikipedia":"en:King County Metro","public_transport":"platform","ref":"72476","route_ref":"223;B Line","shelter":"yes","wheelchair":"yes"}},{"type":"node","id":12963780530,"lat":47.6678581,"lon":-122.1073,"tags":{"gtfs:feed":"US-WA-KCM","gtfs:stop_id":"72494","highway":"bus_stop","local_ref":"4","name":"Marymoor Village Station - Bay 4","network":"King County Metro","network:short":"KCM","network:wikidata":"Q6411393","network:wikipedia":"en:King County Metro","operator":"King County Metro","operator:short":"KCM","operator:wikidata":"Q6411393","operator:wikipedia":"en:King County Metro","public_transport":"platform","ref":"72494","route_ref":"269","wheelchair":"yes"}},{"type":"node","id":12963780531,"lat":47.6677933,"lon":-122.107521,"tags":{"gtfs:feed":"US-WA-KCM","gtfs:stop_id":"72492","highway":"bus_stop","local_ref":"2","name":"Marymoor Village Station - Bay 2","network":"King County Metro","network:short":"KCM","network:wikidata":"Q6411393","network:wikipedia":"en:King County Metro","operator":"King County Metro","operator:short":"KCM","operator:wikidata":"Q6411393","operator:wikipedia":"en:King County Metro","public_transport":"platform","ref":"72492","route_ref":"269","wheelchair":"yes"}},{"type":"node","id":12963780532,"lat":47.6715317,"lon":-122.11834,"tags":{"gtfs:feed":"US-WA-KCM","gtfs:stop_id":"72477","highway":"bus_stop","local_ref":"2","name":"Downtown Redmond Station - Bay 2","network":"King County Metro","network:short":"KCM","network:wikidata":"Q6411393","network:wikipedia":"en:King County Metro","operator":"King County Metro","operator:short":"KCM","operator:wikidata":"Q6411393","operator:wikipedia":"en:King County Metro","public_transport":"platform","ref":"72477","route_ref":"222;224;250","wheelchair":"yes"}},{"type":"node","id":13009897051,"lat":47.6727253,"lon":-122.115018,"tags":{"amenity":"bench"}},{"type":"node","id":13009897052,"lat":47.6729724,"lon":-122.1159502,"tags":{"amenity":"bench"}},{"type":"node","id":13009897053,"lat":47.6728683,"lon":-122.1157493,"tags":{"amenity":"bench"}},{"type":"node","id":13009897057,"lat":47.6728313,"lon":-122.1158524,"tags":{"amenity":"bench"}},{"type":"node","id":13009897060,"lat":47.6729828,"lon":-122.1159128,"tags":{"amenity":"bench"}},{"type":"node","id":13009897064,"lat":47.6726085,"lon":-122.1151112,"tags":{"amenity":"bench"}},{"type":"node","id":13032088385,"lat":47.6673997,"lon":-122.1085029,"tags":{"bicycle":"yes","railway":"subway_entrance","ref":"A","wheelchair":"yes"}},{"type":"node","id":13034281905,"lat":47.6719181,"lon":-122.1196039,"tags":{"bicycle":"yes","railway":"subway_entrance","ref":"A","wheelchair":"yes"}},{"type":"node","id":13056798196,"lat":47.6685837,"lon":-122.1130576,"tags":{"amenity":"bench"}},{"type":"node","id":13056798197,"lat":47.6687988,"lon":-122.1141957,"tags":{"amenity":"bench"}},{"type":"node","id":13064142742,"lat":47.6506996,"lon":-122.116043,"tags":{"gtfs:feed":"US-WA-KCM","gtfs:stop_id":"71163","highway":"bus_stop","name":"West Lake Sammamish Pkwy NE & Bellevue Redmond Rd","operator":"King County Metro","operator:short":"KCM","operator:wikidata":"Q6411393","operator:wikipedia":"en:King County Metro","public_transport":"platform","ref":"71163","route_ref":"222","wheelchair":"yes"}},{"type":"node","id":13064142743,"lat":47.6512375,"lon":-122.116661,"tags":{"gtfs:feed":"US-WA-KCM","gtfs:stop_id":"71162","highway":"bus_stop","name":"West Lake Sammamish Pkwy NE & Bellevue Redmond Rd","operator":"King County Metro","operator:short":"KCM","operator:wikidata":"Q6411393","operator:wikipedia":"en:King County Metro","public_transport":"platform","ref":"71162","route_ref":"222","wheelchair":"yes"}},{"type":"node","id":13064142744,"lat":47.6615982,"lon":-122.12603,"tags":{"gtfs:feed":"US-WA-KCM","gtfs:stop_id":"71159","highway":"bus_stop","name":"West Lake Sammamish Pkwy NE & NE Marymoor Way","operator":"King County Metro","operator:short":"KCM","operator:wikidata":"Q6411393","operator:wikipedia":"en:King County Metro","public_transport":"platform","ref":"71159","route_ref":"222","wheelchair":"yes"}},{"type":"node","id":13064142745,"lat":47.661953,"lon":-122.126068,"tags":{"gtfs:feed":"US-WA-KCM","gtfs:stop_id":"71149","highway":"bus_stop","name":"West Lake Sammamish Pkwy NE & NE Marymoor Way","operator":"King County Metro","operator:short":"KCM","operator:wikidata":"Q6411393","operator:wikipedia":"en:King County Metro","public_transport":"platform","ref":"71149","route_ref":"222","wheelchair":"yes"}},{"type":"node","id":13064142746,"lat":47.6580811,"lon":-122.121765,"tags":{"gtfs:feed":"US-WA-KCM","gtfs:stop_id":"71148","highway":"bus_stop","name":"West Lake Sammamish Pkwy NE & NE 51st St","operator":"King County Metro","operator:short":"KCM","operator:wikidata":"Q6411393","operator:wikipedia":"en:King County Metro","public_transport":"platform","ref":"71148","route_ref":"222","wheelchair":"yes"}},{"type":"node","id":13064142747,"lat":47.6577492,"lon":-122.121086,"tags":{"gtfs:feed":"US-WA-KCM","gtfs:stop_id":"71147","highway":"bus_stop","name":"West Lake Sammamish Pkwy NE & NE 51st St","operator":"King County Metro","operator:short":"KCM","operator:wikidata":"Q6411393","operator:wikipedia":"en:King County Metro","public_transport":"platform","ref":"71147","route_ref":"222","wheelchair":"no"}},{"type":"node","id":13064142748,"lat":47.649395,"lon":-122.111084,"tags":{"gtfs:feed":"US-WA-KCM","gtfs:stop_id":"71144","highway":"bus_stop","name":"West Lake Sammamish Pkwy NE & 172nd Ave NE","operator":"King County Metro","operator:short":"KCM","operator:wikidata":"Q6411393","operator:wikipedia":"en:King County Metro","public_transport":"platform","ref":"71144","route_ref":"222","wheelchair":"yes"}},{"type":"node","id":13064142749,"lat":47.6493912,"lon":-122.110443,"tags":{"gtfs:feed":"US-WA-KCM","gtfs:stop_id":"71143","highway":"bus_stop","name":"West Lake Sammamish Pkwy NE & 172nd Ave NE","operator":"King County Metro","operator:short":"KCM","operator:wikidata":"Q6411393","operator:wikipedia":"en:King County Metro","public_transport":"platform","ref":"71143","route_ref":"222","wheelchair":"yes"}},{"type":"node","id":13064142750,"lat":47.6464539,"lon":-122.107864,"tags":{"gtfs:feed":"US-WA-KCM","gtfs:stop_id":"71142","highway":"bus_stop","name":"West Lake Sammamish Pkwy NE & NE 40th St","operator":"King County Metro","operator:short":"KCM","operator:wikidata":"Q6411393","operator:wikipedia":"en:King County Metro","public_transport":"platform","ref":"71142","route_ref":"222","wheelchair":"yes"}},{"type":"node","id":13073418648,"lat":47.6462935,"lon":-122.1320592,"tags":{"amenity":"bench","backrest":"yes"}},{"type":"node","id":13073418649,"lat":47.6462773,"lon":-122.1320117,"tags":{"amenity":"bench","backrest":"yes"}},{"type":"node","id":13073418650,"lat":47.6462468,"lon":-122.1319983,"tags":{"amenity":"bench","backrest":"yes"}},{"type":"node","id":13140029162,"lat":47.6689253,"lon":-122.119749,"tags":{"amenity":"bench","armrest":"no","backrest":"yes"}},{"type":"node","id":13140029163,"lat":47.6689247,"lon":-122.1197881,"tags":{"amenity":"bench","armrest":"no","backrest":"yes"}},{"type":"node","id":13140029164,"lat":47.6689247,"lon":-122.119704,"tags":{"amenity":"bench","armrest":"no","backrest":"yes"}},{"type":"node","id":13146015397,"lat":47.6508104,"lon":-122.133438,"tags":{"amenity":"bench","backrest":"yes"}},{"type":"node","id":13146016380,"lat":47.6505811,"lon":-122.1332119,"tags":{"amenity":"bench","backrest":"yes"}},{"type":"node","id":13146016457,"lat":47.651024,"lon":-122.1334363,"tags":{"amenity":"bench","backrest":"yes"}},{"type":"node","id":13146020828,"lat":47.6510846,"lon":-122.1332285,"tags":{"amenity":"bench","backrest":"yes"}},{"type":"node","id":13146027245,"lat":47.6505864,"lon":-122.1332774,"tags":{"amenity":"bench","backrest":"yes"}},{"type":"node","id":13146031824,"lat":47.650621,"lon":-122.1331359,"tags":{"amenity":"bench","backrest":"yes"}},{"type":"node","id":13146034786,"lat":47.6716358,"lon":-122.1182805,"tags":{"amenity":"bench","backrest":"yes"}},{"type":"node","id":13152059811,"lat":47.673173,"lon":-122.1176778,"tags":{"addr:city":"Redmond","addr:housenumber":"16690","addr:postcode":"98052","addr:state":"WA","addr:street":"Redmond Way","amenity":"clinic","healthcare":"clinic","name":"Concentra Urgent Care","operator":"Concentra","operator:type":"private","operator:wikidata":"Q5158304","phone":"+1-425-882-0100","website":"https://www.concentra.com/"}},{"type":"node","id":13153422986,"lat":47.646408,"lon":-122.1338695,"tags":{"amenity":"bench"}},{"type":"node","id":13153854096,"lat":47.6715036,"lon":-122.1180831,"tags":{"bicycle":"yes","railway":"subway_entrance","ref":"B","wheelchair":"yes"}},{"type":"node","id":13154354290,"lat":47.6718579,"lon":-122.1197011},{"type":"node","id":13154354291,"lat":47.6718256,"lon":-122.119674},{"type":"node","id":13154354292,"lat":47.671389,"lon":-122.1178612},{"type":"node","id":13154354293,"lat":47.6713992,"lon":-122.1178218},{"type":"node","id":13154354294,"lat":47.6715557,"lon":-122.1177379},{"type":"node","id":13154354295,"lat":47.6715863,"lon":-122.1177575},{"type":"node","id":13154354296,"lat":47.6720261,"lon":-122.1195658},{"type":"node","id":13154354297,"lat":47.6717465,"lon":-122.1184165},{"type":"node","id":13154354298,"lat":47.6716512,"lon":-122.1180246},{"type":"node","id":13154354299,"lat":47.671771,"lon":-122.1183597},{"type":"node","id":13182442479,"lat":47.6713401,"lon":-122.1213114,"tags":{"addr:city":"Redmond","addr:housenumber":"7530","addr:postcode":"98052","addr:state":"WA","addr:street":"164th Avenue Northeast","addr:unit":"Suite A235","amenity":"dentist","healthcare":"dentist","level":"1","name":"Confident Smiles Family Dentistry","phone":"+1-425-786-3707","website":"https://www.confidentsmilesdentist.com/"}},{"type":"node","id":13182442480,"lat":47.6719699,"lon":-122.1212612,"tags":{"addr:city":"Redmond","addr:housenumber":"7530","addr:postcode":"98052","addr:state":"WA","addr:street":"164th Avenue Northeast","addr:unit":"Suite A215","amenity":"doctors","fax":"+1-425-885-9106","healthcare":"doctor","healthcare:speciality":"paediatrics","level":"1","name":"Allegro Pediatrics Redmond","operator":"Allegro Pediatrics","phone":"+1-425-885-9292","website":"https://www.allegropediatrics.com/care-locations/redmond"}},{"type":"node","id":13182442483,"lat":47.6713437,"lon":-122.1211183,"tags":{"addr:city":"Redmond","addr:housenumber":"7530","addr:postcode":"98052","addr:state":"WA","addr:street":"164th Avenue Northeast","addr:unit":"Suite A240","healthcare":"alternative","healthcare:speciality":"chiropractic","level":"1","name":"Redmond Chiropractic","phone":"+1-425-881-7790","website":"https://redmondchiropracticandmassage.com/"}},{"type":"node","id":13182442484,"lat":47.671484,"lon":-122.121286,"tags":{"addr:city":"Redmond","addr:housenumber":"7530","addr:postcode":"98052","addr:state":"WA","addr:street":"164th Avenue Northeast","addr:unit":"Suite A230","amenity":"dentist","healthcare":"dentist","level":"1","name":"Redmond Smiles Family Dentistry","phone":"+1-425-947-0077","website":"https://www.redmondsmilesdentistry.com/"}},{"type":"node","id":13419627731,"lat":47.6737933,"lon":-122.1224518,"tags":{"addr:housenumber":"16311","addr:street":"Redmond Way","amenity":"restaurant","brand":"Pagliacci Pizza","brand:wikidata":"Q7124370","check_date":"2025-12-30","cuisine":"pizza","name":"Pagliacci Pizza","opening_hours":"Mo-Th,Su 11:00-22:00; Fr-Sa 11:00-23:00","payment:cash":"yes","payment:credit_cards":"yes","payment:debit_cards":"yes","phone":"+1 206-726-1717","website":"https://www.pagliacci.com/locations/redmond","wheelchair":"yes"}},{"type":"node","id":13440608321,"lat":47.662364,"lon":-122.0988805,"tags":{"barrier":"kerb","kerb":"flush","tactile_paving":"yes","wheelchair":"yes"}},{"type":"node","id":13440608323,"lat":47.6623548,"lon":-122.0990399,"tags":{"barrier":"kerb","kerb":"flush","tactile_paving":"yes","wheelchair":"yes"}},{"type":"node","id":13440608326,"lat":47.6624214,"lon":-122.0992365,"tags":{"barrier":"kerb","kerb":"flush","tactile_paving":"yes","wheelchair":"yes"}},{"type":"node","id":13440608328,"lat":47.6625022,"lon":-122.0993205,"tags":{"barrier":"kerb","kerb":"flush","tactile_paving":"yes","wheelchair":"yes"}},{"type":"node","id":13440608347,"lat":47.6630489,"lon":-122.0998958,"tags":{"barrier":"kerb","kerb":"flush","tactile_paving":"yes","wheelchair":"yes"}},{"type":"node","id":13440608348,"lat":47.6629937,"lon":-122.099848,"tags":{"barrier":"kerb","kerb":"flush","tactile_paving":"yes","wheelchair":"yes"}},{"type":"node","id":13440646873,"lat":47.6624597,"lon":-122.0987215,"tags":{"barrier":"kerb","kerb":"flush","tactile_paving":"yes","wheelchair":"yes"}},{"type":"node","id":13440646874,"lat":47.6625521,"lon":-122.0988205,"tags":{"barrier":"kerb","kerb":"flush","tactile_paving":"yes","wheelchair":"yes"}},{"type":"node","id":13440646884,"lat":47.6625154,"lon":-122.0987817,"tags":{"barrier":"kerb","kerb":"flush","tactile_paving":"yes","wheelchair":"yes"}},{"type":"node","id":13440646885,"lat":47.6624981,"lon":-122.0987634,"tags":{"barrier":"kerb","kerb":"flush","tactile_paving":"yes","wheelchair":"yes"}},{"type":"node","id":13440654030,"lat":47.6638992,"lon":-122.1005018,"tags":{"barrier":"kerb","kerb":"flush","tactile_paving":"yes","wheelchair":"yes"}},{"type":"node","id":13469560234,"lat":47.6641454,"lon":-122.1081119,"tags":{"barrier":"kerb","kerb":"flush","tactile_paving":"yes","wheelchair":"yes"}},{"type":"node","id":13469560236,"lat":47.6642986,"lon":-122.1081124,"tags":{"barrier":"kerb","kerb":"flush","tactile_paving":"yes","wheelchair":"yes"}},{"type":"node","id":13469560239,"lat":47.6651315,"lon":-122.1084709},{"type":"node","id":13469560243,"lat":47.6651768,"lon":-122.1094445,"tags":{"barrier":"kerb","kerb":"lowered","tactile_paving":"yes","wheelchair":"yes"}},{"type":"node","id":13469560577,"lat":47.6651575,"lon":-122.1080569,"tags":{"barrier":"kerb","kerb":"lowered","tactile_paving":"yes","wheelchair":"yes"}},{"type":"node","id":13507968957,"lat":47.6646971,"lon":-122.1062916,"tags":{"barrier":"kerb","kerb":"flush","tactile_paving":"yes","wheelchair":"yes"}},{"type":"node","id":13507968959,"lat":47.6647126,"lon":-122.1061501,"tags":{"barrier":"kerb","kerb":"raised","wheelchair":"no"}},{"type":"node","id":13507986510,"lat":47.6651584,"lon":-122.1079734,"tags":{"barrier":"kerb","kerb":"lowered","tactile_paving":"yes","wheelchair":"yes"}},{"type":"node","id":13507986530,"lat":47.6651173,"lon":-122.1056397,"tags":{"barrier":"kerb","kerb":"lowered","tactile_paving":"yes","wheelchair":"yes"}},{"type":"way","id":31991673,"nodes":[358534551,358534558,358534561,4239975272,4239975275,4239975271,1192049048,358534568,11688317735,358534569,7836764535,2667886168,2667886171,2667886172,2667886170,358534551],"tags":{"access":"yes","amenity":"parking","building":"parking","fee":"no","parking":"multi-storey","surface":"concrete","wheelchair":"yes"}},{"type":"way","id":47413268,"nodes":[603452522,603452523,7836764529,7836764531,603452525,7836764523,7836764526,8785261604,603452526,7424004292,7424004295,7424004294,7424004293,11688272360,603452522],"tags":{"access":"private","amenity":"parking","building":"parking","parking":"multi-storey","surface":"concrete","wheelchair":"yes"}},{"type":"way","id":65067103,"nodes":[796651299,2717955464,796651370,796651118,796651200,796651265,796651337,796651086,796651167,796651236,796651106,796651187,796651256,796651326,796651076,796651155,2717955394,3972118079,3972118046,796651299],"tags":{"addr:city":"Redmond","addr:country":"US","addr:housenumber":"6505","addr:postcode":"98052","addr:state":"WA","addr:street":"176th Avenue Northeast","addr:unit":"#4930","air_conditioning":"yes","amenity":"community_centre","building":"yes","name":"Redmond Community Center at Marymoor Village","operator":"CIty of Redmond Parks and Recreation Department","operator:type":"government","website":"https://www.redmond.gov/241/Redmond-Community-Center-at-Marymoor-Vil","wheelchair":"yes"}},{"type":"way","id":65067111,"nodes":[796651070,796651272,796651344,796651091,796651070],"tags":{"access":"yes","amenity":"toilets","building":"yes","building:levels":"1","fee":"no","portable":"no","toilets:disposal":"flush","toilets:handwashing":"yes","unisex":"yes"}},{"type":"way","id":103242570,"nodes":[1192049043,1192049017,1192049025,1192049019,1192049045,1192049018,1192049062,1192049046,7423999884,7424004285,1192049033,1192049031,1192049050,1192049047,1192049014,1192049043],"tags":{"amenity":"parking","fee":"no","wheelchair":"yes"}},{"type":"way","id":105757826,"nodes":[1217780389,1217780339,1217780343,1217780411,1217780392,1217780372,1217780369,1217780360,1217780389],"tags":{"addr:city":"Redmond","addr:housenumber":"17621","addr:postcode":"98052","addr:state":"WA","addr:street":"Redmond Way","air_conditioning":"yes","amenity":"restaurant","building":"yes","indoor_seating":"yes","name":"Family Pancake House","opening_hours":"Mo-Su 06:30-20:00","outdoor_seating":"no","payment:credit_cards":"yes","payment:debit_cards":"yes","wheelchair":"yes"}},{"type":"way","id":137343012,"nodes":[1506645210,1506645214,1506645216,1506645199,1506645221,1506645201,1506645206,1506645220,6050050599,1506645224,1506645219,367119681,6050050587,10817302804,10817715005,6577643583,1506645223,1506645208,6050050589,6050050591,1506645211,1506645197,1506645225,1506645227,1506645213,1506645210],"tags":{"addr:city":"Redmond","addr:housenumber":"17246","addr:postcode":"98052","addr:state":"WA","addr:street":"Remond Way East","brand":"Safeway","brand:wikidata":"Q1508234","building":"yes","check_date":"2025-03-11","designation":"Safeway 0464","layer":"1","name":"Safeway","opening_hours":"Mo-Su 05:00-24:00","phone":"+1-425-885-3323","self_checkout":"yes","shop":"supermarket","website":"https://local.safeway.com/safeway/wa/redmond/17246-redmond-way.html","wheelchair":"yes"}},{"type":"way","id":221227025,"nodes":[2302768173,2302768189,2302768172,2302768181,2302768173],"tags":{"amenity":"toilets","building":"yes"}},{"type":"way","id":316335933,"nodes":[3224473905,3224473906,3224472016,3224473908,3224473883,3224473882,12835182909,12835182910,12835182908,12835182907,3224473887,12835119199,3224473899,9728291377,9728291374,3224473904,3224473913,3224473920,3224473921,3224473905],"tags":{"addr:city":"Redmond","addr:housenumber":"17777","addr:postcode":"98052","addr:state":"WA","addr:street":"Northeast 76th Street","alt_name":"Home Depot","branch":"Redmond","brand":"The Home Depot","brand:wikidata":"Q864407","building":"retail","building:levels":"1","name":"The Home Depot","opening_hours":"Mo-Sa 06:00-22:00; Su 07:00-20:00","phone":"+1-425-885-6358","ref":"4723","self_checkout":"yes","shop":"doityourself","website":"https://www.homedepot.com/l/Redmond-WA/WA/Redmond/98052/4723","wheelchair":"yes"}},{"type":"way","id":316353481,"nodes":[3224620964,3224620732,3224620730,3224620745,3224620746,3224620755,3224620756,3224621070,3224621071,3224621059,3224621060,3224621055,3224621054,3224621052,3224621053,3224621050,9728335753,3224621042,3224621040,3224621035,3224621036,3224621029,3224621023,3224621017,3224621013,3224621008,3224621007,3224621005,3224621004,3224620999,3224620993,3224620989,3224620988,3224620979,3224620980,3224620965,3224620964],"tags":{"addr:city":"Redmond","addr:housenumber":"17700","addr:postcode":"98052","addr:state":"WA","addr:street":"Northeast 76th Street","brand":"Target","brand:wikidata":"Q1046951","building":"retail","building:levels":"1","name":"Target","opening_hours":"Mo-Su 08:00-22:00","phone":"+1-425-556-9533","self_checkout":"yes","shop":"department_store","toilets":"yes","website":"https://www.target.com/sl/redmond/995","wheelchair":"yes"}},{"type":"way","id":324984980,"nodes":[3316610335,3316610334,4333509552,3316610314,3316610315,4333509553,3316610335],"tags":{"amenity":"toilets","building":"yes"}},{"type":"way","id":413883023,"nodes":[4151072279,10789168521,10789168522,4151072280,11688561811,4775958858,4151072281,4151072282,4151072279],"tags":{"amenity":"toilets","building":"yes"}},{"type":"way","id":424596650,"nodes":[4239975271,4239975275,4239975272,4239975270,4239975271],"tags":{"access":"yes","leisure":"playground","wheelchair":"yes"}},{"type":"way","id":427473501,"nodes":[4266830414,1738824043,4266830409,4266830406,10833038958,6040162636,10833038959,4266830414],"tags":{"amenity":"toilets","building":"yes","fee":"no","gender_segregated":"yes","toilets:disposal":"flush","wheelchair":"yes"}},{"type":"way","id":427473504,"nodes":[4266830503,4266830506,4266830504,4266830485,4266830483,4266830479,4266830491,4266830503],"tags":{"amenity":"toilets","building":"yes"}},{"type":"way","id":456271152,"nodes":[4525493630,6955721535,6955721542,6104013997,6955789053,6955721536,6955721546,4525493632,6104013579,6955721537,6104013580,6955721547,6955721543,4525493626,4525493627,5125495175,4525493628,5125495176,6104013577,6104013578,4525493630],"tags":{"addr:city":"Redmond","addr:housename":"Costco","addr:housenumber":"7725","addr:postcode":"98052-6088","addr:state":"WA","addr:street":"188th Avenue Northeast","branch":"Redmond","brand":"Costco","brand:wikidata":"Q715583","building":"yes","name":"Costco","opening_hours":"Mo-Fr 10:00-20:30; Sa 09:30-18:00; Su 10:00-18:00","operator":"Costco","phone":"+1-425-406-5382","ref":"1225","shop":"wholesale","website":"https://www.costco.com/warehouse-locations/redmond-wa-1225.html","wheelchair":"yes","wholesale":"yes"}},{"type":"way","id":484846203,"nodes":[2439935999,4775959026,4775959027,4775959028,4775959029,4775959030,4775959031,2439935999],"tags":{"amenity":"toilets","building":"yes","toilets:disposal":"flush"}},{"type":"way","id":535455787,"nodes":[2511048884,2511048885,2657865715,2657865782,2657865691,2657865776],"tags":{"highway":"path","surface":"concrete","wheelchair":"no"}},{"type":"way","id":604049559,"nodes":[5732604885,5732604886,5732604887,5732604888,5732604889,5732604890,5732604891],"tags":{"highway":"footway","surface":"unhewn_cobblestone","wheelchair":"no"}},{"type":"way","id":711887302,"nodes":[6693637293,6693637294],"tags":{"handrail":"yes","highway":"steps","incline":"up","indoor":"no","level":"0;2","ramp":"no","step_count":"27","surface":"concrete","tactile_paving":"no","wheelchair":"no"}},{"type":"way","id":711887303,"nodes":[6693637305,11984359604],"tags":{"handrail":"yes","highway":"steps","incline":"down","ramp":"no","step_count":"4","surface":"concrete","tactile_paving":"no","wheelchair":"no"}},{"type":"way","id":865447424,"nodes":[8066641352,8066641351],"tags":{"handrail":"yes","highway":"steps","incline":"up","surface":"pebblestone","wheelchair":"no"}},{"type":"way","id":964853940,"nodes":[8925611983,8925611980,8925611981,8925611982,8925611983],"tags":{"access":"yes","amenity":"toilets","building":"toilets","changing_table":"yes","drinking_water":"yes","wheelchair":"yes"}},{"type":"way","id":1062225718,"nodes":[9758545576,9758545575],"tags":{"access_aisle":"disabled","crossing:markings":"zebra","footway":"access_aisle","highway":"footway","surface":"asphalt","tactile_paving":"no","wheelchair":"yes"}},{"type":"way","id":1163241040,"nodes":[10817717517,11225629121,10817717518],"tags":{"access_aisle":"disabled","crossing:markings":"zebra","footway":"access_aisle","highway":"footway","surface":"asphalt","tactile_paving":"no","wheelchair":"yes"}},{"type":"way","id":1169531084,"nodes":[10875058103,10875058102,10875058101],"tags":{"access_aisle":"disabled","footway":"access_aisle","highway":"footway","wheelchair":"yes"}},{"type":"way","id":1289223226,"nodes":[11954701919,11954701924],"tags":{"amenity":"bench","backrest":"no","material":"stone"}},{"type":"way","id":1289223227,"nodes":[11954701921,11954701922],"tags":{"amenity":"bench","backrest":"no","material":"stone"}},{"type":"way","id":1289223228,"nodes":[11954701917,11954701918],"tags":{"amenity":"bench","backrest":"no","material":"stone"}},{"type":"way","id":1289223229,"nodes":[11954701923,11954701920],"tags":{"amenity":"bench","backrest":"no","material":"stone"}},{"type":"way","id":1301261921,"nodes":[12052724792,12052724794,12052724785,12052724798,12052724797,12052724801,12052724793,12052724790,12052724799,12052724789,12052724788,12052724802,12052724795,12052724791,12052724800,12052724786,12052724796,12052724787,11946857714,12052724792],"tags":{"access":"yes","leisure":"dog_park","name":"Luke McRedmond Pop-Up Dog Park","name:etymology:wikidata":"Q135178367","opening_hours":"2024 Apr 01-2024 Oct 31 Su-Sa,PH dawn-dusk","operator":"City of Redmond","operator:type":"public","website":"https://www.letsconnectredmond.com/dogpark","wheelchair":"limited"}},{"type":"way","id":1329304790,"nodes":[12300249175,12300249151,12300249174],"tags":{"covered":"no","highway":"footway","stroller":"yes","surface":"sand","wheelchair":"yes"}},{"type":"way","id":1329304798,"nodes":[12298833252,12298833274,12298833259,12298833253,12298833254,12300249152,12300249172,12298833255],"tags":{"covered":"no","highway":"footway","stroller":"yes","surface":"concrete","wheelchair":"yes"}},{"type":"way","id":1329481239,"nodes":[7251950317,12300249156,12300249155,12300249154,12300249157,12300249153,12300249145,12300249146,12300249147,12300249148,12300249149,12300249150,12300249173],"tags":{"covered":"no","highway":"footway","stroller":"yes","surface":"bricks","wheelchair":"yes"}},{"type":"way","id":1329481243,"nodes":[12300249165,9726355766],"tags":{"access":"yes","amenity":"bench","armrest":"no","backrest":"no","bench":"yes","direction":"19.5;199.5","material":"concrete","surface":"concrete"}},{"type":"way","id":1329481244,"nodes":[9726355765,12300249166],"tags":{"access":"yes","amenity":"bench","armrest":"no","backrest":"no","bench":"yes","direction":"19.5;199.5","material":"concrete","surface":"concrete"}},{"type":"way","id":1329481248,"nodes":[12300249147,12300249171],"tags":{"covered":"no","highway":"footway","stroller":"yes","surface":"bricks","wheelchair":"yes"}},{"type":"way","id":1329481259,"nodes":[12300249152,12300249175],"tags":{"covered":"no","highway":"footway","stroller":"yes","surface":"concrete","wheelchair":"yes"}},{"type":"way","id":1329481260,"nodes":[12300249174,5953192260],"tags":{"covered":"no","highway":"footway","stroller":"yes","surface":"concrete","wheelchair":"yes"}},{"type":"way","id":1329481261,"nodes":[12300249173,12300249151],"tags":{"covered":"no","highway":"footway","stroller":"yes","surface":"sand","wheelchair":"yes"}},{"type":"way","id":1385648433,"nodes":[12829079117,13469560239,12829079116],"tags":{"highway":"footway","incline":"up","surface":"concrete","wheelchair":"yes"}},{"type":"way","id":1431055228,"nodes":[12829695656,13154354290,13154354291,13154354292,13154354293,13154354294,13154354295,13154354298,13154354299,13154354297,13154354296,12829695656],"tags":{"light_rail":"yes","name":"Downtown Redmond","network":"Link","network:wikidata":"Q2778618","not:network:wikidata":"Q7564853","operator":"Sound Transit","operator:wikidata":"Q3965367","public_transport":"station","railway":"station","ref":"65","route_ref":"2 Line","station":"light_rail","wheelchair":"yes"}}]}