{"version":0.6,"generator":"Overpass API 0.7.62.10 2d4cfc48","osm3s":{"timestamp_osm_base":"2026-02-26T05:57:28Z","copyright":"The data included in this document is from www.openstreetmap.org. The data is made available under ODbL."},"elements":[{"type":"node","id":805297646,"lat":47.6058297,"lon":-122.1414154,"tags":{"amenity":"bench","backrest":"yes","direction":"170","material":"wood"}},{"type":"node","id":846500236,"lat":47.6101965,"lon":-122.1436686},{"type":"node","id":846500244,"lat":47.6100298,"lon":-122.1435076},{"type":"node","id":846500246,"lat":47.6103678,"lon":-122.1434631},{"type":"node","id":846500247,"lat":47.6103649,"lon":-122.1436979},{"type":"node","id":846500250,"lat":47.6102337,"lon":-122.1434586},{"type":"node","id":846500252,"lat":47.6100305,"lon":-122.1436702},{"type":"node","id":846500264,"lat":47.6101958,"lon":-122.143506},{"type":"node","id":846500275,"lat":47.6102314,"lon":-122.1436941},{"type":"node","id":2141021800,"lat":47.6094161,"lon":-122.1509819},{"type":"node","id":2141021805,"lat":47.6095654,"lon":-122.15092},{"type":"node","id":2141021817,"lat":47.6094834,"lon":-122.1510654},{"type":"node","id":2141021827,"lat":47.6094982,"lon":-122.1508365},{"type":"node","id":2392134330,"lat":47.6082826,"lon":-122.141299,"tags":{"addr:city":"Bellevue","addr:housenumber":"15015","addr:postcode":"98007","addr:state":"WA","addr:street":"Main Street","addr:unit":"113","amenity":"fast_food","brand":"Subway","brand:wikidata":"Q244457","check_date":"2024-01-21","cuisine":"sandwich","indoor_seating":"yes","name":"Subway","opening_hours":"Mo-Su 10:00-22:00","outdoor_seating":"no","phone":"+1-425-641-7629","takeaway":"yes","website":"https://restaurants.subway.com/united-states/wa/bellevue/15015-main-st","wheelchair":"no"}},{"type":"node","id":2594496470,"lat":47.6095553,"lon":-122.1414222,"tags":{"addr:city":"Bellevue","addr:housenumber":"14875","addr:postcode":"98007","addr:state":"WA","addr:street":"Main Street","amenity":"fast_food","branch":"Bellevue Main St","brand":"Wingstop","brand:wikidata":"Q8025339","check_date":"2023-11-28","cuisine":"wings","name":"Wingstop","opening_hours":"Mo-Su 11:00-22:45","payment:american_express":"yes","payment:apple_pay":"yes","payment:diners_club":"yes","payment:discover_card":"yes","payment:jcb":"yes","payment:mastercard":"yes","payment:union_pay":"yes","payment:visa":"yes","phone":"+1-425-974-1142","takeaway":"yes","website":"https://www.wingstop.com/","wheelchair":"yes"}},{"type":"node","id":2594496478,"lat":47.609579,"lon":-122.1415217,"tags":{"addr:city":"Bellevue","addr:housenumber":"14865","addr:postcode":"98007","addr:street":"Main Street","amenity":"ice_cream","brand":"Menchie's","brand:wikidata":"Q6816528","check_date":"2024-01-16","cuisine":"frozen_yogurt","name":"Menchie's","opening_hours":"Su-Th 13:00-20:30; Fr,Sa 13:00-21:30","phone":"+1-425-644-3035","website":"https://www.menchies.com/","wheelchair":"yes"}},{"type":"node","id":2594496483,"lat":47.6095795,"lon":-122.1417079,"tags":{"addr:city":"Bellevue","addr:housenumber":"14845","addr:postcode":"98007","addr:street":"Main Street","amenity":"restaurant","check_date":"2024-01-16","cuisine":"japanese","email":"bellevue@kuzuki.com","name":"Kizuki Ramen & Izakaya - Bellevue","opening_hours":"Mo-Th 11:00-21:30; Fr,Sa 11:00-22:00; Su 11:00-21:30","phone":"+1-425-243-7527","website":"http://kuzuki.com","wheelchair":"yes"}},{"type":"node","id":2594496486,"lat":47.6095798,"lon":-122.1418004,"tags":{"addr:city":"Bellevue","addr:housenumber":"14835","addr:postcode":"98007","addr:street":"Main Street","amenity":"restaurant","check_date":"2023-11-28","cuisine":"greek","name":"Greek Express","payment:discover_card":"yes","payment:google_pay":"yes","payment:mastercard":"yes","payment:union_pay":"yes","payment:visa":"yes","phone":"+1-425-644-6800","website":"https://www.greekexpressbellevue.com/","wheelchair":"yes"}},{"type":"node","id":2594496496,"lat":47.6091581,"lon":-122.1427054},{"type":"node","id":2594496512,"lat":47.6090197,"lon":-122.1426223},{"type":"node","id":2718051739,"lat":47.6082874,"lon":-122.142531,"tags":{"addr:city":"Bellevue","addr:housenumber":"15015","addr:postcode":"98007","addr:state":"WA","addr:street":"Main Street","addr:unit":"101","amenity":"bank","atm":"yes","brand":"Wells Fargo","brand:wikidata":"Q744149","check_date":"2023-11-28","contact:phone":"+1-425-256-7904","contact:website":"wellsfargo.com","drive_through":"no","name":"Wells Fargo","opening_hours":"Mo-Fr 09:00-17:00","wheelchair":"yes"}},{"type":"node","id":2718051740,"lat":47.6095793,"lon":-122.141611,"tags":{"addr:city":"Bellevue","addr:housenumber":"14855","addr:postcode":"98007","addr:street":"Main Street","brand":"Crumbl Cookies","brand:wikidata":"Q106924414","check_date":"2024-01-16","name":"Crumbl Cookies","shop":"pastry","short_name":"Crumbl","website":"https://crumblcookies.com","wheelchair":"yes"}},{"type":"node","id":2737502223,"lat":47.608287,"lon":-122.142419,"tags":{"check_date":"2023-11-28","check_date:opening_hours":"2023-06-25","name":"Shoes n Feet","opening_hours":"Mo-Fr 10:00-18:00; Sa 10:00-17:00; Su off","shop":"shoes","wheelchair":"limited"}},{"type":"node","id":2737502225,"lat":47.6082861,"lon":-122.142195,"tags":{"amenity":"dentist","check_date":"2024-01-21","healthcare":"dentist","name":"Prime Dental","opening_hours":"Mo,We,Th 09:00-18:00; Sa 08:00-16:00; Tu,Fr,Su off","wheelchair":"yes"}},{"type":"node","id":2737502226,"lat":47.6082856,"lon":-122.142083,"tags":{"check_date":"2023-11-28","healthcare":"alternative","healthcare:speciality":"chiropractic","name":"Pure Chiropractic"}},{"type":"node","id":2737502227,"lat":47.6082852,"lon":-122.141971,"tags":{"amenity":"restaurant","check_date":"2024-05-14","cuisine":"chinese","name":"Szechuan Chef","opening_hours":"Su-Th 11:00-21:00; Fr,Sa 11:00-21:30","wheelchair":"yes"}},{"type":"node","id":2737502228,"lat":47.6082843,"lon":-122.141747,"tags":{"addr:city":"Bellevue","addr:housenumber":"15015","addr:postcode":"98007","addr:state":"WA","addr:street":"Main Street","addr:unit":"10","addr:unitnumber":"10","check_date":"2024-05-14","name":"International Deli","opening_hours":"Mo-Fr 10:00-19:00; Su off; Sa 10:00-17:00","payment:cash":"yes","payment:credit_cards":"yes","shop":"deli","wheelchair":"limited"}},{"type":"node","id":2737502230,"lat":47.608283,"lon":-122.141411,"tags":{"addr:housenumber":"15015","addr:street":"Main Street","addr:unit":"112","check_date":"2024-01-21","name":"Fabri Fine Jewelry","opening_hours":"Mo-Fr 10:00-18:00; Sa 10:00-17:00; Su off","shop":"jewelry","website":"https://fabrifinejewelry.com","wheelchair":"yes"}},{"type":"node","id":2737502231,"lat":47.6082839,"lon":-122.141635,"tags":{"brand":"Great Clips","brand:wikidata":"Q5598967","check_date":"2024-03-08","female":"yes","male":"yes","name":"Great Clips","opening_hours":"Mo-Fr 09:00-20:00; Sa 09:00-19:00; Su 10:00-18:00","shop":"hairdresser","wheelchair":"yes"}},{"type":"node","id":3293418182,"lat":47.6082804,"lon":-122.1407477,"tags":{"brand":"AutoZone","brand:wikidata":"Q4826087","check_date":"2024-01-22","name":"AutoZone","opening_hours":"Mo-Sa 08:00-21:00; Su 08:30-20:00","shop":"car_parts","website":"https://www.autozone.com/locations/wa/bellevue/15015-main-st.html","wheelchair":"yes"}},{"type":"node","id":3293418184,"lat":47.6082812,"lon":-122.140963,"tags":{"addr:housenumber":"15015","addr:street":"Main Street","addr:unit":"116","check_date":"2024-03-08","check_date:opening_hours":"2023-06-25","name":"Levue Nails & Spa","opening_hours":"Mo-Fr 09:30-19:00; Sa 09:30-18:00; Su 10:00-17:00","shop":"beauty","website":"https://levuenails.com","wheelchair":"yes"}},{"type":"node","id":3293418185,"lat":47.6082834,"lon":-122.141523,"tags":{"brand":"H&R Block","brand:wikidata":"Q5627799","check_date":"2024-05-14","name":"H&R Block","office":"tax_advisor","opening_hours":"Mo 10:00-14:00; Tu 14:00-18:00; Th 11:00-16:00; Sa 10:00-15:00; We,Fr,Su off","wheelchair":"yes"}},{"type":"node","id":3293418186,"lat":47.6082848,"lon":-122.141859,"tags":{"check_date":"2024-05-14","healthcare":"alternative","name":"Annemarie Aesthetics","opening_hours":"Mo 10:00-14:00; Tu 10:00-19:00; We 10:00-17:00; Th,Fr 10:00-18:00; Sa 10:00-15:00; Su off","website":"https://www.annemarieaesthetics.com","wheelchair":"yes"}},{"type":"node","id":3326230223,"lat":47.6090112,"lon":-122.1426224},{"type":"node","id":3326230224,"lat":47.6090117,"lon":-122.1427165},{"type":"node","id":3326230225,"lat":47.6090191,"lon":-122.1425085},{"type":"node","id":3326230238,"lat":47.6091571,"lon":-122.142507},{"type":"node","id":4368513964,"lat":47.609787,"lon":-122.141891,"tags":{"bench":"no","bin":"yes","bus":"yes","gtfs:feed":"US-WA-KCM","gtfs:stop_id":"70835","highway":"bus_stop","lit":"yes","name":"Main St & 148th Ave SE","network":"King County Metro","network:short":"KCM","network:wikidata":"Q6411393","operator":"King County Metro","operator:short":"KCM","operator:wikidata":"Q6411393","operator:wikipedia":"en:King County Metro","public_transport":"platform","ref":"70835","route_ref":"245","shelter":"no","tactile_paving":"no","wheelchair":"yes"}},{"type":"node","id":4584388049,"lat":47.6135102,"lon":-122.1324779,"tags":{"bench":"no","bin":"no","bus":"yes","gtfs:feed":"US-WA-KCM","gtfs:stop_id":"68460","highway":"bus_stop","name":"156th Ave NE & NE 4th St","network":"King County Metro","network:short":"KCM","network:wikidata":"Q6411393","operator":"King County Metro","operator:short":"KCM","operator:wikidata":"Q6411393","operator:wikipedia":"en:King County Metro","public_transport":"platform","ref":"68460","route_ref":"223;226;245","shelter":"no","wheelchair":"yes"}},{"type":"node","id":4720930302,"lat":47.6059235,"lon":-122.1400695,"tags":{"amenity":"bench","backrest":"yes","material":"wood"}},{"type":"node","id":4728748532,"lat":47.6054475,"lon":-122.1422299,"tags":{"amenity":"bench","backrest":"yes","material":"wood"}},{"type":"node","id":4728748533,"lat":47.6056522,"lon":-122.1382769,"tags":{"amenity":"bench"}},{"type":"node","id":4757440666,"lat":47.6093471,"lon":-122.1436658},{"type":"node","id":4757440667,"lat":47.609344,"lon":-122.1433578},{"type":"node","id":4757440668,"lat":47.6092845,"lon":-122.1433592},{"type":"node","id":4757440669,"lat":47.6092848,"lon":-122.1433942},{"type":"node","id":4757440670,"lat":47.6092691,"lon":-122.1433945},{"type":"node","id":4757440671,"lat":47.6092697,"lon":-122.1434487},{"type":"node","id":4757440672,"lat":47.6092143,"lon":-122.1434499},{"type":"node","id":4757440673,"lat":47.6092166,"lon":-122.1436688},{"type":"node","id":6217838722,"lat":47.6096904,"lon":-122.1424851,"tags":{"addr:city":"Bellevue","addr:housenumber":"40","addr:postcode":"98007","addr:state":"WA","addr:street":"148th Avenue Southeast","amenity":"bank","check_date":"2024-01-16","name":"Sound Credit Union","opening_hours":"Mo-Fr 09:00-18:00; Sa 09:00-13:00; Su off","wheelchair":"yes"}},{"type":"node","id":6217838723,"lat":47.6094552,"lon":-122.1426439,"tags":{"addr:city":"Bellevue","addr:housenumber":"70","addr:postcode":"98007","addr:state":"WA","addr:street":"148th Avenue Southeast","brand":"The Joint Chiropractic","brand:wikidata":"Q108611980","check_date":"2023-11-28","contact:phone":"+1-425-276-7596","contact:website":"thejoint.com","healthcare":"alternative","healthcare:speciality":"chiropractic","name":"The Joint Chiropractic","opening_hours":"Mo-Fr 10:00-14:00,14:45-19:00; Sa 10:00-14:00,14:45-16:00; Su off","website":"https://www.thejoint.com/washington/bellevue/bellevue-kelsey-creek-42007"}},{"type":"node","id":6418581888,"lat":47.6107107,"lon":-122.1536667,"tags":{"amenity":"bench","backrest":"yes","material":"metal"}},{"type":"node","id":6898831360,"lat":47.6097679,"lon":-122.137161,"tags":{"bench":"no","bin":"no","bus":"yes","gtfs:feed":"US-WA-KCM","gtfs:stop_id":"70837","highway":"bus_stop","name":"Main St & 152nd Pl SE","network":"King County Metro","network:short":"KCM","network:wikidata":"Q6411393","operator":"King County Metro","operator:short":"KCM","operator:wikidata":"Q6411393","operator:wikipedia":"en:King County Metro","public_transport":"platform","ref":"70837","route_ref":"245","shelter":"no","wheelchair":"yes"}},{"type":"node","id":6898831361,"lat":47.6085434,"lon":-122.1533853,"tags":{"bench":"yes","bin":"no","bus":"yes","gtfs:feed":"US-WA-KCM","gtfs:stop_id":"70832","highway":"bus_stop","lit":"no","name":"140th Ave SE & SE 1st St","network":"King County Metro","network:short":"KCM","network:wikidata":"Q6411393","network:wikipedia":"en:King County Metro","operator":"King County Metro","operator:short":"KCM","operator:wikidata":"Q6411393","operator:wikipedia":"en:King County Metro","public_transport":"platform","ref":"70832","route_ref":"245","shelter":"yes","tactile_paving":"no","wheelchair":"yes"}},{"type":"node","id":6898831364,"lat":47.6086993,"lon":-122.1536404,"tags":{"bench":"yes","bin":"no","bus":"yes","gtfs:feed":"US-WA-KCM","gtfs:stop_id":"70802","highway":"bus_stop","name":"140th Ave SE & SE 1st St","network":"King County Metro","network:short":"KCM","network:wikidata":"Q6411393","network:wikipedia":"en:King County Metro","operator":"King County Metro","operator:short":"KCM","operator:wikidata":"Q6411393","operator:wikipedia":"en:King County Metro","public_transport":"platform","ref":"70802","route_ref":"245","shelter":"yes","wheelchair":"yes"}},{"type":"node","id":6898831365,"lat":47.6050293,"lon":-122.1535697,"tags":{"bench":"no","bin":"no","bus":"yes","gtfs:feed":"US-WA-KCM","gtfs:stop_id":"70806","highway":"bus_stop","lit":"yes","name":"140th Ave SE & SE 5th St","network":"King County Metro","network:short":"KCM","network:wikidata":"Q6411393","operator":"King County Metro","operator:short":"KCM","operator:wikidata":"Q6411393","operator:wikipedia":"en:King County Metro","public_transport":"platform","ref":"70806","route_ref":"245","shelter":"no","tactile_paving":"no","wheelchair":"yes"}},{"type":"node","id":6898831366,"lat":47.6099107,"lon":-122.1372638,"tags":{"bench":"no","bin":"no","bus":"yes","gtfs:feed":"US-WA-KCM","gtfs:stop_id":"68472","highway":"bus_stop","name":"Main St & 152nd Pl SE","network":"King County Metro","network:short":"KCM","network:wikidata":"Q6411393","operator":"King County Metro","operator:short":"KCM","operator:wikidata":"Q6411393","operator:wikipedia":"en:King County Metro","public_transport":"platform","ref":"68472","route_ref":"245","shelter":"no","wheelchair":"yes"}},{"type":"node","id":6898831367,"lat":47.6099281,"lon":-122.144188,"tags":{"bench":"yes","bin":"yes","bus":"yes","gtfs:feed":"US-WA-KCM","gtfs:stop_id":"68474","highway":"bus_stop","lit":"no","name":"Main St & 148th Ave NE","network":"King County Metro","network:short":"KCM","network:wikidata":"Q6411393","operator":"King County Metro","operator:short":"KCM","operator:wikidata":"Q6411393","operator:wikipedia":"en:King County Metro","public_transport":"platform","ref":"68474","route_ref":"245","shelter":"yes","tactile_paving":"no","wheelchair":"yes"}},{"type":"node","id":6898831368,"lat":47.6098862,"lon":-122.133118,"tags":{"bus":"yes","gtfs:feed":"US-WA-KCM","gtfs:stop_id":"68471","highway":"bus_stop","name":"Main St & 155th Ave NE","network":"King County Metro","network:short":"KCM","network:wikidata":"Q6411393","operator":"King County Metro","operator:short":"KCM","operator:wikidata":"Q6411393","operator:wikipedia":"en:King County Metro","public_transport":"platform","ref":"68471","route_ref":"245","wheelchair":"yes"}},{"type":"node","id":7071595157,"lat":47.6059068,"lon":-122.140746,"tags":{"amenity":"bench","backrest":"yes","direction":"170","material":"wood"}},{"type":"node","id":9642290909,"lat":47.607924,"lon":-122.1532733,"tags":{"barrier":"kerb","kerb":"lowered","tactile_paving":"yes","wheelchair":"yes"}},{"type":"node","id":9642290910,"lat":47.6079251,"lon":-122.1531658,"tags":{"barrier":"kerb","kerb":"lowered","tactile_paving":"yes","wheelchair":"yes"}},{"type":"node","id":9642290914,"lat":47.6079274,"lon":-122.1529427,"tags":{"barrier":"kerb","kerb":"lowered","tactile_paving":"yes","wheelchair":"yes"}},{"type":"node","id":9642290915,"lat":47.6079286,"lon":-122.1528292,"tags":{"barrier":"kerb","kerb":"lowered","tactile_paving":"yes","wheelchair":"yes"}},{"type":"node","id":9642353918,"lat":47.6084938,"lon":-122.1529478,"tags":{"barrier":"kerb","kerb":"lowered","tactile_paving":"no","wheelchair":"yes"}},{"type":"node","id":9642353926,"lat":47.6084936,"lon":-122.1528303,"tags":{"barrier":"kerb","kerb":"lowered","tactile_paving":"no","wheelchair":"yes"}},{"type":"node","id":9642353930,"lat":47.6089209,"lon":-122.1528332,"tags":{"barrier":"kerb","kerb":"lowered","tactile_paving":"no","wheelchair":"yes"}},{"type":"node","id":9642353931,"lat":47.608922,"lon":-122.1529534,"tags":{"barrier":"kerb","kerb":"lowered","tactile_paving":"no","wheelchair":"yes"}},{"type":"node","id":9650810206,"lat":47.6097253,"lon":-122.1401381,"tags":{"amenity":"bench","backrest":"yes"}},{"type":"node","id":9650810207,"lat":47.609714,"lon":-122.1400864,"tags":{"amenity":"bench","backrest":"yes"}},{"type":"node","id":9650810208,"lat":47.6097136,"lon":-122.1400442,"tags":{"amenity":"bench","backrest":"yes"}},{"type":"node","id":9650831067,"lat":47.6090764,"lon":-122.1427157},{"type":"node","id":9650831068,"lat":47.6090763,"lon":-122.1427064},{"type":"node","id":9650831069,"lat":47.6091414,"lon":-122.1425072},{"type":"node","id":9650831070,"lat":47.6091114,"lon":-122.1425074},{"type":"node","id":9650831071,"lat":47.6091413,"lon":-122.1424887},{"type":"node","id":9650831072,"lat":47.6091113,"lon":-122.1424891},{"type":"node","id":9652096696,"lat":47.6090195,"lon":-122.1425787,"tags":{"entrance":"main"}},{"type":"node","id":9652096697,"lat":47.6090995,"lon":-122.1427057,"tags":{"entrance":"yes"}},{"type":"node","id":9652096699,"lat":47.6091575,"lon":-122.142596,"tags":{"entrance":"yes"}},{"type":"node","id":9652096714,"lat":47.6097443,"lon":-122.1414873,"tags":{"amenity":"bench","backrest":"yes"}},{"type":"node","id":9652096715,"lat":47.6097443,"lon":-122.1415376,"tags":{"amenity":"bench","backrest":"yes"}},{"type":"node","id":9652096716,"lat":47.609746,"lon":-122.1418037,"tags":{"amenity":"bench","backrest":"yes"}},{"type":"node","id":9652135129,"lat":47.6102414,"lon":-122.1434588,"tags":{"entrance":"main"}},{"type":"node","id":9652135135,"lat":47.6101249,"lon":-122.1435067,"tags":{"entrance":"main"}},{"type":"node","id":9652144428,"lat":47.6092684,"lon":-122.143378,"tags":{"amenity":"bench"}},{"type":"node","id":9652144430,"lat":47.6092575,"lon":-122.143449,"tags":{"entrance":"main"}},{"type":"node","id":9652144477,"lat":47.6084677,"lon":-122.1433408,"tags":{"amenity":"dentist","healthcare":"dentist"}},{"type":"node","id":9652157717,"lat":47.6097463,"lon":-122.1418525,"tags":{"amenity":"bench","backrest":"yes"}},{"type":"node","id":9681875060,"lat":47.613933,"lon":-122.153445,"tags":{"amenity":"bench","backrest":"yes","material":"metal"}},{"type":"node","id":9681875061,"lat":47.6139831,"lon":-122.1537299,"tags":{"amenity":"bench","backrest":"yes","material":"metal"}},{"type":"node","id":12117096079,"lat":47.6099205,"lon":-122.140388,"tags":{"bench":"no","bin":"no","bus":"yes","gtfs:feed":"US-WA-KCM","gtfs:stop_id":"68476","highway":"bus_stop","lit":"no","name":"Main St & 150th Ave NE","network":"King County Metro","network:short":"KCM","network:wikidata":"Q6411393","operator":"King County Metro","operator:short":"KCM","operator:wikidata":"Q6411393","operator:wikipedia":"en:King County Metro","public_transport":"platform","ref":"68476","route_ref":"245","shelter":"no","tactile_paving":"no","wheelchair":"yes"}},{"type":"node","id":12117096080,"lat":47.6099701,"lon":-122.148842,"tags":{"bench":"yes","bin":"no","bus":"yes","gtfs:feed":"US-WA-KCM","gtfs:stop_id":"68475","highway":"bus_stop","lit":"yes","name":"Main St & 143rd Ave SE","network":"King County Metro","network:short":"KCM","network:wikidata":"Q6411393","operator":"King County Metro","operator:short":"KCM","operator:wikidata":"Q6411393","operator:wikipedia":"en:King County Metro","public_transport":"platform","ref":"68475","route_ref":"245","shelter":"no","tactile_paving":"no","wheelchair":"yes"}},{"type":"node","id":12117096081,"lat":47.6098289,"lon":-122.148094,"tags":{"bench":"no","bin":"no","bus":"yes","gtfs:feed":"US-WA-KCM","gtfs:stop_id":"68473","highway":"bus_stop","lit":"no","name":"Main St & 143rd Ave SE","network":"King County Metro","network:short":"KCM","network:wikidata":"Q6411393","operator":"King County Metro","operator:short":"KCM","operator:wikidata":"Q6411393","operator:wikipedia":"en:King County Metro","public_transport":"platform","ref":"68473","route_ref":"245","shelter":"no","tactile_paving":"no","wheelchair":"yes"}},{"type":"way","id":71070179,"nodes":[846500252,846500244,9652135135,846500264,846500236,846500252],"tags":{"addr:city":"Bellevue","addr:housenumber":"15","addr:postcode":"98007-4942","addr:state":"WA","addr:street":"148th Avenue Northeast","atm":"yes","brand":"7-Eleven","brand:wikidata":"Q259340","building":"retail","building:levels":"1","check_date":"2023-11-28","delivery":"yes","fast_food":"yes","fuel:propane":"yes","name":"7-Eleven","opening_hours":"24/7","phone":"+1-425-746-7564","ref":"17355","roof:levels":"0","shop":"convenience","website":"https://www.7-eleven.com/locations/wa/bellevue/15-148th-ave-ne-17355","wheelchair":"yes"}},{"type":"way","id":71070185,"nodes":[846500247,846500275,846500250,9652135129,846500246,846500247],"tags":{"addr:city":"Bellevue","addr:housenumber":"19","addr:postcode":"98007","addr:street":"148th Avenue Northeast","amenity":"restaurant","building":"yes","check_date":"2024-06-18","cuisine":"chinese","diet:vegetarian":"yes","indoor_seating":"yes","name":"Best Wok","opening_hours":"Mo-Th 11:30-21:45; Fr,Sa 11:30-22:45; Su 12:00-21:45","outdoor_seating":"no","wheelchair":"yes"}},{"type":"way","id":204085285,"nodes":[2141021800,2141021827,2141021805,2141021817,2141021800],"tags":{"amenity":"toilets","building":"yes"}},{"type":"way","id":253529778,"nodes":[2594496496,9652096699,3326230238,9650831069,9650831071,9650831072,9650831070,3326230225,9652096696,2594496512,3326230223,3326230224,9650831067,9650831068,9652096697,2594496496],"tags":{"addr:city":"Bellevue","addr:housenumber":"180","addr:postcode":"98007","addr:state":"WA","addr:street":"148th Avenue Southeast","amenity":"cafe","branch":"Kelsey Creek - Bellevue","brand":"Starbucks","brand:wikidata":"Q37158","building":"yes","check_date":"2023-11-28","cuisine":"coffee_shop","diet:vegetarian":"yes","drive_through":"yes","indoor_seating":"yes","name":"Starbucks","official_name":"Starbucks Coffee","opening_hours":"Mo-Fr 05:00-21:00; Sa,Su 05:00-20:00","outdoor_seating":"yes","phone":"+1-425-378-9496","ref":"1005401","takeaway":"yes","website":"https://www.starbucks.com/store-locator/store/1005401/kelsey-creek-bellevue-180-148th-ave-se-bellevue-wa-980075174-us","wheelchair":"yes"}},{"type":"way","id":482979420,"nodes":[4757440666,4757440667,4757440668,4757440669,4757440670,4757440671,9652144430,4757440672,4757440673,4757440666],"tags":{"addr:housenumber":"17","addr:state":"WA","addr:street":"148th Avenue Southeast","addr:unit":"2","building":"yes","healthcare":"optometrist","name":"Lake Hills Eye Clinic","phone":"+1-425-644-6478","website":"http://www.lakehillseye.com/index.html"}}]}