{"version":0.6,"generator":"Overpass API 0.7.61.8 b1080abd","osm3s":{"timestamp_osm_base":"2026-02-26T05:58:27Z","copyright":"The data included in this document is from www.openstreetmap.org. The data is made available under ODbL."},"elements":[{"type":"node","id":356539695,"lat":47.5872757,"lon":-122.1509288},{"type":"node","id":364330094,"lat":47.6086768,"lon":-122.185335,"tags":{"amenity":"bench","bench":"yes","bus":"yes","gtfs:feed":"US-WA-KCM","gtfs:stop_id":"80570","highway":"bus_stop","name":"116th Ave SE & SE 1st St","network":"King County Metro","network:short":"KCM","network:wikidata":"Q6411393","operator":"King County Metro","operator:short":"KCM","operator:wikidata":"Q6411393","operator:wikipedia":"en:King County Metro","public_transport":"platform","ref":"80570","route_ref":"271","shelter":"yes","wheelchair":"yes"}},{"type":"node","id":394381488,"lat":47.6103949,"lon":-122.19071,"tags":{"bus":"yes","gtfs:feed":"US-WA-KCM","gtfs:stop_id":"82741","highway":"bus_stop","name":"112th Ave NE & Main St","network":"King County Metro","network:short":"KCM","network:wikidata":"Q6411393","operator":"King County Metro","operator:short":"KCM","operator:wikidata":"Q6411393","operator:wikipedia":"en:King County Metro","public_transport":"platform","ref":"82741","route_ref":"240","wheelchair":"yes"}},{"type":"node","id":582367250,"lat":47.6027587,"lon":-122.1852226,"tags":{"amenity":"bench","bench":"yes","bin":"yes","bus":"yes","gtfs:feed":"US-WA-KCM","gtfs:stop_id":"70812","highway":"bus_stop","name":"SE 8th St & I-405","network":"King County Metro","network:short":"KCM","network:wikidata":"Q6411393","operator":"King County Metro","operator:short":"KCM","operator:wikidata":"Q6411393","operator:wikipedia":"en:King County Metro","public_transport":"platform","ref":"70812","route_ref":"240;246","shelter":"yes","wheelchair":"yes"}},{"type":"node","id":582367252,"lat":47.6035066,"lon":-122.1850054,"tags":{"gtfs:feed":"US-WA-KCM","gtfs:stop_id":"82718","highway":"bus_stop","name":"I-405 & SE 8th St","network":"King County Metro","network:short":"KCM","network:wikidata":"Q6411393","operator":"King County Metro","operator:short":"KCM","operator:wikidata":"Q6411393","operator:wikipedia":"en:King County Metro","ref":"82718","route_ref":"981","wheelchair":"yes"}},{"type":"node","id":602752072,"lat":47.6045585,"lon":-122.1648932},{"type":"node","id":602752073,"lat":47.6045603,"lon":-122.1647349},{"type":"node","id":602752074,"lat":47.6045187,"lon":-122.1647322},{"type":"node","id":602752075,"lat":47.6045169,"lon":-122.1648905},{"type":"node","id":602752176,"lat":47.6028464,"lon":-122.1665298,"tags":{"amenity":"bench"}},{"type":"node","id":656440930,"lat":47.6093238,"lon":-122.1738486},{"type":"node","id":656440933,"lat":47.6092653,"lon":-122.1737412},{"type":"node","id":656440935,"lat":47.6093909,"lon":-122.1735906},{"type":"node","id":656440939,"lat":47.6094494,"lon":-122.173698},{"type":"node","id":697212625,"lat":47.6099354,"lon":-122.1934449},{"type":"node","id":697212626,"lat":47.6098205,"lon":-122.193442},{"type":"node","id":697212627,"lat":47.609823,"lon":-122.193228},{"type":"node","id":697212628,"lat":47.6099456,"lon":-122.1932311},{"type":"node","id":699877324,"lat":47.5891018,"lon":-122.1537083},{"type":"node","id":699877327,"lat":47.5890331,"lon":-122.1473837},{"type":"node","id":699877330,"lat":47.5889752,"lon":-122.1454793},{"type":"node","id":699877334,"lat":47.5876354,"lon":-122.1445921},{"type":"node","id":699877340,"lat":47.5863163,"lon":-122.1473644},{"type":"node","id":699877347,"lat":47.5854904,"lon":-122.1454978},{"type":"node","id":699877357,"lat":47.5854946,"lon":-122.1429741},{"type":"node","id":699877364,"lat":47.5847528,"lon":-122.1429848},{"type":"node","id":699877369,"lat":47.5838301,"lon":-122.1431565},{"type":"node","id":699877376,"lat":47.5826071,"lon":-122.1432048},{"type":"node","id":699877381,"lat":47.5818183,"lon":-122.1429557},{"type":"node","id":699877396,"lat":47.5872928,"lon":-122.153762},{"type":"node","id":805296467,"lat":47.6025429,"lon":-122.1374227,"tags":{"amenity":"drinking_water","check_date":"2021-12-29"}},{"type":"node","id":805296498,"lat":47.5986141,"lon":-122.1329459,"tags":{"amenity":"bench"}},{"type":"node","id":805296883,"lat":47.5998505,"lon":-122.1352721,"tags":{"amenity":"bench"}},{"type":"node","id":805296981,"lat":47.6032016,"lon":-122.1423686,"tags":{"access":"yes","amenity":"toilets","fee":"no","female":"yes","male":"no","toilets:disposal":"flush","wheelchair":"yes"}},{"type":"node","id":805297447,"lat":47.5963949,"lon":-122.1321297,"tags":{"amenity":"bench"}},{"type":"node","id":805297646,"lat":47.6058297,"lon":-122.1414154,"tags":{"amenity":"bench","backrest":"yes","direction":"170","material":"wood"}},{"type":"node","id":846500236,"lat":47.6101965,"lon":-122.1436686},{"type":"node","id":846500244,"lat":47.6100298,"lon":-122.1435076},{"type":"node","id":846500246,"lat":47.6103678,"lon":-122.1434631},{"type":"node","id":846500247,"lat":47.6103649,"lon":-122.1436979},{"type":"node","id":846500250,"lat":47.6102337,"lon":-122.1434586},{"type":"node","id":846500252,"lat":47.6100305,"lon":-122.1436702},{"type":"node","id":846500264,"lat":47.6101958,"lon":-122.143506},{"type":"node","id":846500275,"lat":47.6102314,"lon":-122.1436941},{"type":"node","id":1721508580,"lat":47.5887017,"lon":-122.1382966},{"type":"node","id":1721508594,"lat":47.587807,"lon":-122.1378266},{"type":"node","id":1721508599,"lat":47.5882965,"lon":-122.138318},{"type":"node","id":1721508603,"lat":47.5886909,"lon":-122.1374664},{"type":"node","id":1721508621,"lat":47.5883679,"lon":-122.1381477},{"type":"node","id":1721508626,"lat":47.5872605,"lon":-122.1377696},{"type":"node","id":1721508640,"lat":47.5902011,"lon":-122.1399993},{"type":"node","id":1721508643,"lat":47.5879519,"lon":-122.1383274},{"type":"node","id":1721508648,"lat":47.5877594,"lon":-122.1379477},{"type":"node","id":1721508671,"lat":47.5883707,"lon":-122.1383113},{"type":"node","id":1721508694,"lat":47.5872719,"lon":-122.1378726},{"type":"node","id":1721508696,"lat":47.5877796,"lon":-122.1376585},{"type":"node","id":1721508704,"lat":47.5873803,"lon":-122.1379989},{"type":"node","id":1721508707,"lat":47.5883652,"lon":-122.1374731},{"type":"node","id":1721508711,"lat":47.5873162,"lon":-122.1379592},{"type":"node","id":1721508713,"lat":47.5882965,"lon":-122.138149},{"type":"node","id":1721508723,"lat":47.5879419,"lon":-122.1374785},{"type":"node","id":1721508724,"lat":47.5874461,"lon":-122.137583},{"type":"node","id":1721508740,"lat":47.5873732,"lon":-122.1375798},{"type":"node","id":1721508742,"lat":47.5902699,"lon":-122.1398905},{"type":"node","id":1721508745,"lat":47.5878059,"lon":-122.1377363},{"type":"node","id":1721508746,"lat":47.5872763,"lon":-122.1376757},{"type":"node","id":1721508767,"lat":47.5877894,"lon":-122.1378959},{"type":"node","id":1721508768,"lat":47.587707,"lon":-122.1375923},{"type":"node","id":1721515839,"lat":47.5872615,"lon":-122.141887},{"type":"node","id":1721515849,"lat":47.5877833,"lon":-122.1422823},{"type":"node","id":1721515851,"lat":47.587724,"lon":-122.1424306},{"type":"node","id":1721515855,"lat":47.5873987,"lon":-122.1416508},{"type":"node","id":1721515885,"lat":47.5872485,"lon":-122.1423766},{"type":"node","id":1721515902,"lat":47.5877941,"lon":-122.1419705},{"type":"node","id":1721515912,"lat":47.5875069,"lon":-122.1424534},{"type":"node","id":1721515962,"lat":47.5875413,"lon":-122.1416596},{"type":"node","id":1721515971,"lat":47.5877147,"lon":-122.1422924},{"type":"node","id":1721537670,"lat":47.5890968,"lon":-122.1915932,"tags":{"amenity":"toilets"}},{"type":"node","id":1842012049,"lat":47.593374,"lon":-122.1831123,"tags":{"access":"yes","amenity":"toilets","toilets:disposal":"flush","unisex":"yes","wheelchair":"yes"}},{"type":"node","id":1842012087,"lat":47.5958626,"lon":-122.1833568,"tags":{"amenity":"toilets"}},{"type":"node","id":1886175225,"lat":47.5933178,"lon":-122.1883226,"tags":{"amenity":"bench","backrest":"yes"}},{"type":"node","id":1954268031,"lat":47.6069393,"lon":-122.183901,"tags":{"entrance":"main"}},{"type":"node","id":1954268060,"lat":47.6071287,"lon":-122.1837019},{"type":"node","id":1954268105,"lat":47.607944,"lon":-122.183823,"tags":{"amenity":"bench"}},{"type":"node","id":1954268124,"lat":47.6071226,"lon":-122.1837312},{"type":"node","id":1954268139,"lat":47.6072048,"lon":-122.1839287},{"type":"node","id":1954268142,"lat":47.6069391,"lon":-122.1839251},{"type":"node","id":1954268144,"lat":47.6069403,"lon":-122.1837335},{"type":"node","id":1954268145,"lat":47.6072061,"lon":-122.1837372},{"type":"node","id":1954303666,"lat":47.6092,"lon":-122.179138,"tags":{"amenity":"bench","backrest":"no","check_date":"2021-08-01","fixme":"Verify existence"}},{"type":"node","id":1954303685,"lat":47.6092266,"lon":-122.1797169,"tags":{"amenity":"bench","backrest":"yes","inscription":"Christine Cooley"}},{"type":"node","id":1954303686,"lat":47.6090708,"lon":-122.1796935,"tags":{"amenity":"bench","inscription":"Mary and Keith Knight Bench"}},{"type":"node","id":2141021800,"lat":47.6094161,"lon":-122.1509819},{"type":"node","id":2141021805,"lat":47.6095654,"lon":-122.15092},{"type":"node","id":2141021817,"lat":47.6094834,"lon":-122.1510654},{"type":"node","id":2141021827,"lat":47.6094982,"lon":-122.1508365},{"type":"node","id":2266532672,"lat":47.5965377,"lon":-122.1704071,"tags":{"amenity":"bench","backrest":"yes","check_date":"2024-04-08","material":"wood","seats":"3"}},{"type":"node","id":2266532673,"lat":47.5973955,"lon":-122.1707424,"tags":{"amenity":"bench","backrest":"no","material":"wood","seats":"3"}},{"type":"node","id":2266606264,"lat":47.587727,"lon":-122.1379824,"tags":{"barrier":"gate"}},{"type":"node","id":2392134330,"lat":47.6082826,"lon":-122.141299,"tags":{"addr:city":"Bellevue","addr:housenumber":"15015","addr:postcode":"98007","addr:state":"WA","addr:street":"Main Street","addr:unit":"113","amenity":"fast_food","brand":"Subway","brand:wikidata":"Q244457","check_date":"2024-01-21","cuisine":"sandwich","indoor_seating":"yes","name":"Subway","opening_hours":"Mo-Su 10:00-22:00","outdoor_seating":"no","phone":"+1-425-641-7629","takeaway":"yes","website":"https://restaurants.subway.com/united-states/wa/bellevue/15015-main-st","wheelchair":"no"}},{"type":"node","id":2437404630,"lat":47.5902538,"lon":-122.1400725},{"type":"node","id":2437404634,"lat":47.5903226,"lon":-122.1399637},{"type":"node","id":2449984887,"lat":47.5877911,"lon":-122.1383586,"tags":{"entrance":"yes","female":"no","male":"yes"}},{"type":"node","id":2449984888,"lat":47.5878055,"lon":-122.1384355},{"type":"node","id":2449984889,"lat":47.5878295,"lon":-122.1383375},{"type":"node","id":2449984890,"lat":47.5878455,"lon":-122.1384164},{"type":"node","id":2594496470,"lat":47.6095553,"lon":-122.1414222,"tags":{"addr:city":"Bellevue","addr:housenumber":"14875","addr:postcode":"98007","addr:state":"WA","addr:street":"Main Street","amenity":"fast_food","branch":"Bellevue Main St","brand":"Wingstop","brand:wikidata":"Q8025339","check_date":"2023-11-28","cuisine":"wings","name":"Wingstop","opening_hours":"Mo-Su 11:00-22:45","payment:american_express":"yes","payment:apple_pay":"yes","payment:diners_club":"yes","payment:discover_card":"yes","payment:jcb":"yes","payment:mastercard":"yes","payment:union_pay":"yes","payment:visa":"yes","phone":"+1-425-974-1142","takeaway":"yes","website":"https://www.wingstop.com/","wheelchair":"yes"}},{"type":"node","id":2594496478,"lat":47.609579,"lon":-122.1415217,"tags":{"addr:city":"Bellevue","addr:housenumber":"14865","addr:postcode":"98007","addr:street":"Main Street","amenity":"ice_cream","brand":"Menchie's","brand:wikidata":"Q6816528","check_date":"2024-01-16","cuisine":"frozen_yogurt","name":"Menchie's","opening_hours":"Su-Th 13:00-20:30; Fr,Sa 13:00-21:30","phone":"+1-425-644-3035","website":"https://www.menchies.com/","wheelchair":"yes"}},{"type":"node","id":2594496483,"lat":47.6095795,"lon":-122.1417079,"tags":{"addr:city":"Bellevue","addr:housenumber":"14845","addr:postcode":"98007","addr:street":"Main Street","amenity":"restaurant","check_date":"2024-01-16","cuisine":"japanese","email":"bellevue@kuzuki.com","name":"Kizuki Ramen & Izakaya - Bellevue","opening_hours":"Mo-Th 11:00-21:30; Fr,Sa 11:00-22:00; Su 11:00-21:30","phone":"+1-425-243-7527","website":"http://kuzuki.com","wheelchair":"yes"}},{"type":"node","id":2594496486,"lat":47.6095798,"lon":-122.1418004,"tags":{"addr:city":"Bellevue","addr:housenumber":"14835","addr:postcode":"98007","addr:street":"Main Street","amenity":"restaurant","check_date":"2023-11-28","cuisine":"greek","name":"Greek Express","payment:discover_card":"yes","payment:google_pay":"yes","payment:mastercard":"yes","payment:union_pay":"yes","payment:visa":"yes","phone":"+1-425-644-6800","website":"https://www.greekexpressbellevue.com/","wheelchair":"yes"}},{"type":"node","id":2594496496,"lat":47.6091581,"lon":-122.1427054},{"type":"node","id":2594496512,"lat":47.6090197,"lon":-122.1426223},{"type":"node","id":2615880718,"lat":47.5871533,"lon":-122.1555804,"tags":{"amenity":"drinking_water"}},{"type":"node","id":2621740971,"lat":47.5866247,"lon":-122.155686},{"type":"node","id":2621742313,"lat":47.5930236,"lon":-122.148134,"tags":{"bench":"no","bin":"no","bus":"yes","gtfs:feed":"US-WA-KCM","gtfs:stop_id":"68599","highway":"bus_stop","lit":"yes","name":"145th Pl SE & 144th Ave SE","network":"King County Metro","network:short":"KCM","network:wikidata":"Q6411393","operator":"King County Metro","operator:short":"KCM","operator:wikidata":"Q6411393","operator:wikipedia":"en:King County Metro","public_transport":"platform","ref":"68599","route_ref":"245;271","shelter":"no","tactile_paving":"no","wheelchair":"yes"}},{"type":"node","id":2637309539,"lat":47.5875864,"lon":-122.1424369,"tags":{"amenity":"drinking_water"}},{"type":"node","id":2637309557,"lat":47.5883505,"lon":-122.1401502,"tags":{"amenity":"bench","backrest":"yes","check_date":"2021-08-05","inscription":"\"The Mitchell Family\" Emigrated From Scotland in 1959"}},{"type":"node","id":2637309572,"lat":47.588967,"lon":-122.1440761,"tags":{"bench":"yes","bin":"yes","bus":"yes","gtfs:feed":"US-WA-KCM","gtfs:stop_id":"68613","highway":"bus_stop","lit":"no","name":"SE 24th St & 145th Pl SE","network":"King County Metro","network:short":"KCM","network:wikidata":"Q6411393","operator":"King County Metro","operator:short":"KCM","operator:wikidata":"Q6411393","operator:wikipedia":"en:King County Metro","public_transport":"platform","ref":"68613","route_ref":"221;223;226;245;271","shelter":"yes","tactile_paving":"no","wheelchair":"yes"}},{"type":"node","id":2637309577,"lat":47.5891029,"lon":-122.1435822,"tags":{"bench":"yes","bin":"yes","bus":"yes","gtfs:feed":"US-WA-KCM","gtfs:stop_id":"68612","highway":"bus_stop","lit":"no","name":"SE 24th St & 148th Ave SE","network":"King County Metro","network:short":"KCM","network:wikidata":"Q6411393","operator":"King County Metro","operator:short":"KCM","operator:wikidata":"Q6411393","operator:wikipedia":"en:King County Metro","public_transport":"platform","ref":"68612","route_ref":"221;223;226;245;271","shelter":"yes","tactile_paving":"no","wheelchair":"yes"}},{"type":"node","id":2718051739,"lat":47.6082874,"lon":-122.142531,"tags":{"addr:city":"Bellevue","addr:housenumber":"15015","addr:postcode":"98007","addr:state":"WA","addr:street":"Main Street","addr:unit":"101","amenity":"bank","atm":"yes","brand":"Wells Fargo","brand:wikidata":"Q744149","check_date":"2023-11-28","contact:phone":"+1-425-256-7904","contact:website":"wellsfargo.com","drive_through":"no","name":"Wells Fargo","opening_hours":"Mo-Fr 09:00-17:00","wheelchair":"yes"}},{"type":"node","id":2718051740,"lat":47.6095793,"lon":-122.141611,"tags":{"addr:city":"Bellevue","addr:housenumber":"14855","addr:postcode":"98007","addr:street":"Main Street","brand":"Crumbl Cookies","brand:wikidata":"Q106924414","check_date":"2024-01-16","name":"Crumbl Cookies","shop":"pastry","short_name":"Crumbl","website":"https://crumblcookies.com","wheelchair":"yes"}},{"type":"node","id":2737502223,"lat":47.608287,"lon":-122.142419,"tags":{"check_date":"2023-11-28","check_date:opening_hours":"2023-06-25","name":"Shoes n Feet","opening_hours":"Mo-Fr 10:00-18:00; Sa 10:00-17:00; Su off","shop":"shoes","wheelchair":"limited"}},{"type":"node","id":2737502225,"lat":47.6082861,"lon":-122.142195,"tags":{"amenity":"dentist","check_date":"2024-01-21","healthcare":"dentist","name":"Prime Dental","opening_hours":"Mo,We,Th 09:00-18:00; Sa 08:00-16:00; Tu,Fr,Su off","wheelchair":"yes"}},{"type":"node","id":2737502226,"lat":47.6082856,"lon":-122.142083,"tags":{"check_date":"2023-11-28","healthcare":"alternative","healthcare:speciality":"chiropractic","name":"Pure Chiropractic"}},{"type":"node","id":2737502227,"lat":47.6082852,"lon":-122.141971,"tags":{"amenity":"restaurant","check_date":"2024-05-14","cuisine":"chinese","name":"Szechuan Chef","opening_hours":"Su-Th 11:00-21:00; Fr,Sa 11:00-21:30","wheelchair":"yes"}},{"type":"node","id":2737502228,"lat":47.6082843,"lon":-122.141747,"tags":{"addr:city":"Bellevue","addr:housenumber":"15015","addr:postcode":"98007","addr:state":"WA","addr:street":"Main Street","addr:unit":"10","addr:unitnumber":"10","check_date":"2024-05-14","name":"International Deli","opening_hours":"Mo-Fr 10:00-19:00; Su off; Sa 10:00-17:00","payment:cash":"yes","payment:credit_cards":"yes","shop":"deli","wheelchair":"limited"}},{"type":"node","id":2737502230,"lat":47.608283,"lon":-122.141411,"tags":{"addr:housenumber":"15015","addr:street":"Main Street","addr:unit":"112","check_date":"2024-01-21","name":"Fabri Fine Jewelry","opening_hours":"Mo-Fr 10:00-18:00; Sa 10:00-17:00; Su off","shop":"jewelry","website":"https://fabrifinejewelry.com","wheelchair":"yes"}},{"type":"node","id":2737502231,"lat":47.6082839,"lon":-122.141635,"tags":{"brand":"Great Clips","brand:wikidata":"Q5598967","check_date":"2024-03-08","female":"yes","male":"yes","name":"Great Clips","opening_hours":"Mo-Fr 09:00-20:00; Sa 09:00-19:00; Su 10:00-18:00","shop":"hairdresser","wheelchair":"yes"}},{"type":"node","id":3293418182,"lat":47.6082804,"lon":-122.1407477,"tags":{"brand":"AutoZone","brand:wikidata":"Q4826087","check_date":"2024-01-22","name":"AutoZone","opening_hours":"Mo-Sa 08:00-21:00; Su 08:30-20:00","shop":"car_parts","website":"https://www.autozone.com/locations/wa/bellevue/15015-main-st.html","wheelchair":"yes"}},{"type":"node","id":3293418184,"lat":47.6082812,"lon":-122.140963,"tags":{"addr:housenumber":"15015","addr:street":"Main Street","addr:unit":"116","check_date":"2024-03-08","check_date:opening_hours":"2023-06-25","name":"Levue Nails & Spa","opening_hours":"Mo-Fr 09:30-19:00; Sa 09:30-18:00; Su 10:00-17:00","shop":"beauty","website":"https://levuenails.com","wheelchair":"yes"}},{"type":"node","id":3293418185,"lat":47.6082834,"lon":-122.141523,"tags":{"brand":"H&R Block","brand:wikidata":"Q5627799","check_date":"2024-05-14","name":"H&R Block","office":"tax_advisor","opening_hours":"Mo 10:00-14:00; Tu 14:00-18:00; Th 11:00-16:00; Sa 10:00-15:00; We,Fr,Su off","wheelchair":"yes"}},{"type":"node","id":3293418186,"lat":47.6082848,"lon":-122.141859,"tags":{"check_date":"2024-05-14","healthcare":"alternative","name":"Annemarie Aesthetics","opening_hours":"Mo 10:00-14:00; Tu 10:00-19:00; We 10:00-17:00; Th,Fr 10:00-18:00; Sa 10:00-15:00; Su off","website":"https://www.annemarieaesthetics.com","wheelchair":"yes"}},{"type":"node","id":3326230223,"lat":47.6090112,"lon":-122.1426224},{"type":"node","id":3326230224,"lat":47.6090117,"lon":-122.1427165},{"type":"node","id":3326230225,"lat":47.6090191,"lon":-122.1425085},{"type":"node","id":3326230238,"lat":47.6091571,"lon":-122.142507},{"type":"node","id":3522504938,"lat":47.609749,"lon":-122.1930873,"tags":{"fixme":"continue"}},{"type":"node","id":3522504941,"lat":47.6099445,"lon":-122.1930964},{"type":"node","id":3522504944,"lat":47.6099677,"lon":-122.193108},{"type":"node","id":3522504949,"lat":47.6099805,"lon":-122.1931255},{"type":"node","id":3522504954,"lat":47.6099943,"lon":-122.1935042},{"type":"node","id":3522504965,"lat":47.6100104,"lon":-122.193505},{"type":"node","id":3524096196,"lat":47.609418,"lon":-122.1788513,"tags":{"amenity":"toilets","changing_table":"yes","check_date":"2021-08-01","fee":"no","wheelchair":"yes"}},{"type":"node","id":3534721291,"lat":47.6102038,"lon":-122.1909716,"tags":{"barrier":"kerb","kerb":"lowered","tactile_paving":"yes","wheelchair":"yes"}},{"type":"node","id":3534737522,"lat":47.6099651,"lon":-122.1910375},{"type":"node","id":3967446433,"lat":47.5817895,"lon":-122.1509563},{"type":"node","id":4057274191,"lat":47.6083715,"lon":-122.175167},{"type":"node","id":4067939681,"lat":47.6102034,"lon":-122.1907213,"tags":{"barrier":"kerb","kerb":"lowered","tactile_paving":"yes","wheelchair":"yes"}},{"type":"node","id":4067939790,"lat":47.6101029,"lon":-122.1857005},{"type":"node","id":4067939791,"lat":47.6101456,"lon":-122.1856769},{"type":"node","id":4100909287,"lat":47.6018973,"lon":-122.138039},{"type":"node","id":4100909289,"lat":47.6019199,"lon":-122.1380644},{"type":"node","id":4100909291,"lat":47.601938,"lon":-122.1379598},{"type":"node","id":4100909293,"lat":47.6019606,"lon":-122.137984},{"type":"node","id":4245250140,"lat":47.6085077,"lon":-122.18562,"tags":{"bench":"no","bin":"no","bus":"yes","gtfs:feed":"US-WA-KCM","gtfs:stop_id":"80565","highway":"bus_stop","name":"116th Ave SE & SE 1st St","network":"King County Metro","network:short":"KCM","network:wikidata":"Q6411393","operator":"King County Metro","operator:short":"KCM","operator:wikidata":"Q6411393","operator:wikipedia":"en:King County Metro","public_transport":"platform","ref":"80565","route_ref":"271","shelter":"no","tactile_paving":"no","wheelchair":"yes"}},{"type":"node","id":4285662867,"lat":47.5918558,"lon":-122.1837329,"tags":{"amenity":"bench","backrest":"no","check_date":"2024-10-27"}},{"type":"node","id":4285662868,"lat":47.5918704,"lon":-122.183707,"tags":{"amenity":"bench","backrest":"no","check_date":"2024-10-27"}},{"type":"node","id":4285662869,"lat":47.5918358,"lon":-122.1837122,"tags":{"amenity":"bench","backrest":"no","check_date":"2024-10-27"}},{"type":"node","id":4285662870,"lat":47.5918444,"lon":-122.1836804,"tags":{"amenity":"bench","backrest":"no","check_date":"2024-10-27"}},{"type":"node","id":4285662871,"lat":47.5918085,"lon":-122.183725,"tags":{"amenity":"bench","backrest":"no","check_date":"2024-10-27"}},{"type":"node","id":4285662872,"lat":47.5918082,"lon":-122.1836826,"tags":{"amenity":"bench","backrest":"no","check_date":"2024-10-27"}},{"type":"node","id":4368513964,"lat":47.609787,"lon":-122.141891,"tags":{"bench":"no","bin":"yes","bus":"yes","gtfs:feed":"US-WA-KCM","gtfs:stop_id":"70835","highway":"bus_stop","lit":"yes","name":"Main St & 148th Ave SE","network":"King County Metro","network:short":"KCM","network:wikidata":"Q6411393","operator":"King County Metro","operator:short":"KCM","operator:wikidata":"Q6411393","operator:wikipedia":"en:King County Metro","public_transport":"platform","ref":"70835","route_ref":"245","shelter":"no","tactile_paving":"no","wheelchair":"yes"}},{"type":"node","id":4499338248,"lat":47.6067144,"lon":-122.1753203,"tags":{"amenity":"bench","backrest":"yes"}},{"type":"node","id":4499338249,"lat":47.6069557,"lon":-122.1756316,"tags":{"amenity":"bench","backrest":"yes"}},{"type":"node","id":4499338250,"lat":47.6070573,"lon":-122.1766658,"tags":{"amenity":"bench","backrest":"yes","inscription":"Elizabeth T. Smith Bench"}},{"type":"node","id":4499338251,"lat":47.6069216,"lon":-122.1765715,"tags":{"amenity":"bench","backrest":"yes","inscription":"William-James Koh and Holland-Mei Koh Bench"}},{"type":"node","id":4499338252,"lat":47.6064049,"lon":-122.1772947,"tags":{"amenity":"bench","backrest":"yes","inscription":"Barbara L. Mitchell Bench"}},{"type":"node","id":4499338253,"lat":47.6069009,"lon":-122.1772822,"tags":{"amenity":"bench","backrest":"yes","inscription":"Elaine Tuttle Bench"}},{"type":"node","id":4499338254,"lat":47.6063987,"lon":-122.1777551,"tags":{"amenity":"bench","backrest":"yes","inscription":"Tamara Bureeva and Family Bench"}},{"type":"node","id":4499338255,"lat":47.6061302,"lon":-122.1780447,"tags":{"amenity":"bench","backrest":"yes","inscription":"Anselmo Kangrae Jo Bench"}},{"type":"node","id":4499338256,"lat":47.6072759,"lon":-122.1779164,"tags":{"amenity":"bench","backrest":"yes","inscription":"Janice Miller Bench"}},{"type":"node","id":4499338257,"lat":47.6059306,"lon":-122.1791263,"tags":{"amenity":"bench","backrest":"yes","fixme":"Verify existance"}},{"type":"node","id":4499338259,"lat":47.6078334,"lon":-122.1780054,"tags":{"amenity":"bench","backrest":"yes","fixme":"Verify existence"}},{"type":"node","id":4499338264,"lat":47.6079422,"lon":-122.1786365,"tags":{"amenity":"bench","backrest":"yes","inscription":"Catherine Markwald Bench"}},{"type":"node","id":4499338265,"lat":47.6086629,"lon":-122.1777698,"tags":{"alt_name":"Granite Bench","amenity":"bench","backrest":"yes","image":"File:Bellevue, WA (2023) - 21.jpg","inscription":"In honor of Emilie Dao","material":"granite","name":"Dao Bench"}},{"type":"node","id":4499338276,"lat":47.6086465,"lon":-122.1782763,"tags":{"amenity":"bench","backrest":"yes","check_date":"2024-09-04","material":"stone"}},{"type":"node","id":4499338282,"lat":47.6086645,"lon":-122.1785055,"tags":{"amenity":"bench","backrest":"yes","inscription":"Jim and Judy Barlup Bench"}},{"type":"node","id":4499338303,"lat":47.6093639,"lon":-122.1800276,"tags":{"amenity":"bench","backrest":"yes","inscription":"Jill Buss Bench"}},{"type":"node","id":4499338304,"lat":47.6091601,"lon":-122.1801711,"tags":{"amenity":"bench","backrest":"yes","inscription":"Christine Marie Smith Bench"}},{"type":"node","id":4539970591,"lat":47.6046825,"lon":-122.1322252,"tags":{"addr:city":"Bellevue","addr:housenumber":"619","addr:postcode":"98007","addr:state":"WA","addr:street":"156th Avenue Southeast","amenity":"clinic","check_date":"2024-08-17","healthcare":"clinic","name":"Overlake Medical Center","name:en":"Overlake Medical Center"}},{"type":"node","id":4561016209,"lat":47.6029525,"lon":-122.174992,"tags":{"bench":"no","bin":"no","bus":"yes","check_date:shelter":"2021-08-25","gtfs:feed":"US-WA-KCM","gtfs:stop_id":"70807","highway":"bus_stop","lit":"yes","name":"Lake Hills Connector & SE 8th St","network":"King County Metro","network:short":"KCM","network:wikidata":"Q6411393","network:wikipedia":"en:King County Metro","operator":"King County Metro","operator:short":"KCM","operator:wikidata":"Q6411393","operator:wikipedia":"en:King County Metro","public_transport":"platform","ref":"70807","route_ref":"240;271","shelter":"no","wheelchair":"yes"}},{"type":"node","id":4561016210,"lat":47.5981232,"lon":-122.1511434,"tags":{"bench":"yes","bin":"yes","bus":"yes","gtfs:feed":"US-WA-KCM","gtfs:stop_id":"68596","highway":"bus_stop","lit":"no","name":"145th Pl SE & Lake Hills Blvd","network":"King County Metro","network:short":"KCM","network:wikidata":"Q6411393","operator":"King County Metro","operator:short":"KCM","operator:wikidata":"Q6411393","operator:wikipedia":"en:King County Metro","public_transport":"platform","ref":"68596","route_ref":"245;271","shelter":"yes","tactile_paving":"no","wheelchair":"yes"}},{"type":"node","id":4561016211,"lat":47.6007912,"lon":-122.1530018,"tags":{"bench":"no","bin":"no","bus":"yes","gtfs:feed":"US-WA-KCM","gtfs:stop_id":"70823","highway":"bus_stop","lit":"no","name":"145th Pl SE & SE 10th St","network":"King County Metro","network:short":"KCM","network:wikidata":"Q6411393","operator":"King County Metro","operator:short":"KCM","operator:wikidata":"Q6411393","operator:wikipedia":"en:King County Metro","public_transport":"platform","ref":"70823","route_ref":"245;271","shelter":"no","tactile_paving":"no","wheelchair":"yes"}},{"type":"node","id":4561016212,"lat":47.5935725,"lon":-122.148247,"tags":{"bus":"yes","gtfs:feed":"US-WA-KCM","gtfs:stop_id":"68614","highway":"bus_stop","name":"145th Pl SE & 144th Ave SE","network":"King County Metro","network:short":"KCM","network:wikidata":"Q6411393","operator":"King County Metro","operator:short":"KCM","operator:wikidata":"Q6411393","operator:wikipedia":"en:King County Metro","public_transport":"platform","ref":"68614","route_ref":"245;271","wheelchair":"yes"}},{"type":"node","id":4561016213,"lat":47.5955735,"lon":-122.1495056,"tags":{"bench":"yes","bin":"yes","bus":"yes","gtfs:feed":"US-WA-KCM","gtfs:stop_id":"68594","highway":"bus_stop","name":"145th Pl SE & SE 16th St","network":"King County Metro","network:short":"KCM","network:wikidata":"Q6411393","operator":"King County Metro","operator:short":"KCM","operator:wikidata":"Q6411393","operator:wikipedia":"en:King County Metro","public_transport":"platform","ref":"68594","route_ref":"245;271","shelter":"yes","tactile_paving":"no","wheelchair":"yes"}},{"type":"node","id":4561016215,"lat":47.5902696,"lon":-122.146383,"tags":{"bench":"no","bin":"no","bus":"yes","gtfs:feed":"US-WA-KCM","gtfs:stop_id":"68595","highway":"bus_stop","lit":"no","name":"145th Pl SE & SE 22nd St","network":"King County Metro","network:short":"KCM","network:wikidata":"Q6411393","operator":"King County Metro","operator:short":"KCM","operator:wikidata":"Q6411393","operator:wikipedia":"en:King County Metro","public_transport":"platform","ref":"68595","route_ref":"221;245;271","shelter":"no","tactile_paving":"no","wheelchair":"yes"}},{"type":"node","id":4561016230,"lat":47.6109482,"lon":-122.1854064,"tags":{"bench":"no","bin":"yes","bus":"yes","gtfs:feed":"US-WA-KCM","gtfs:stop_id":"80572","highway":"bus_stop","name":"116th Ave NE & NE 2nd Pl","network":"King County Metro","network:short":"KCM","network:wikidata":"Q6411393","operator":"King County Metro","operator:short":"KCM","operator:wikidata":"Q6411393","operator:wikipedia":"en:King County Metro","public_transport":"platform","ref":"80572","route_ref":"271","shelter":"no","tactile_paving":"no","wheelchair":"yes"}},{"type":"node","id":4561016232,"lat":47.598399,"lon":-122.1670995,"tags":{"bench":"no","bin":"no","bus":"yes","gtfs:feed":"US-WA-KCM","gtfs:stop_id":"70841","highway":"bus_stop","lit":"no","name":"Lake Hills Connector & Richards Rd","network":"King County Metro","network:short":"KCM","network:wikidata":"Q6411393","operator":"King County Metro","operator:short":"KCM","operator:wikidata":"Q6411393","operator:wikipedia":"en:King County Metro","public_transport":"platform","ref":"70841","route_ref":"271","shelter":"no","tactile_paving":"no","wheelchair":"yes"}},{"type":"node","id":4561016233,"lat":47.6027713,"lon":-122.1541276,"tags":{"bench":"yes","bin":"yes","bus":"yes","gtfs:feed":"US-WA-KCM","gtfs:stop_id":"68598","highway":"bus_stop","name":"Lake Hills Connector & 140th Ave SE","network":"King County Metro","network:short":"KCM","network:wikidata":"Q6411393","operator":"King County Metro","operator:short":"KCM","operator:wikidata":"Q6411393","operator:wikipedia":"en:King County Metro","public_transport":"platform","ref":"68598","route_ref":"271","shelter":"yes","wheelchair":"yes"}},{"type":"node","id":4561016234,"lat":47.597744,"lon":-122.162514,"tags":{"bus":"yes","gtfs:feed":"US-WA-KCM","gtfs:stop_id":"70805","highway":"bus_stop","name":"Lake Hills Connector & 134th Ave SE","network":"King County Metro","network:short":"KCM","network:wikidata":"Q6411393","operator":"King County Metro","operator:short":"KCM","operator:wikidata":"Q6411393","operator:wikipedia":"en:King County Metro","public_transport":"platform","ref":"70805","route_ref":"271","shelter":"no","wheelchair":"yes"}},{"type":"node","id":4561016255,"lat":47.6033792,"lon":-122.176564,"tags":{"bench":"no","bus":"yes","gtfs:feed":"US-WA-KCM","gtfs:stop_id":"70813","highway":"bus_stop","name":"Lake Hills Connector & SE 8th St","network":"King County Metro","network:short":"KCM","network:wikidata":"Q6411393","network:wikipedia":"en:King County Metro","operator":"King County Metro","operator:short":"KCM","operator:wikidata":"Q6411393","operator:wikipedia":"en:King County Metro","public_transport":"platform","ref":"70813","route_ref":"240;271","shelter":"no","wheelchair":"yes"}},{"type":"node","id":4561016262,"lat":47.5886174,"lon":-122.1429322,"tags":{"bench":"no","bin":"no","bus":"yes","gtfs:feed":"US-WA-KCM","gtfs:stop_id":"68570","highway":"bus_stop","lit":"no","name":"148th Ave SE & SE 24th St","network":"King County Metro","network:short":"KCM","network:wikidata":"Q6411393","operator":"King County Metro","operator:short":"KCM","operator:wikidata":"Q6411393","operator:wikipedia":"en:King County Metro","public_transport":"platform","ref":"68570","route_ref":"221;223;226;245;271","shelter":"no","tactile_paving":"no","wheelchair":"yes"}},{"type":"node","id":4561016265,"lat":47.595492,"lon":-122.1496897,"tags":{"bench":"no","bin":"no","bus":"yes","gtfs:feed":"US-WA-KCM","gtfs:stop_id":"68593","highway":"bus_stop","name":"145th Pl SE & SE 16th St","network":"King County Metro","network:short":"KCM","network:wikidata":"Q6411393","operator":"King County Metro","operator:short":"KCM","operator:wikidata":"Q6411393","operator:wikipedia":"en:King County Metro","public_transport":"platform","ref":"68593","route_ref":"245;271","shelter":"no","tactile_paving":"no","wheelchair":"yes"}},{"type":"node","id":4561016266,"lat":47.599209,"lon":-122.1521233,"tags":{"bus":"yes","gtfs:feed":"US-WA-KCM","gtfs:stop_id":"68591","highway":"bus_stop","name":"145th Pl SE & SE 13th Pl","network":"King County Metro","network:short":"KCM","network:wikidata":"Q6411393","operator":"King County Metro","operator:short":"KCM","operator:wikidata":"Q6411393","operator:wikipedia":"en:King County Metro","public_transport":"platform","ref":"68591","route_ref":"245;271","shelter":"no","wheelchair":"yes"}},{"type":"node","id":4561016267,"lat":47.5969598,"lon":-122.1506243,"tags":{"bench":"yes","bin":"yes","bus":"yes","gtfs:feed":"US-WA-KCM","gtfs:stop_id":"68611","highway":"bus_stop","lit":"no","name":"145th Pl SE & Lake Hills Blvd","network":"King County Metro","network:short":"KCM","network:wikidata":"Q6411393","operator":"King County Metro","operator:short":"KCM","operator:wikidata":"Q6411393","operator:wikipedia":"en:King County Metro","public_transport":"platform","ref":"68611","route_ref":"245;271","shelter":"yes","tactile_paving":"no","wheelchair":"yes"}},{"type":"node","id":4561016268,"lat":47.6017494,"lon":-122.1535226,"tags":{"bench":"yes","bin":"yes","bus":"yes","gtfs:feed":"US-WA-KCM","gtfs:stop_id":"68597","highway":"bus_stop","lit":"no","name":"140th Ave SE & Lake Hills Connector","network":"King County Metro","network:short":"KCM","network:wikidata":"Q6411393","operator":"King County Metro","operator:short":"KCM","operator:wikidata":"Q6411393","operator:wikipedia":"en:King County Metro","public_transport":"platform","ref":"68597","route_ref":"245;271","shelter":"yes","tactile_paving":"no","wheelchair":"yes"}},{"type":"node","id":4561016492,"lat":47.5976422,"lon":-122.1612469,"tags":{"bench":"no","bin":"no","bus":"yes","gtfs:feed":"US-WA-KCM","gtfs:stop_id":"70803","highway":"bus_stop","name":"Lake Hills Connector & 134th Ave SE","network":"King County Metro","network:short":"KCM","network:wikidata":"Q6411393","operator":"King County Metro","operator:short":"KCM","operator:wikidata":"Q6411393","operator:wikipedia":"en:King County Metro","public_transport":"platform","ref":"70803","route_ref":"271","shelter":"no","wheelchair":"yes"}},{"type":"node","id":4561016494,"lat":47.5983739,"lon":-122.1676638,"tags":{"bench":"no","bin":"no","bus":"yes","gtfs:feed":"US-WA-KCM","gtfs:stop_id":"70843","highway":"bus_stop","name":"Lake Hills Connector & Richards Rd","network":"King County Metro","network:short":"KCM","network:wikidata":"Q6411393","operator":"King County Metro","operator:short":"KCM","operator:wikidata":"Q6411393","operator:wikipedia":"en:King County Metro","public_transport":"platform","ref":"70843","route_ref":"271","shelter":"no","wheelchair":"yes"}},{"type":"node","id":4561016504,"lat":47.5900838,"lon":-122.1460253,"tags":{"bench":"yes","bin":"yes","bus":"yes","gtfs:feed":"US-WA-KCM","gtfs:stop_id":"68592","highway":"bus_stop","lit":"no","name":"145th Pl SE & SE 22nd St","network":"King County Metro","network:short":"KCM","network:wikidata":"Q6411393","operator":"King County Metro","operator:short":"KCM","operator:wikidata":"Q6411393","operator:wikipedia":"en:King County Metro","public_transport":"platform","ref":"68592","route_ref":"221;245;271","shelter":"yes","tactile_paving":"no","wheelchair":"yes"}},{"type":"node","id":4584387507,"lat":47.6100782,"lon":-122.1321731,"tags":{"bench":"no","bin":"no","bus":"yes","gtfs:feed":"US-WA-KCM","gtfs:stop_id":"68700","highway":"bus_stop","name":"156th Ave NE & Main St","network":"King County Metro","network:short":"KCM","network:wikidata":"Q6411393","operator":"King County Metro","operator:short":"KCM","operator:wikidata":"Q6411393","operator:wikipedia":"en:King County Metro","public_transport":"platform","ref":"68700","route_ref":"223;226;245","shelter":"no","wheelchair":"yes"}},{"type":"node","id":4584387509,"lat":47.600373,"lon":-122.1404873,"tags":{"bench":"no","bin":"no","bus":"yes","gtfs:feed":"US-WA-KCM","gtfs:stop_id":"68530","highway":"bus_stop","lit":"yes","name":"Lake Hills Blvd & SE 12th Pl","network":"King County Metro","network:short":"KCM","network:wikidata":"Q6411393","operator":"King County Metro","operator:short":"KCM","operator:wikidata":"Q6411393","operator:wikipedia":"en:King County Metro","public_transport":"platform","ref":"68530","route_ref":"223;226","shelter":"no","wheelchair":"yes"}},{"type":"node","id":4584387510,"lat":47.6028961,"lon":-122.1360655,"tags":{"bench":"yes","bin":"yes","bus":"yes","gtfs:feed":"US-WA-KCM","gtfs:stop_id":"68510","highway":"bus_stop","lit":"yes","name":"Lake Hills Blvd & 154th Ave SE","network":"King County Metro","network:short":"KCM","network:wikidata":"Q6411393","operator":"King County Metro","operator:short":"KCM","operator:wikidata":"Q6411393","operator:wikipedia":"en:King County Metro","public_transport":"platform","ref":"68510","route_ref":"223;226","shelter":"yes","wheelchair":"yes"}},{"type":"node","id":4584387511,"lat":47.5919014,"lon":-122.1429352,"tags":{"bench":"yes","bin":"yes","bus":"yes","gtfs:feed":"US-WA-KCM","gtfs:stop_id":"68560","highway":"bus_stop","lit":"yes","name":"148th Ave SE & SE 22nd St","network":"King County Metro","network:short":"KCM","network:wikidata":"Q6411393","operator":"King County Metro","operator:short":"KCM","operator:wikidata":"Q6411393","operator:wikipedia":"en:King County Metro","public_transport":"platform","ref":"68560","route_ref":"223;226","shelter":"yes","tactile_paving":"no","wheelchair":"yes"}},{"type":"node","id":4584387512,"lat":47.595918,"lon":-122.1428095,"tags":{"bench":"no","bin":"no","bus":"yes","gtfs:feed":"US-WA-KCM","gtfs:stop_id":"68550","highway":"bus_stop","lit":"yes","name":"148th Ave SE & SE 16th St","network":"King County Metro","network:short":"KCM","network:wikidata":"Q6411393","operator":"King County Metro","operator:short":"KCM","operator:wikidata":"Q6411393","operator:wikipedia":"en:King County Metro","public_transport":"platform","ref":"68550","route_ref":"223;226","shelter":"no","wheelchair":"yes"}},{"type":"node","id":4584387514,"lat":47.6036265,"lon":-122.1310315,"tags":{"bench":"no","bin":"no","bus":"yes","gtfs:feed":"US-WA-KCM","gtfs:stop_id":"68502","highway":"bus_stop","lit":"yes","name":"156th Ave SE & Lake Hills Blvd","network":"King County Metro","network:short":"KCM","network:wikidata":"Q6411393","operator":"King County Metro","operator:short":"KCM","operator:wikidata":"Q6411393","operator:wikipedia":"en:King County Metro","public_transport":"platform","ref":"68502","route_ref":"223;226","shelter":"no","tactile_paving":"no","wheelchair":"yes"}},{"type":"node","id":4584387515,"lat":47.6074249,"lon":-122.1322992,"tags":{"amenity":"bench","bench":"yes","bin":"no","bus":"yes","gtfs:feed":"US-WA-KCM","gtfs:stop_id":"68490","highway":"bus_stop","name":"156th Ave SE & SE 4th St","network":"King County Metro","network:short":"KCM","network:wikidata":"Q6411393","operator":"King County Metro","operator:short":"KCM","operator:wikidata":"Q6411393","operator:wikipedia":"en:King County Metro","public_transport":"platform","ref":"68490","route_ref":"223;226","shelter":"no","wheelchair":"yes"}},{"type":"node","id":4584387516,"lat":47.6095293,"lon":-122.1323563,"tags":{"bench":"yes","bin":"yes","bus":"yes","gtfs:feed":"US-WA-KCM","gtfs:stop_id":"68480","highway":"bus_stop","name":"156th Ave SE & Main St","network":"King County Metro","network:short":"KCM","network:wikidata":"Q6411393","operator":"King County Metro","operator:short":"KCM","operator:wikidata":"Q6411393","operator:wikipedia":"en:King County Metro","public_transport":"platform","ref":"68480","route_ref":"223;226","shelter":"yes","wheelchair":"yes"}},{"type":"node","id":4584387517,"lat":47.5981251,"lon":-122.1428311,"tags":{"bench":"yes","bin":"yes","bus":"yes","gtfs:feed":"US-WA-KCM","gtfs:stop_id":"68540","highway":"bus_stop","lit":"yes","name":"148th Ave SE & Lake Hills Blvd","network":"King County Metro","network:short":"KCM","network:wikidata":"Q6411393","operator":"King County Metro","operator:short":"KCM","operator:wikidata":"Q6411393","operator:wikipedia":"en:King County Metro","public_transport":"platform","ref":"68540","route_ref":"223;226","shelter":"yes","tactile_paving":"no","wheelchair":"yes"}},{"type":"node","id":4584387528,"lat":47.5909285,"lon":-122.1403337,"tags":{"bus":"yes","gtfs:feed":"US-WA-KCM","gtfs:stop_id":"68888","highway":"bus_stop","name":"SE 22nd St & 150th Ave SE","network":"King County Metro","network:short":"KCM","network:wikidata":"Q6411393","operator":"King County Metro","operator:short":"KCM","operator:wikidata":"Q6411393","operator:wikipedia":"en:King County Metro","public_transport":"platform","ref":"68888","route_ref":"221;226","wheelchair":"yes"}},{"type":"node","id":4584387529,"lat":47.5890563,"lon":-122.1209977,"tags":{"bus":"yes","gtfs:feed":"US-WA-KCM","gtfs:stop_id":"71675","highway":"bus_stop","name":"SE 24th St & 161st Ave SE","network":"King County Metro","network:short":"KCM","network:wikidata":"Q6411393","operator":"King County Metro","operator:short":"KCM","operator:wikidata":"Q6411393","operator:wikipedia":"en:King County Metro","public_transport":"platform","ref":"71675","route_ref":"221;226","shelter":"no","wheelchair":"yes"}},{"type":"node","id":4584387530,"lat":47.5890761,"lon":-122.1282179,"tags":{"bus":"yes","gtfs:feed":"US-WA-KCM","gtfs:stop_id":"71678","highway":"bus_stop","name":"SE 24th St & 158th Ave SE","network":"King County Metro","network:short":"KCM","network:wikidata":"Q6411393","operator":"King County Metro","operator:short":"KCM","operator:wikidata":"Q6411393","operator:wikipedia":"en:King County Metro","public_transport":"platform","ref":"71678","route_ref":"221;226","wheelchair":"yes"}},{"type":"node","id":4584387533,"lat":47.598101,"lon":-122.1197606,"tags":{"bench":"no","bin":"no","bus":"yes","gtfs:feed":"US-WA-KCM","gtfs:stop_id":"66880","highway":"bus_stop","name":"SE 14th St & 165th Ave SE","network":"King County Metro","network:short":"KCM","network:wikidata":"Q6411393","operator":"King County Metro","operator:short":"KCM","operator:wikidata":"Q6411393","operator:wikipedia":"en:King County Metro","public_transport":"platform","ref":"66880","route_ref":"221;226","shelter":"no","wheelchair":"yes"}},{"type":"node","id":4584387536,"lat":47.6014786,"lon":-122.1211623,"tags":{"bench":"no","bin":"no","bus":"yes","gtfs:feed":"US-WA-KCM","gtfs:stop_id":"66860","highway":"bus_stop","lit":"yes","name":"164th Ave SE & SE 9th St","network":"King County Metro","network:short":"KCM","network:wikidata":"Q6411393","operator":"King County Metro","operator:short":"KCM","operator:wikidata":"Q6411393","operator:wikipedia":"en:King County Metro","public_transport":"platform","ref":"66860","route_ref":"221;226","shelter":"no","wheelchair":"yes"}},{"type":"node","id":4584387537,"lat":47.5890921,"lon":-122.1320984,"tags":{"bus":"yes","gtfs:feed":"US-WA-KCM","gtfs:stop_id":"71680","highway":"bus_stop","name":"SE 24th St & 156th Ave SE","network":"King County Metro","network:short":"KCM","network:wikidata":"Q6411393","operator":"King County Metro","operator:short":"KCM","operator:wikidata":"Q6411393","operator:wikipedia":"en:King County Metro","public_transport":"platform","ref":"71680","route_ref":"221;226","wheelchair":"yes"}},{"type":"node","id":4584387542,"lat":47.599349,"lon":-122.121088,"tags":{"bench":"no","bin":"no","bus":"yes","gtfs:feed":"US-WA-KCM","gtfs:stop_id":"66870","highway":"bus_stop","name":"164th Ave SE & SE 12th St","network":"King County Metro","network:short":"KCM","network:wikidata":"Q6411393","operator":"King County Metro","operator:short":"KCM","operator:wikidata":"Q6411393","operator:wikipedia":"en:King County Metro","public_transport":"platform","ref":"66870","route_ref":"221;226","shelter":"no","wheelchair":"yes"}},{"type":"node","id":4584387543,"lat":47.6056814,"lon":-122.1214342,"tags":{"bench":"no","bin":"no","bus":"yes","gtfs:feed":"US-WA-KCM","gtfs:stop_id":"66840","highway":"bus_stop","lit":"yes","name":"164th Ave SE & Lake Hills Blvd","network":"King County Metro","network:short":"KCM","network:wikidata":"Q6411393","operator":"King County Metro","operator:short":"KCM","operator:wikidata":"Q6411393","operator:wikipedia":"en:King County Metro","public_transport":"platform","ref":"66840","route_ref":"221;226","shelter":"no","wheelchair":"yes"}},{"type":"node","id":4584387544,"lat":47.6037401,"lon":-122.1216471,"tags":{"bench":"no","bin":"no","bus":"yes","gtfs:feed":"US-WA-KCM","gtfs:stop_id":"66850","highway":"bus_stop","lit":"yes","name":"164th Ave SE & SE 7th St","network":"King County Metro","network:short":"KCM","network:wikidata":"Q6411393","operator":"King County Metro","operator:short":"KCM","operator:wikidata":"Q6411393","operator:wikipedia":"en:King County Metro","public_transport":"platform","ref":"66850","route_ref":"221;226","shelter":"no","wheelchair":"yes"}},{"type":"node","id":4584387545,"lat":47.6094719,"lon":-122.121384,"tags":{"bench":"no","bin":"no","bus":"yes","gtfs:feed":"US-WA-KCM","gtfs:stop_id":"66820","highway":"bus_stop","lit":"yes","name":"164th Ave SE & Main St","network":"King County Metro","network:short":"KCM","network:wikidata":"Q6411393","operator":"King County Metro","operator:short":"KCM","operator:wikidata":"Q6411393","operator:wikipedia":"en:King County Metro","public_transport":"platform","ref":"66820","route_ref":"221;226","shelter":"no","tactile_paving":"no","wheelchair":"yes"}},{"type":"node","id":4584387546,"lat":47.6073678,"lon":-122.121419,"tags":{"bench":"no","bin":"no","bus":"yes","gtfs:feed":"US-WA-KCM","gtfs:stop_id":"66830","highway":"bus_stop","lit":"no","name":"164th Ave SE & SE 2nd St","network":"King County Metro","network:short":"KCM","network:wikidata":"Q6411393","operator":"King County Metro","operator:short":"KCM","operator:wikidata":"Q6411393","operator:wikipedia":"en:King County Metro","public_transport":"platform","ref":"66830","route_ref":"221;226","shelter":"no","tactile_paving":"no","wheelchair":"yes"}},{"type":"node","id":4584387992,"lat":47.6028637,"lon":-122.1356524,"tags":{"bench":"yes","bin":"yes","bus":"yes","gtfs:feed":"US-WA-KCM","gtfs:stop_id":"68670","highway":"bus_stop","lit":"yes","name":"Lake Hills Blvd & 154th Ave SE","network":"King County Metro","network:short":"KCM","network:wikidata":"Q6411393","operator":"King County Metro","operator:short":"KCM","operator:wikidata":"Q6411393","operator:wikipedia":"en:King County Metro","public_transport":"platform","ref":"68670","route_ref":"223;226","shelter":"yes","tactile_paving":"no","wheelchair":"yes"}},{"type":"node","id":4584387997,"lat":47.600467,"lon":-122.1401466,"tags":{"bench":"no","bin":"no","bus":"yes","gtfs:feed":"US-WA-KCM","gtfs:stop_id":"68650","highway":"bus_stop","lit":"yes","name":"Lake Hills Blvd & SE 12th Pl","network":"King County Metro","network:short":"KCM","network:wikidata":"Q6411393","operator":"King County Metro","operator:short":"KCM","operator:wikidata":"Q6411393","operator:wikipedia":"en:King County Metro","public_transport":"platform","ref":"68650","route_ref":"223;226","shelter":"no","tactile_paving":"no","wheelchair":"yes"}},{"type":"node","id":4584387998,"lat":47.5987328,"lon":-122.1420826,"tags":{"bench":"no","bin":"no","bus":"yes","gtfs:feed":"US-WA-KCM","gtfs:stop_id":"68640","highway":"bus_stop","lit":"yes","name":"Lake Hills Blvd & 148th Ave SE","network":"King County Metro","network:short":"KCM","network:wikidata":"Q6411393","operator":"King County Metro","operator:short":"KCM","operator:wikidata":"Q6411393","operator:wikipedia":"en:King County Metro","public_transport":"platform","ref":"68640","route_ref":"223;226","shelter":"no","tactile_paving":"no","wheelchair":"yes"}},{"type":"node","id":4584387999,"lat":47.5969503,"lon":-122.1424921,"tags":{"bench":"yes","bin":"yes","bus":"yes","gtfs:feed":"US-WA-KCM","gtfs:stop_id":"68630","highway":"bus_stop","lit":"yes","name":"148th Ave SE & SE 16th St","network":"King County Metro","network:short":"KCM","network:wikidata":"Q6411393","operator":"King County Metro","operator:short":"KCM","operator:wikidata":"Q6411393","operator:wikipedia":"en:King County Metro","public_transport":"platform","ref":"68630","route_ref":"223;226","shelter":"yes","tactile_paving":"no","wheelchair":"yes"}},{"type":"node","id":4584388000,"lat":47.6070639,"lon":-122.1321012,"tags":{"bench":"no","bin":"no","bus":"yes","gtfs:feed":"US-WA-KCM","gtfs:stop_id":"68690","highway":"bus_stop","name":"156th Ave SE & SE 4th St","network":"King County Metro","network:short":"KCM","network:wikidata":"Q6411393","operator":"King County Metro","operator:short":"KCM","operator:wikidata":"Q6411393","operator:wikipedia":"en:King County Metro","public_transport":"platform","ref":"68690","route_ref":"223;226","shelter":"no","wheelchair":"yes"}},{"type":"node","id":4584388001,"lat":47.6038833,"lon":-122.130951,"tags":{"bench":"no","bin":"no","bus":"yes","gtfs:feed":"US-WA-KCM","gtfs:stop_id":"68680","highway":"bus_stop","lit":"no","name":"156th Ave SE & Lake Hills Blvd","network":"King County Metro","network:short":"KCM","network:wikidata":"Q6411393","operator":"King County Metro","operator:short":"KCM","operator:wikidata":"Q6411393","operator:wikipedia":"en:King County Metro","public_transport":"platform","ref":"68680","route_ref":"223;226","shelter":"no","wheelchair":"yes"}},{"type":"node","id":4584388003,"lat":47.5919033,"lon":-122.1425535,"tags":{"bench":"yes","bin":"yes","bus":"yes","gtfs:feed":"US-WA-KCM","gtfs:stop_id":"68620","highway":"bus_stop","lit":"yes","name":"148th Ave SE & SE 22nd St","network":"King County Metro","network:short":"KCM","network:wikidata":"Q6411393","operator":"King County Metro","operator:short":"KCM","operator:wikidata":"Q6411393","operator:wikipedia":"en:King County Metro","public_transport":"platform","ref":"68620","route_ref":"223;226","shelter":"yes","tactile_paving":"no","wheelchair":"yes"}},{"type":"node","id":4584388004,"lat":47.5893299,"lon":-122.1425199,"tags":{"bench":"yes","bin":"yes","bus":"yes","gtfs:feed":"US-WA-KCM","gtfs:stop_id":"68610","highway":"bus_stop","lit":"yes","name":"148th Ave SE & SE 24th St","network":"King County Metro","network:short":"KCM","network:wikidata":"Q6411393","operator":"King County Metro","operator:short":"KCM","operator:wikidata":"Q6411393","operator:wikipedia":"en:King County Metro","public_transport":"platform","ref":"68610","route_ref":"223;226","shelter":"yes","wheelchair":"yes"}},{"type":"node","id":4584388020,"lat":47.6079569,"lon":-122.121229,"tags":{"bench":"no","bin":"no","bus":"yes","gtfs:feed":"US-WA-KCM","gtfs:stop_id":"67200","highway":"bus_stop","lit":"no","name":"164th Ave SE & SE 2nd St","network":"King County Metro","network:short":"KCM","network:wikidata":"Q6411393","operator":"King County Metro","operator:short":"KCM","operator:wikidata":"Q6411393","operator:wikipedia":"en:King County Metro","public_transport":"platform","ref":"67200","route_ref":"221;226","shelter":"no","tactile_paving":"no","wheelchair":"yes"}},{"type":"node","id":4584388021,"lat":47.6099863,"lon":-122.1212189,"tags":{"bench":"no","bin":"no","bus":"yes","gtfs:feed":"US-WA-KCM","gtfs:stop_id":"67210","highway":"bus_stop","lit":"no","name":"164th Ave NE & Main St","network":"King County Metro","network:short":"KCM","network:wikidata":"Q6411393","operator":"King County Metro","operator:short":"KCM","operator:wikidata":"Q6411393","operator:wikipedia":"en:King County Metro","public_transport":"platform","ref":"67210","route_ref":"221;226","shelter":"no","tactile_paving":"no","wheelchair":"yes"}},{"type":"node","id":4584388022,"lat":47.6041419,"lon":-122.121301,"tags":{"bench":"no","bin":"no","bus":"yes","gtfs:feed":"US-WA-KCM","gtfs:stop_id":"67180","highway":"bus_stop","lit":"yes","name":"164th Ave SE & SE 7th St","network":"King County Metro","network:short":"KCM","network:wikidata":"Q6411393","operator":"King County Metro","operator:short":"KCM","operator:wikidata":"Q6411393","operator:wikipedia":"en:King County Metro","public_transport":"platform","ref":"67180","route_ref":"221;226","shelter":"no","wheelchair":"yes"}},{"type":"node","id":4584388023,"lat":47.605691,"lon":-122.1212657,"tags":{"bench":"no","bin":"no","bus":"yes","gtfs:feed":"US-WA-KCM","gtfs:stop_id":"67190","highway":"bus_stop","lit":"yes","name":"164th Ave SE & Lake Hills Blvd","network":"King County Metro","network:short":"KCM","network:wikidata":"Q6411393","operator":"King County Metro","operator:short":"KCM","operator:wikidata":"Q6411393","operator:wikipedia":"en:King County Metro","public_transport":"platform","ref":"67190","route_ref":"221;226","shelter":"no","tactile_paving":"no","wheelchair":"yes"}},{"type":"node","id":4584388024,"lat":47.6000609,"lon":-122.120891,"tags":{"bench":"no","bin":"no","bus":"yes","gtfs:feed":"US-WA-KCM","gtfs:stop_id":"67160","highway":"bus_stop","name":"164th Ave SE & SE 12th St","network":"King County Metro","network:short":"KCM","network:wikidata":"Q6411393","operator":"King County Metro","operator:short":"KCM","operator:wikidata":"Q6411393","operator:wikipedia":"en:King County Metro","public_transport":"platform","ref":"67160","route_ref":"221;226","shelter":"no","wheelchair":"yes"}},{"type":"node","id":4584388025,"lat":47.6022651,"lon":-122.121202,"tags":{"bench":"no","bin":"no","bus":"yes","gtfs:feed":"US-WA-KCM","gtfs:stop_id":"67170","highway":"bus_stop","lit":"yes","name":"164th Ave SE & SE 9th St","network":"King County Metro","network:short":"KCM","network:wikidata":"Q6411393","operator":"King County Metro","operator:short":"KCM","operator:wikidata":"Q6411393","operator:wikipedia":"en:King County Metro","public_transport":"platform","ref":"67170","route_ref":"221;226","shelter":"no","wheelchair":"yes"}},{"type":"node","id":4584388030,"lat":47.590809,"lon":-122.1394701,"tags":{"bench":"no","bin":"no","bus":"yes","gtfs:feed":"US-WA-KCM","gtfs:stop_id":"68889","highway":"bus_stop","lit":"no","name":"SE 22nd St & 150th Ave SE","network":"King County Metro","network:short":"KCM","network:wikidata":"Q6411393","operator":"King County Metro","operator:short":"KCM","operator:wikidata":"Q6411393","operator:wikipedia":"en:King County Metro","public_transport":"platform","ref":"68889","route_ref":"221;226","shelter":"no","tactile_paving":"no","wheelchair":"yes"}},{"type":"node","id":4584388031,"lat":47.5981929,"lon":-122.119674,"tags":{"bench":"no","bin":"no","bus":"yes","gtfs:feed":"US-WA-KCM","gtfs:stop_id":"67150","highway":"bus_stop","name":"SE 14th St & 165th Ave SE","network":"King County Metro","network:short":"KCM","network:wikidata":"Q6411393","operator":"King County Metro","operator:short":"KCM","operator:wikidata":"Q6411393","operator:wikipedia":"en:King County Metro","public_transport":"platform","ref":"67150","route_ref":"221;226","shelter":"no","wheelchair":"yes"}},{"type":"node","id":4584388034,"lat":47.5889239,"lon":-122.1213139,"tags":{"bus":"yes","gtfs:feed":"US-WA-KCM","gtfs:stop_id":"71661","highway":"bus_stop","name":"SE 24th St & 161st Ave SE","network":"King County Metro","network:short":"KCM","network:wikidata":"Q6411393","operator":"King County Metro","operator:short":"KCM","operator:wikidata":"Q6411393","operator:wikipedia":"en:King County Metro","public_transport":"platform","ref":"71661","route_ref":"221;226","wheelchair":"yes"}},{"type":"node","id":4584388036,"lat":47.5889801,"lon":-122.1319725,"tags":{"bus":"yes","gtfs:feed":"US-WA-KCM","gtfs:stop_id":"71658","highway":"bus_stop","name":"SE 24th St & 156th Ave SE","network":"King County Metro","network:short":"KCM","network:wikidata":"Q6411393","operator":"King County Metro","operator:short":"KCM","operator:wikidata":"Q6411393","operator:wikipedia":"en:King County Metro","public_transport":"platform","ref":"71658","route_ref":"221;226","wheelchair":"yes"}},{"type":"node","id":4584388037,"lat":47.5889598,"lon":-122.1281853,"tags":{"bus":"yes","gtfs:feed":"US-WA-KCM","gtfs:stop_id":"71660","highway":"bus_stop","name":"SE 24th St & 158th Ave SE","network":"King County Metro","network:short":"KCM","network:wikidata":"Q6411393","operator":"King County Metro","operator:short":"KCM","operator:wikidata":"Q6411393","operator:wikipedia":"en:King County Metro","public_transport":"platform","ref":"71660","route_ref":"221;226","wheelchair":"yes"}},{"type":"node","id":4584388048,"lat":47.6114864,"lon":-122.1324098,"tags":{"bench":"no","bin":"no","bus":"yes","gtfs:feed":"US-WA-KCM","gtfs:stop_id":"68470","highway":"bus_stop","name":"156th Ave NE & NE 1st St","network":"King County Metro","network:short":"KCM","network:wikidata":"Q6411393","operator":"King County Metro","operator:short":"KCM","operator:wikidata":"Q6411393","operator:wikipedia":"en:King County Metro","public_transport":"platform","ref":"68470","route_ref":"223;226;245","shelter":"no","wheelchair":"yes"}},{"type":"node","id":4720930302,"lat":47.6059235,"lon":-122.1400695,"tags":{"amenity":"bench","backrest":"yes","material":"wood"}},{"type":"node","id":4725640045,"lat":47.5926001,"lon":-122.1403306},{"type":"node","id":4725640046,"lat":47.5926266,"lon":-122.1403308},{"type":"node","id":4725640047,"lat":47.5926264,"lon":-122.1403792},{"type":"node","id":4725640048,"lat":47.5925999,"lon":-122.140379},{"type":"node","id":4726421749,"lat":47.5991525,"lon":-122.122174},{"type":"node","id":4726421750,"lat":47.5991532,"lon":-122.1221411},{"type":"node","id":4726421751,"lat":47.599131,"lon":-122.1221055},{"type":"node","id":4726421752,"lat":47.5991067,"lon":-122.1221051},{"type":"node","id":4726421753,"lat":47.5990919,"lon":-122.1221315},{"type":"node","id":4726421754,"lat":47.5990919,"lon":-122.1221635},{"type":"node","id":4726421755,"lat":47.5991141,"lon":-122.1221963},{"type":"node","id":4726421756,"lat":47.5991381,"lon":-122.1221972},{"type":"node","id":4726862419,"lat":47.5966798,"lon":-122.1341449,"tags":{"amenity":"toilets"}},{"type":"node","id":4728748532,"lat":47.6054475,"lon":-122.1422299,"tags":{"amenity":"bench","backrest":"yes","material":"wood"}},{"type":"node","id":4728748533,"lat":47.6056522,"lon":-122.1382769,"tags":{"amenity":"bench"}},{"type":"node","id":4730104543,"lat":47.6025832,"lon":-122.137395,"tags":{"amenity":"bench"}},{"type":"node","id":4730104544,"lat":47.6025594,"lon":-122.1373836,"tags":{"amenity":"bench"}},{"type":"node","id":4730104545,"lat":47.5965263,"lon":-122.1316133,"tags":{"amenity":"bench","backrest":"no"}},{"type":"node","id":4730104546,"lat":47.5982839,"lon":-122.1315746,"tags":{"amenity":"bench"}},{"type":"node","id":4730204339,"lat":47.5887395,"lon":-122.1403894,"tags":{"amenity":"bench","backrest":"yes"}},{"type":"node","id":4730204340,"lat":47.5887216,"lon":-122.1403938,"tags":{"amenity":"bench","backrest":"yes"}},{"type":"node","id":4730204347,"lat":47.5906984,"lon":-122.1421156,"tags":{"amenity":"bench"}},{"type":"node","id":4730204348,"lat":47.589314,"lon":-122.1416359,"tags":{"amenity":"bench","backrest":"yes"}},{"type":"node","id":4730801829,"lat":47.6080722,"lon":-122.1782057,"tags":{"amenity":"bench","backrest":"yes","inscription":"Antonia T. Woodworth Bench"}},{"type":"node","id":4730801832,"lat":47.6083113,"lon":-122.1783104,"tags":{"amenity":"bench","backrest":"yes","inscription":"Virginia Harjung Bench"}},{"type":"node","id":4730801834,"lat":47.6083914,"lon":-122.1779927,"tags":{"amenity":"bench","backrest":"no","fixme":"Verify existence"}},{"type":"node","id":4730801835,"lat":47.6087087,"lon":-122.1780866,"tags":{"amenity":"bench","backrest":"no","fixme":"Verify existence"}},{"type":"node","id":4730801840,"lat":47.6090375,"lon":-122.1802317,"tags":{"amenity":"bench","dedication":"Deanna Armstrong Bench","inscription":"Deanna Armstrong Bench"}},{"type":"node","id":4730801841,"lat":47.6088648,"lon":-122.180071,"tags":{"amenity":"bench"}},{"type":"node","id":4730801842,"lat":47.6088656,"lon":-122.1803685,"tags":{"amenity":"bench","inscription":"Alton Family Bench","start_date":"2024"}},{"type":"node","id":4730801843,"lat":47.6088172,"lon":-122.1801398,"tags":{"amenity":"bench"}},{"type":"node","id":4730801844,"lat":47.6085337,"lon":-122.1799135,"tags":{"amenity":"bench","backrest":"yes","inscription":"Bruce Watson Bench"}},{"type":"node","id":4730801845,"lat":47.6087442,"lon":-122.1798664,"tags":{"amenity":"bench","inscription":"Roberta Corets Bench"}},{"type":"node","id":4730801846,"lat":47.6086766,"lon":-122.1790831,"tags":{"amenity":"bench","backrest":"no","material":"wood"}},{"type":"node","id":4730801848,"lat":47.608576,"lon":-122.1791089,"tags":{"amenity":"bench","backrest":"yes","direction":"355","image":"File:Bellevue, WA (2023) - 28.jpg","inscription":"Janeen Peterson Bench","material":"wood"}},{"type":"node","id":4730801851,"lat":47.6092671,"lon":-122.1788243,"tags":{"name":"Trillium Store","opening_hours":"Mo-Su 10:00-16:00","shop":"gift","wheelchair":"yes"}},{"type":"node","id":4730801852,"lat":47.6092429,"lon":-122.1795815,"tags":{"amenity":"toilets","fee":"no","toilets:handwashing":"yes","wheelchair":"yes"}},{"type":"node","id":4731691315,"lat":47.603869,"lon":-122.1636354,"tags":{"amenity":"bench","name":"Cow"}},{"type":"node","id":4731693844,"lat":47.6045073,"lon":-122.1649042,"tags":{"amenity":"drinking_water","check_date":"2024-09-29","fountain":"bubbler"}},{"type":"node","id":4731693852,"lat":47.6050896,"lon":-122.1665094,"tags":{"amenity":"bench","backrest":"yes"}},{"type":"node","id":4731693857,"lat":47.604912,"lon":-122.1658464,"tags":{"amenity":"bench","backrest":"yes"}},{"type":"node","id":4731693902,"lat":47.6028742,"lon":-122.1666059,"tags":{"amenity":"bench"}},{"type":"node","id":4748220247,"lat":47.5923481,"lon":-122.1312826},{"type":"node","id":4748220248,"lat":47.5923291,"lon":-122.1311924},{"type":"node","id":4748220249,"lat":47.5922786,"lon":-122.1312157},{"type":"node","id":4748220250,"lat":47.5922975,"lon":-122.1313059},{"type":"node","id":4753933708,"lat":47.5873165,"lon":-122.1376108},{"type":"node","id":4753933709,"lat":47.5874556,"lon":-122.1379985},{"type":"node","id":4753933710,"lat":47.5876993,"lon":-122.1379958},{"type":"node","id":4753933711,"lat":47.5875961,"lon":-122.1424582},{"type":"node","id":4755544829,"lat":47.5940104,"lon":-122.1906094,"tags":{"amenity":"bench"}},{"type":"node","id":4757440666,"lat":47.6093471,"lon":-122.1436658},{"type":"node","id":4757440667,"lat":47.609344,"lon":-122.1433578},{"type":"node","id":4757440668,"lat":47.6092845,"lon":-122.1433592},{"type":"node","id":4757440669,"lat":47.6092848,"lon":-122.1433942},{"type":"node","id":4757440670,"lat":47.6092691,"lon":-122.1433945},{"type":"node","id":4757440671,"lat":47.6092697,"lon":-122.1434487},{"type":"node","id":4757440672,"lat":47.6092143,"lon":-122.1434499},{"type":"node","id":4757440673,"lat":47.6092166,"lon":-122.1436688},{"type":"node","id":4770412410,"lat":47.6032365,"lon":-122.1289091},{"type":"node","id":4770412411,"lat":47.6031877,"lon":-122.1288828},{"type":"node","id":4770412412,"lat":47.6032089,"lon":-122.1287964},{"type":"node","id":4770412413,"lat":47.6032576,"lon":-122.1288227},{"type":"node","id":4782560557,"lat":47.5970361,"lon":-122.1501593,"tags":{"addr:city":"Bellevue","addr:housenumber":"1500","addr:postcode":"98007","addr:state":"WA","addr:street":"145th Place Southeast","amenity":"dentist","check_date":"2024-05-04","healthcare":"dentist","name":"Mint Kids Dentistry","operator":"Dr. Soo Jun","phone":"+1-425-321-0833","website":"https://www.mintkidsdentistry.com/"}},{"type":"node","id":4789030211,"lat":47.5867377,"lon":-122.145461},{"type":"node","id":4789030212,"lat":47.5865001,"lon":-122.1474543,"tags":{"highway":"turning_circle"}},{"type":"node","id":4789030213,"lat":47.5867124,"lon":-122.1473751},{"type":"node","id":4789030214,"lat":47.5869298,"lon":-122.1472579},{"type":"node","id":4789030215,"lat":47.5870531,"lon":-122.1471428},{"type":"node","id":4789030216,"lat":47.5871272,"lon":-122.1470336},{"type":"node","id":4789030217,"lat":47.5871858,"lon":-122.1469447},{"type":"node","id":4789030218,"lat":47.5872407,"lon":-122.1468475},{"type":"node","id":4789030219,"lat":47.587361,"lon":-122.1465564},{"type":"node","id":4789030220,"lat":47.5874237,"lon":-122.1463697},{"type":"node","id":4789031621,"lat":47.5874589,"lon":-122.146205},{"type":"node","id":4789031622,"lat":47.5874811,"lon":-122.145982},{"type":"node","id":4789031623,"lat":47.5866707,"lon":-122.1464532},{"type":"node","id":4789031624,"lat":47.5863754,"lon":-122.1464142},{"type":"node","id":4789401004,"lat":47.5854928,"lon":-122.1440639},{"type":"node","id":4789401013,"lat":47.5854934,"lon":-122.1437067},{"type":"node","id":4790755656,"lat":47.6042185,"lon":-122.132643,"tags":{"addr:city":"Bellevue","addr:housenumber":"671","addr:postcode":"98007","addr:state":"WA","addr:street":"156th Avenue Southeast","check_date":"2024-08-17","name":"Silhouette","opening_hours":"Tu-Fr 10:00-19:00; Sa 09:00-17:00; Su,Mo off","phone":"+1-425-429-3550","shop":"beauty","website":"https://silhouettehairsalonandspa.com/","wheelchair":"yes"}},{"type":"node","id":4790755659,"lat":47.6039497,"lon":-122.1326368,"tags":{"addr:city":"Bellevue","addr:housenumber":"693","addr:postcode":"98007","addr:state":"WA","addr:street":"156th Avenue Southeast","check_date":"2025-06-03","healthcare":"alternative","name":"Unity Health Center","phone":"+1-425-616-2668","website":"https://drwuhealth.com/"}},{"type":"node","id":4790884930,"lat":47.5977165,"lon":-122.1506026,"tags":{"amenity":"bench","backrest":"yes"}},{"type":"node","id":4794597106,"lat":47.5941437,"lon":-122.1509017,"tags":{"amenity":"bench"}},{"type":"node","id":4794597107,"lat":47.5941038,"lon":-122.150902,"tags":{"amenity":"bench"}},{"type":"node","id":4795955133,"lat":47.582219,"lon":-122.1431369},{"type":"node","id":4795955149,"lat":47.581814,"lon":-122.143829},{"type":"node","id":4795955152,"lat":47.5817966,"lon":-122.1482494},{"type":"node","id":4796314465,"lat":47.5889863,"lon":-122.1408849,"tags":{"amenity":"bench","backrest":"yes"}},{"type":"node","id":4796314466,"lat":47.5889758,"lon":-122.141076,"tags":{"amenity":"drinking_water","bottle":"no","fee":"no","wheelchair":"yes","winter_service":"no"}},{"type":"node","id":4796314467,"lat":47.5877514,"lon":-122.1376214},{"type":"node","id":4796314468,"lat":47.5877156,"lon":-122.1423049,"tags":{"barrier":"gate"}},{"type":"node","id":4796314469,"lat":47.5877443,"lon":-122.1421391,"tags":{"amenity":"bench","backrest":"yes"}},{"type":"node","id":4796314470,"lat":47.5875014,"lon":-122.1423694,"tags":{"amenity":"bench","backrest":"yes"}},{"type":"node","id":4936217634,"lat":47.6104789,"lon":-122.1853926,"tags":{"barrier":"kerb","kerb":"lowered"}},{"type":"node","id":4936217636,"lat":47.6100609,"lon":-122.1853547,"tags":{"barrier":"kerb","kerb":"lowered","tactile_paving":"yes"}},{"type":"node","id":4936217639,"lat":47.6099325,"lon":-122.1853691,"tags":{"barrier":"kerb","kerb":"lowered","tactile_paving":"yes"}},{"type":"node","id":4936217641,"lat":47.6099143,"lon":-122.1853686},{"type":"node","id":4936217649,"lat":47.6083698,"lon":-122.1853587},{"type":"node","id":4936217655,"lat":47.6083775,"lon":-122.1852093},{"type":"node","id":4936217658,"lat":47.6086274,"lon":-122.1851977},{"type":"node","id":4936217660,"lat":47.608663,"lon":-122.1851915},{"type":"node","id":4936217663,"lat":47.6093604,"lon":-122.1841816,"tags":{"barrier":"kerb","kerb":"lowered"}},{"type":"node","id":4936217664,"lat":47.6092752,"lon":-122.1844119},{"type":"node","id":4936217665,"lat":47.6095664,"lon":-122.1839497},{"type":"node","id":4936217666,"lat":47.6094222,"lon":-122.1840763},{"type":"node","id":4936217667,"lat":47.609714,"lon":-122.1839072},{"type":"node","id":4936217670,"lat":47.6103553,"lon":-122.1836804},{"type":"node","id":4936217671,"lat":47.6105545,"lon":-122.1835741},{"type":"node","id":4936217673,"lat":47.6110192,"lon":-122.1829324},{"type":"node","id":4936217674,"lat":47.6110731,"lon":-122.18278},{"type":"node","id":4936217676,"lat":47.6100487,"lon":-122.1834863},{"type":"node","id":4936217677,"lat":47.6100432,"lon":-122.1834188},{"type":"node","id":4936217678,"lat":47.6100437,"lon":-122.183333},{"type":"node","id":4936217679,"lat":47.6100428,"lon":-122.183154},{"type":"node","id":4936217680,"lat":47.6100652,"lon":-122.183543},{"type":"node","id":4936217681,"lat":47.6101017,"lon":-122.1835824},{"type":"node","id":4936217684,"lat":47.6103158,"lon":-122.1835187},{"type":"node","id":4936217685,"lat":47.6104166,"lon":-122.1834767},{"type":"node","id":4936217686,"lat":47.6104851,"lon":-122.1834352},{"type":"node","id":4936217687,"lat":47.6106816,"lon":-122.1832478},{"type":"node","id":4936217689,"lat":47.6107517,"lon":-122.1831519},{"type":"node","id":4936217690,"lat":47.6108071,"lon":-122.1830682},{"type":"node","id":4936217691,"lat":47.6109944,"lon":-122.182622,"tags":{"barrier":"kerb","kerb":"lowered"}},{"type":"node","id":4936217696,"lat":47.6113217,"lon":-122.1805997},{"type":"node","id":4936217756,"lat":47.6115262,"lon":-122.1802826},{"type":"node","id":4936217757,"lat":47.6116337,"lon":-122.1802087,"tags":{"barrier":"kerb","kerb":"lowered"}},{"type":"node","id":4936217830,"lat":47.6100956,"lon":-122.1853635},{"type":"node","id":4936217836,"lat":47.6083465,"lon":-122.1853475},{"type":"node","id":4936217837,"lat":47.6083364,"lon":-122.1853281},{"type":"node","id":4936217839,"lat":47.6083301,"lon":-122.1853027},{"type":"node","id":4936217840,"lat":47.6083311,"lon":-122.1852831},{"type":"node","id":4936217841,"lat":47.6083399,"lon":-122.1852572},{"type":"node","id":4936217842,"lat":47.6083548,"lon":-122.1852318},{"type":"node","id":4936217844,"lat":47.6084228,"lon":-122.1851998},{"type":"node","id":4936217848,"lat":47.6087952,"lon":-122.1852111,"tags":{"barrier":"kerb","kerb":"raised"}},{"type":"node","id":4936217851,"lat":47.608905,"lon":-122.1851084,"tags":{"barrier":"kerb","kerb":"lowered","tactile_paving":"yes"}},{"type":"node","id":4936217852,"lat":47.6089185,"lon":-122.1850962},{"type":"node","id":4936217853,"lat":47.6089683,"lon":-122.185051},{"type":"node","id":4936217855,"lat":47.6090308,"lon":-122.1849655},{"type":"node","id":4936217857,"lat":47.6090928,"lon":-122.1848571},{"type":"node","id":4936217859,"lat":47.60917,"lon":-122.1846826},{"type":"node","id":4936217860,"lat":47.6092277,"lon":-122.1845388},{"type":"node","id":4936217864,"lat":47.6095144,"lon":-122.1839838},{"type":"node","id":4936217865,"lat":47.609628,"lon":-122.1839265},{"type":"node","id":4936217866,"lat":47.6099447,"lon":-122.1838265},{"type":"node","id":4936217873,"lat":47.6104581,"lon":-122.1836352},{"type":"node","id":4936217875,"lat":47.6106522,"lon":-122.1834907},{"type":"node","id":4936217877,"lat":47.6107319,"lon":-122.1834123},{"type":"node","id":4936217878,"lat":47.6107968,"lon":-122.183331,"tags":{"barrier":"kerb","kerb":"lowered"}},{"type":"node","id":4936217880,"lat":47.6109168,"lon":-122.1831497},{"type":"node","id":4936217881,"lat":47.6109682,"lon":-122.1830509},{"type":"node","id":4936217885,"lat":47.6111404,"lon":-122.1825552},{"type":"node","id":4936217886,"lat":47.6111899,"lon":-122.1823639},{"type":"node","id":4936217887,"lat":47.6112312,"lon":-122.1821706},{"type":"node","id":4936217889,"lat":47.6112815,"lon":-122.181883,"tags":{"barrier":"kerb","kerb":"lowered"}},{"type":"node","id":4936217891,"lat":47.6113117,"lon":-122.1816595},{"type":"node","id":4936217892,"lat":47.6113346,"lon":-122.181438},{"type":"node","id":4936217896,"lat":47.6113506,"lon":-122.1811189},{"type":"node","id":4936217897,"lat":47.6113614,"lon":-122.1809813},{"type":"node","id":4936217898,"lat":47.6113734,"lon":-122.1808949},{"type":"node","id":4936217899,"lat":47.6114074,"lon":-122.1807639},{"type":"node","id":4936217900,"lat":47.611452,"lon":-122.1806537},{"type":"node","id":4936217904,"lat":47.6115054,"lon":-122.1805587},{"type":"node","id":4936217905,"lat":47.6115709,"lon":-122.1804838},{"type":"node","id":4936217906,"lat":47.6116475,"lon":-122.1804282},{"type":"node","id":4936217907,"lat":47.6117575,"lon":-122.1803678},{"type":"node","id":4936217908,"lat":47.6118321,"lon":-122.1803527},{"type":"node","id":4936217950,"lat":47.6114348,"lon":-122.1803852},{"type":"node","id":4936217951,"lat":47.6114231,"lon":-122.1804192,"tags":{"barrier":"kerb","kerb":"lowered"}},{"type":"node","id":4936217952,"lat":47.611328,"lon":-122.18057},{"type":"node","id":4936217953,"lat":47.6113272,"lon":-122.1805386},{"type":"node","id":4936217956,"lat":47.6112816,"lon":-122.1807151},{"type":"node","id":4936217958,"lat":47.6112601,"lon":-122.1807904},{"type":"node","id":4936217960,"lat":47.6112439,"lon":-122.1808696},{"type":"node","id":4936217961,"lat":47.6112314,"lon":-122.1809588},{"type":"node","id":4936217962,"lat":47.611227,"lon":-122.1810276},{"type":"node","id":4936217963,"lat":47.6112273,"lon":-122.1812202},{"type":"node","id":4936217964,"lat":47.6112151,"lon":-122.1814522},{"type":"node","id":4936217965,"lat":47.6112,"lon":-122.1816154},{"type":"node","id":4936217966,"lat":47.6111683,"lon":-122.1818471,"tags":{"barrier":"kerb","kerb":"lowered"}},{"type":"node","id":4936217967,"lat":47.6110962,"lon":-122.1822396},{"type":"node","id":4936217968,"lat":47.6110288,"lon":-122.1825038,"tags":{"barrier":"kerb","kerb":"lowered"}},{"type":"node","id":4936217969,"lat":47.6109356,"lon":-122.1827991},{"type":"node","id":4936217970,"lat":47.6108729,"lon":-122.1829414},{"type":"node","id":4936217972,"lat":47.610628,"lon":-122.1833132},{"type":"node","id":4936217973,"lat":47.6105481,"lon":-122.1833854},{"type":"node","id":4936217979,"lat":47.6100389,"lon":-122.1828014},{"type":"node","id":4936217980,"lat":47.6100416,"lon":-122.1827865},{"type":"node","id":4959299318,"lat":47.6093742,"lon":-122.1786712,"tags":{"amenity":"bench","backrest":"yes","material":"wood"}},{"type":"node","id":4979766278,"lat":47.608703,"lon":-122.1853613},{"type":"node","id":4979766279,"lat":47.6098525,"lon":-122.1853683},{"type":"node","id":5003924942,"lat":47.6118731,"lon":-122.1910818},{"type":"node","id":5003924943,"lat":47.6102083,"lon":-122.1910017},{"type":"node","id":5003924945,"lat":47.6118238,"lon":-122.1910448},{"type":"node","id":5003952892,"lat":47.6102235,"lon":-122.1907},{"type":"node","id":5057085616,"lat":47.6085198,"lon":-122.1909727},{"type":"node","id":5057085617,"lat":47.6078756,"lon":-122.1909553},{"type":"node","id":5057085618,"lat":47.6070058,"lon":-122.1909492},{"type":"node","id":5057085619,"lat":47.6068846,"lon":-122.1909472},{"type":"node","id":5057086723,"lat":47.6099879,"lon":-122.1931054,"tags":{"barrier":"kerb","kerb":"lowered","tactile_paving":"yes","wheelchair":"yes"}},{"type":"node","id":5057169181,"lat":47.6099949,"lon":-122.1929206,"tags":{"barrier":"kerb","kerb":"lowered","tactile_paving":"yes","wheelchair":"yes"}},{"type":"node","id":5221746854,"lat":47.6102047,"lon":-122.1906996},{"type":"node","id":5531390668,"lat":47.606797,"lon":-122.1793865,"tags":{"amenity":"bench","backrest":"yes","fixme":"Verify existance"}},{"type":"node","id":5745977625,"lat":47.6085427,"lon":-122.1788052,"tags":{"amenity":"bench"}},{"type":"node","id":5745977626,"lat":47.6075049,"lon":-122.1793921,"tags":{"amenity":"bench","backrest":"yes","inscription":"Cristin Hobson Bench"}},{"type":"node","id":5745977628,"lat":47.6071046,"lon":-122.1800177,"tags":{"amenity":"bench","backrest":"yes","inscription":"Eva Fias Bench"}},{"type":"node","id":5745977629,"lat":47.6076491,"lon":-122.1788031,"tags":{"amenity":"bench","backrest":"yes","inscription":"Lyle Hassebroek Bench"}},{"type":"node","id":5759462302,"lat":47.6099581,"lon":-122.1910019},{"type":"node","id":5759462303,"lat":47.6099689,"lon":-122.1909777,"tags":{"barrier":"kerb","kerb":"lowered","tactile_paving":"yes","wheelchair":"yes"}},{"type":"node","id":5759462304,"lat":47.6099489,"lon":-122.1906663,"tags":{"barrier":"kerb","kerb":"lowered","tactile_paving":"yes","wheelchair":"yes"}},{"type":"node","id":5760820803,"lat":47.6101371,"lon":-122.1837578},{"type":"node","id":5760820805,"lat":47.6101237,"lon":-122.1835909},{"type":"node","id":5760824002,"lat":47.6110912,"lon":-122.1803471,"tags":{"fixme":"add curb cut info"}},{"type":"node","id":5760824003,"lat":47.6111011,"lon":-122.1803029},{"type":"node","id":5760824004,"lat":47.6111246,"lon":-122.1802875},{"type":"node","id":5760824005,"lat":47.6111454,"lon":-122.1802915},{"type":"node","id":5760824006,"lat":47.6111807,"lon":-122.1803237},{"type":"node","id":5760824007,"lat":47.6112227,"lon":-122.1803639},{"type":"node","id":5760824008,"lat":47.6112946,"lon":-122.1804578},{"type":"node","id":5760824009,"lat":47.6113213,"lon":-122.1805087},{"type":"node","id":5835147057,"lat":47.5864668,"lon":-122.1558302},{"type":"node","id":5835147058,"lat":47.5864312,"lon":-122.1558506},{"type":"node","id":5835147059,"lat":47.5863517,"lon":-122.1558546},{"type":"node","id":5835147060,"lat":47.5862886,"lon":-122.1557774},{"type":"node","id":5835147061,"lat":47.5862859,"lon":-122.1557367},{"type":"node","id":5835147062,"lat":47.5863791,"lon":-122.1557164},{"type":"node","id":5835147063,"lat":47.5864805,"lon":-122.1556676},{"type":"node","id":5835147064,"lat":47.5865765,"lon":-122.1556229},{"type":"node","id":5835147065,"lat":47.5866807,"lon":-122.155566},{"type":"node","id":5835147066,"lat":47.5866644,"lon":-122.1556558},{"type":"node","id":5835147067,"lat":47.5864577,"lon":-122.1557609},{"type":"node","id":5909083356,"lat":47.6027566,"lon":-122.1804885,"tags":{"bench":"no","bus":"yes","gtfs:feed":"US-WA-KCM","gtfs:stop_id":"70815","highway":"bus_stop","name":"121st Ave SE & SE 8th St","network":"King County Metro","network:short":"KCM","network:wikidata":"Q6411393","operator":"King County Metro","operator:short":"KCM","operator:wikidata":"Q6411393","operator:wikipedia":"en:King County Metro","passenger_information_display":"no","public_transport":"platform","ref":"70815","route_ref":"246","shelter":"no","wheelchair":"yes"}},{"type":"node","id":5909083357,"lat":47.6032124,"lon":-122.1796356,"tags":{"bench":"no","bin":"no","bus":"yes","check_date:shelter":"2023-05-19","gtfs:feed":"US-WA-KCM","gtfs:stop_id":"70825","highway":"bus_stop","name":"SE 8th St & 121st Ave SE","network":"King County Metro","network:short":"KCM","network:wikidata":"Q6411393","operator":"King County Metro","operator:short":"KCM","operator:wikidata":"Q6411393","operator:wikipedia":"en:King County Metro","passenger_information_display":"no","public_transport":"platform","ref":"70825","route_ref":"240","shelter":"no","wheelchair":"no"}},{"type":"node","id":5910552995,"lat":47.6092776,"lon":-122.1798331,"tags":{"amenity":"bench","inscription":"Lou and Nicole Mertes Bench"}},{"type":"node","id":6051738189,"lat":47.6045384,"lon":-122.1648303,"tags":{"amenity":"toilets","female":"yes","male":"yes","wheelchair":"limited"}},{"type":"node","id":6051795322,"lat":47.603855,"lon":-122.1636375,"tags":{"amenity":"bench","name":"Pig"}},{"type":"node","id":6051795323,"lat":47.6032645,"lon":-122.1639601,"tags":{"amenity":"bench","name":"Horse"}},{"type":"node","id":6051795324,"lat":47.6034967,"lon":-122.1638595,"tags":{"amenity":"bench","name":"Rabbit"}},{"type":"node","id":6217838722,"lat":47.6096904,"lon":-122.1424851,"tags":{"addr:city":"Bellevue","addr:housenumber":"40","addr:postcode":"98007","addr:state":"WA","addr:street":"148th Avenue Southeast","amenity":"bank","check_date":"2024-01-16","name":"Sound Credit Union","opening_hours":"Mo-Fr 09:00-18:00; Sa 09:00-13:00; Su off","wheelchair":"yes"}},{"type":"node","id":6217838723,"lat":47.6094552,"lon":-122.1426439,"tags":{"addr:city":"Bellevue","addr:housenumber":"70","addr:postcode":"98007","addr:state":"WA","addr:street":"148th Avenue Southeast","brand":"The Joint Chiropractic","brand:wikidata":"Q108611980","check_date":"2023-11-28","contact:phone":"+1-425-276-7596","contact:website":"thejoint.com","healthcare":"alternative","healthcare:speciality":"chiropractic","name":"The Joint Chiropractic","opening_hours":"Mo-Fr 10:00-14:00,14:45-19:00; Sa 10:00-14:00,14:45-16:00; Su off","website":"https://www.thejoint.com/washington/bellevue/bellevue-kelsey-creek-42007"}},{"type":"node","id":6364045918,"lat":47.5870247,"lon":-122.191338,"tags":{"bench":"yes","bin":"yes","bus":"yes","gtfs:feed":"US-WA-KCM","gtfs:stop_id":"84292","highway":"bus_stop","lit":"yes","local_ref":"3","name":"South Bellevue Station Bus Plaza - Bay 3","network":"King County Metro","network:short":"KCM","network:wikidata":"Q6411393","operator":"King County Metro","operator:short":"KCM","operator:wikidata":"Q6411393","operator:wikipedia":"en:King County Metro","public_transport":"platform","ref":"84292","route_ref":"203;226;240;241;249;550;556","shelter":"yes","tactile_paving":"no","wheelchair":"yes"}},{"type":"node","id":6418516188,"lat":47.5923562,"lon":-122.1312402,"tags":{"amenity":"drinking_water"}},{"type":"node","id":6418516190,"lat":47.5922281,"lon":-122.129539,"tags":{"amenity":"bench","backrest":"yes"}},{"type":"node","id":6418516287,"lat":47.5924254,"lon":-122.1307126,"tags":{"amenity":"bench","backrest":"yes"}},{"type":"node","id":6418516289,"lat":47.5923277,"lon":-122.1295222,"tags":{"amenity":"bench","backrest":"yes"}},{"type":"node","id":6418544385,"lat":47.5924177,"lon":-122.1308881,"tags":{"amenity":"bench","backrest":"yes"}},{"type":"node","id":6418581888,"lat":47.6107107,"lon":-122.1536667,"tags":{"amenity":"bench","backrest":"yes","material":"metal"}},{"type":"node","id":6517086388,"lat":47.6087208,"lon":-122.1786691,"tags":{"amenity":"bench","inscription":"Neil Fenichel Bench"}},{"type":"node","id":6517093186,"lat":47.6091397,"lon":-122.1786114,"tags":{"amenity":"bench","armrest":"no","backrest":"no","image":"File:Bellevue, WA (2023) - 02.jpg"}},{"type":"node","id":6517093187,"lat":47.6096208,"lon":-122.1789081,"tags":{"amenity":"bench","backrest":"no","inscription":"Robert H. and Marguerite"}},{"type":"node","id":6517093385,"lat":47.6093665,"lon":-122.1788108,"tags":{"amenity":"drinking_water","check_date":"2025-06-10","fountain":"bubbler"}},{"type":"node","id":6517099387,"lat":47.6068692,"lon":-122.1782314,"tags":{"amenity":"bench","backrest":"yes"}},{"type":"node","id":6517099389,"lat":47.6066598,"lon":-122.1760878,"tags":{"amenity":"bench","backrest":"yes"}},{"type":"node","id":6545372560,"lat":47.6047504,"lon":-122.1916804},{"type":"node","id":6545372561,"lat":47.6047417,"lon":-122.1916419},{"type":"node","id":6545372562,"lat":47.6046886,"lon":-122.1916681},{"type":"node","id":6545372563,"lat":47.6046973,"lon":-122.1917066},{"type":"node","id":6597732521,"lat":47.6097398,"lon":-122.1795042,"tags":{"amenity":"bench","armrest":"no","backrest":"yes","image":"File:Bellevue, WA (2023) - 09.jpg","inscription":"Gary McGough Bench","material":"wood"}},{"type":"node","id":6597732522,"lat":47.6097044,"lon":-122.1795038,"tags":{"amenity":"bench","armrest":"no","backrest":"yes","image":"File:Bellevue, WA (2023) - 09.jpg","inscription":"Sarah Reichard Bench","material":"wood"}},{"type":"node","id":6721887381,"lat":47.5994003,"lon":-122.1746709,"tags":{"amenity":"bench"}},{"type":"node","id":6898831360,"lat":47.6097679,"lon":-122.137161,"tags":{"bench":"no","bin":"no","bus":"yes","gtfs:feed":"US-WA-KCM","gtfs:stop_id":"70837","highway":"bus_stop","name":"Main St & 152nd Pl SE","network":"King County Metro","network:short":"KCM","network:wikidata":"Q6411393","operator":"King County Metro","operator:short":"KCM","operator:wikidata":"Q6411393","operator:wikipedia":"en:King County Metro","public_transport":"platform","ref":"70837","route_ref":"245","shelter":"no","wheelchair":"yes"}},{"type":"node","id":6898831361,"lat":47.6085434,"lon":-122.1533853,"tags":{"bench":"yes","bin":"no","bus":"yes","gtfs:feed":"US-WA-KCM","gtfs:stop_id":"70832","highway":"bus_stop","lit":"no","name":"140th Ave SE & SE 1st St","network":"King County Metro","network:short":"KCM","network:wikidata":"Q6411393","network:wikipedia":"en:King County Metro","operator":"King County Metro","operator:short":"KCM","operator:wikidata":"Q6411393","operator:wikipedia":"en:King County Metro","public_transport":"platform","ref":"70832","route_ref":"245","shelter":"yes","tactile_paving":"no","wheelchair":"yes"}},{"type":"node","id":6898831362,"lat":47.6038197,"lon":-122.1533579,"tags":{"bench":"no","bin":"no","bus":"yes","gtfs:feed":"US-WA-KCM","gtfs:stop_id":"70826","highway":"bus_stop","lit":"no","name":"140th Ave SE & SE 7th St","network":"King County Metro","network:short":"KCM","network:wikidata":"Q6411393","network:wikipedia":"en:King County Metro","operator":"King County Metro","operator:short":"KCM","operator:wikidata":"Q6411393","operator:wikipedia":"en:King County Metro","public_transport":"platform","ref":"70826","route_ref":"245","shelter":"no","tactile_paving":"no","wheelchair":"yes"}},{"type":"node","id":6898831363,"lat":47.6048912,"lon":-122.1533658,"tags":{"bench":"no","bin":"no","bus":"yes","gtfs:feed":"US-WA-KCM","gtfs:stop_id":"70828","highway":"bus_stop","name":"140th Ave SE & SE 5th St","network":"King County Metro","network:short":"KCM","network:wikidata":"Q6411393","operator":"King County Metro","operator:short":"KCM","operator:wikidata":"Q6411393","operator:wikipedia":"en:King County Metro","public_transport":"platform","ref":"70828","route_ref":"245","shelter":"no","wheelchair":"yes"}},{"type":"node","id":6898831364,"lat":47.6086993,"lon":-122.1536404,"tags":{"bench":"yes","bin":"no","bus":"yes","gtfs:feed":"US-WA-KCM","gtfs:stop_id":"70802","highway":"bus_stop","name":"140th Ave SE & SE 1st St","network":"King County Metro","network:short":"KCM","network:wikidata":"Q6411393","network:wikipedia":"en:King County Metro","operator":"King County Metro","operator:short":"KCM","operator:wikidata":"Q6411393","operator:wikipedia":"en:King County Metro","public_transport":"platform","ref":"70802","route_ref":"245","shelter":"yes","wheelchair":"yes"}},{"type":"node","id":6898831365,"lat":47.6050293,"lon":-122.1535697,"tags":{"bench":"no","bin":"no","bus":"yes","gtfs:feed":"US-WA-KCM","gtfs:stop_id":"70806","highway":"bus_stop","lit":"yes","name":"140th Ave SE & SE 5th St","network":"King County Metro","network:short":"KCM","network:wikidata":"Q6411393","operator":"King County Metro","operator:short":"KCM","operator:wikidata":"Q6411393","operator:wikipedia":"en:King County Metro","public_transport":"platform","ref":"70806","route_ref":"245","shelter":"no","tactile_paving":"no","wheelchair":"yes"}},{"type":"node","id":6898831366,"lat":47.6099107,"lon":-122.1372638,"tags":{"bench":"no","bin":"no","bus":"yes","gtfs:feed":"US-WA-KCM","gtfs:stop_id":"68472","highway":"bus_stop","name":"Main St & 152nd Pl SE","network":"King County Metro","network:short":"KCM","network:wikidata":"Q6411393","operator":"King County Metro","operator:short":"KCM","operator:wikidata":"Q6411393","operator:wikipedia":"en:King County Metro","public_transport":"platform","ref":"68472","route_ref":"245","shelter":"no","wheelchair":"yes"}},{"type":"node","id":6898831367,"lat":47.6099281,"lon":-122.144188,"tags":{"bench":"yes","bin":"yes","bus":"yes","gtfs:feed":"US-WA-KCM","gtfs:stop_id":"68474","highway":"bus_stop","lit":"no","name":"Main St & 148th Ave NE","network":"King County Metro","network:short":"KCM","network:wikidata":"Q6411393","operator":"King County Metro","operator:short":"KCM","operator:wikidata":"Q6411393","operator:wikipedia":"en:King County Metro","public_transport":"platform","ref":"68474","route_ref":"245","shelter":"yes","tactile_paving":"no","wheelchair":"yes"}},{"type":"node","id":6898831368,"lat":47.6098862,"lon":-122.133118,"tags":{"bus":"yes","gtfs:feed":"US-WA-KCM","gtfs:stop_id":"68471","highway":"bus_stop","name":"Main St & 155th Ave NE","network":"King County Metro","network:short":"KCM","network:wikidata":"Q6411393","operator":"King County Metro","operator:short":"KCM","operator:wikidata":"Q6411393","operator:wikipedia":"en:King County Metro","public_transport":"platform","ref":"68471","route_ref":"245","wheelchair":"yes"}},{"type":"node","id":7041194052,"lat":47.6046994,"lon":-122.1909149},{"type":"node","id":7041194056,"lat":47.5997075,"lon":-122.1909528},{"type":"node","id":7041194081,"lat":47.6013112,"lon":-122.1909207},{"type":"node","id":7071595157,"lat":47.6059068,"lon":-122.140746,"tags":{"amenity":"bench","backrest":"yes","direction":"170","material":"wood"}},{"type":"node","id":7118693475,"lat":47.6101414,"lon":-122.191422,"tags":{"bus":"yes","gtfs:feed":"US-WA-KCM","gtfs:stop_id":"82810","highway":"bus_stop","name":"Main St & 112th Ave NE","network":"King County Metro","network:short":"KCM","network:wikidata":"Q6411393","operator":"King County Metro","operator:short":"KCM","operator:wikidata":"Q6411393","operator:wikipedia":"en:King County Metro","public_transport":"platform","ref":"82810","route_ref":"240;246","wheelchair":"yes"}},{"type":"node","id":7118693477,"lat":47.5961157,"lon":-122.1754166,"tags":{"bus":"yes","gtfs:feed":"US-WA-KCM","gtfs:stop_id":"67038","highway":"bus_stop","name":"123rd Ave SE & SE 17th Pl","network":"King County Metro","network:short":"KCM","network:wikidata":"Q6411393","operator":"King County Metro","operator:short":"KCM","operator:wikidata":"Q6411393","operator:wikipedia":"en:King County Metro","public_transport":"platform","ref":"67038","route_ref":"246","wheelchair":"yes"}},{"type":"node","id":7118693478,"lat":47.6014865,"lon":-122.1784225,"tags":{"bus":"yes","gtfs:feed":"US-WA-KCM","gtfs:stop_id":"67045","highway":"bus_stop","name":"121st Ave SE & SE 10th St","network":"King County Metro","network:short":"KCM","network:wikidata":"Q6411393","operator":"King County Metro","operator:short":"KCM","operator:wikidata":"Q6411393","operator:wikipedia":"en:King County Metro","public_transport":"platform","ref":"67045","route_ref":"246","wheelchair":"yes"}},{"type":"node","id":7118693479,"lat":47.5892256,"lon":-122.175079,"tags":{"bus":"yes","gtfs:feed":"US-WA-KCM","gtfs:stop_id":"99753","highway":"bus_stop","name":"123rd Ave SE & 123rd Pl SE","network":"King County Metro","network:short":"KCM","network:wikidata":"Q6411393","operator":"King County Metro","operator:short":"KCM","operator:wikidata":"Q6411393","operator:wikipedia":"en:King County Metro","public_transport":"platform","ref":"99753","route_ref":"246","wheelchair":"yes"}},{"type":"node","id":7118693480,"lat":47.5929358,"lon":-122.1752968,"tags":{"bus":"yes","gtfs:feed":"US-WA-KCM","gtfs:stop_id":"99751","highway":"bus_stop","name":"123rd Ave SE & SE 20th Pl","network":"King County Metro","network:short":"KCM","network:wikidata":"Q6411393","operator":"King County Metro","operator:short":"KCM","operator:wikidata":"Q6411393","operator:wikipedia":"en:King County Metro","public_transport":"platform","ref":"99751","route_ref":"246","wheelchair":"yes"}},{"type":"node","id":7118693484,"lat":47.5874138,"lon":-122.165398,"tags":{"bus":"yes","gtfs:feed":"US-WA-KCM","gtfs:stop_id":"67035","highway":"bus_stop","name":"SE 26th St & Richards Rd","network":"King County Metro","network:short":"KCM","network:wikidata":"Q6411393","operator":"King County Metro","operator:short":"KCM","operator:wikidata":"Q6411393","operator:wikipedia":"en:King County Metro","public_transport":"platform","ref":"67035","route_ref":"246","wheelchair":"yes"}},{"type":"node","id":7118693503,"lat":47.5872765,"lon":-122.165001,"tags":{"bus":"yes","gtfs:feed":"US-WA-KCM","gtfs:stop_id":"79858","highway":"bus_stop","name":"SE 26th St & Richards Rd","network":"King County Metro","network:short":"KCM","network:wikidata":"Q6411393","operator":"King County Metro","operator:short":"KCM","operator:wikidata":"Q6411393","operator:wikipedia":"en:King County Metro","public_transport":"platform","ref":"79858","route_ref":"246","wheelchair":"yes"}},{"type":"node","id":7118693506,"lat":47.5935669,"lon":-122.175491,"tags":{"bus":"yes","gtfs:feed":"US-WA-KCM","gtfs:stop_id":"99750","highway":"bus_stop","name":"123rd Ave SE & SE 20th Pl","network":"King County Metro","network:short":"KCM","network:wikidata":"Q6411393","operator":"King County Metro","operator:short":"KCM","operator:wikidata":"Q6411393","operator:wikipedia":"en:King County Metro","public_transport":"platform","ref":"99750","route_ref":"246","wheelchair":"yes"}},{"type":"node","id":7118693507,"lat":47.5884781,"lon":-122.175575,"tags":{"bus":"yes","gtfs:feed":"US-WA-KCM","gtfs:stop_id":"99752","highway":"bus_stop","name":"123rd Ave SE & SE 25th St","network":"King County Metro","network:short":"KCM","network:wikidata":"Q6411393","operator":"King County Metro","operator:short":"KCM","operator:wikidata":"Q6411393","operator:wikipedia":"en:King County Metro","public_transport":"platform","ref":"99752","route_ref":"246","wheelchair":"yes"}},{"type":"node","id":7118693508,"lat":47.6011124,"lon":-122.178406,"tags":{"bus":"yes","gtfs:feed":"US-WA-KCM","gtfs:stop_id":"70817","highway":"bus_stop","name":"121st Ave SE & SE 10th St","network":"King County Metro","network:short":"KCM","network:wikidata":"Q6411393","operator":"King County Metro","operator:short":"KCM","operator:wikidata":"Q6411393","operator:wikipedia":"en:King County Metro","public_transport":"platform","ref":"70817","route_ref":"246","wheelchair":"yes"}},{"type":"node","id":7118693509,"lat":47.5964661,"lon":-122.175591,"tags":{"bus":"yes","gtfs:feed":"US-WA-KCM","gtfs:stop_id":"80566","highway":"bus_stop","name":"123rd Ave SE & SE 17th Pl","network":"King County Metro","network:short":"KCM","network:wikidata":"Q6411393","operator":"King County Metro","operator:short":"KCM","operator:wikidata":"Q6411393","operator:wikipedia":"en:King County Metro","public_transport":"platform","ref":"80566","route_ref":"246","wheelchair":"yes"}},{"type":"node","id":7118693513,"lat":47.6043015,"lon":-122.1908581,"tags":{"bus":"yes","gtfs:feed":"US-WA-KCM","gtfs:stop_id":"82760","highway":"bus_stop","name":"112th Ave SE & SE 4th St","network":"King County Metro","network:short":"KCM","network:wikidata":"Q6411393","operator":"King County Metro","operator:short":"KCM","operator:wikidata":"Q6411393","operator:wikipedia":"en:King County Metro","public_transport":"platform","ref":"82760","route_ref":"240;246","wheelchair":"yes"}},{"type":"node","id":7118693514,"lat":47.6015482,"lon":-122.1874948,"tags":{"bench":"no","bin":"no","bus":"yes","gtfs:feed":"US-WA-KCM","gtfs:stop_id":"70820","highway":"bus_stop","lit":"no","name":"SE 8th St & 114th Ave SE","network":"King County Metro","network:short":"KCM","network:wikidata":"Q6411393","operator":"King County Metro","operator:short":"KCM","operator:wikidata":"Q6411393","operator:wikipedia":"en:King County Metro","public_transport":"platform","ref":"70820","route_ref":"240;246","shelter":"no","tactile_paving":"no","wheelchair":"yes"}},{"type":"node","id":7118693517,"lat":47.6061058,"lon":-122.190659,"tags":{"bus":"yes","gtfs:feed":"US-WA-KCM","gtfs:stop_id":"82790","highway":"bus_stop","name":"112th Ave SE & SE 4th St","network":"King County Metro","network:short":"KCM","network:wikidata":"Q6411393","operator":"King County Metro","operator:short":"KCM","operator:wikidata":"Q6411393","operator:wikipedia":"en:King County Metro","public_transport":"platform","ref":"82790","route_ref":"240;246","wheelchair":"yes"}},{"type":"node","id":7118693518,"lat":47.6016001,"lon":-122.1882931,"tags":{"bus":"yes","gtfs:feed":"US-WA-KCM","gtfs:stop_id":"70814","highway":"bus_stop","name":"SE 8th St & 114th Ave SE","network":"King County Metro","network:short":"KCM","network:wikidata":"Q6411393","operator":"King County Metro","operator:short":"KCM","operator:wikidata":"Q6411393","operator:wikipedia":"en:King County Metro","public_transport":"platform","ref":"70814","route_ref":"240;246","wheelchair":"yes"}},{"type":"node","id":7392898374,"lat":47.5890139,"lon":-122.15116},{"type":"node","id":7392898375,"lat":47.589013,"lon":-122.1510957},{"type":"node","id":7392898376,"lat":47.5890464,"lon":-122.151097},{"type":"node","id":7392898377,"lat":47.5890464,"lon":-122.1511587},{"type":"node","id":7626181240,"lat":47.6097935,"lon":-122.1930886,"tags":{"crossing":"unmarked","highway":"crossing"}},{"type":"node","id":7697567176,"lat":47.5916468,"lon":-122.1725107,"tags":{"amenity":"bench"}},{"type":"node","id":7697567177,"lat":47.5916452,"lon":-122.1724381,"tags":{"amenity":"bench"}},{"type":"node","id":7697567178,"lat":47.5914836,"lon":-122.172226,"tags":{"amenity":"bench"}},{"type":"node","id":7697567179,"lat":47.5914346,"lon":-122.1722279,"tags":{"amenity":"bench"}},{"type":"node","id":7744630736,"lat":47.608013,"lon":-122.1911642,"tags":{"light_rail":"yes","name":"East Main","network":"Link","network:wikidata":"Q2778618","not:network:wikidata":"Q7564853","operator":"Sound Transit","operator:wikidata":"Q3965367","public_transport":"station","railway":"station","ref":"57","route_ref":"2 Line","station":"light_rail","wheelchair":"yes"}},{"type":"node","id":7774964417,"lat":47.6032022,"lon":-122.1424523,"tags":{"access":"yes","amenity":"toilets","changing_table":"no","fee":"no","female":"no","male":"yes","toilets:disposal":"flush","wheelchair":"yes"}},{"type":"node","id":7774964419,"lat":47.6046346,"lon":-122.1373764,"tags":{"amenity":"bench","backrest":"yes","direction":"E","material":"wood"}},{"type":"node","id":7852260344,"lat":47.6102395,"lon":-122.1853867},{"type":"node","id":7852260345,"lat":47.6111416,"lon":-122.1854036,"tags":{"barrier":"kerb","kerb":"lowered"}},{"type":"node","id":7852260346,"lat":47.6114878,"lon":-122.185408,"tags":{"barrier":"kerb","kerb":"lowered"}},{"type":"node","id":7852260347,"lat":47.6114663,"lon":-122.1854077},{"type":"node","id":7852260348,"lat":47.6115617,"lon":-122.185409,"tags":{"barrier":"kerb","kerb":"lowered"}},{"type":"node","id":7852260352,"lat":47.6115171,"lon":-122.1854084,"tags":{"crossing":"unmarked","highway":"crossing"}},{"type":"node","id":7852260353,"lat":47.6111531,"lon":-122.1854037},{"type":"node","id":7852260354,"lat":47.6110533,"lon":-122.1854021,"tags":{"barrier":"kerb","kerb":"lowered"}},{"type":"node","id":7852260355,"lat":47.6110323,"lon":-122.1854018},{"type":"node","id":7852260356,"lat":47.6111069,"lon":-122.185403,"tags":{"crossing":"unmarked","highway":"crossing","tactile_paving":"no"}},{"type":"node","id":7852260357,"lat":47.6103909,"lon":-122.1853904,"tags":{"barrier":"kerb","kerb":"lowered"}},{"type":"node","id":7852260358,"lat":47.6103748,"lon":-122.18539},{"type":"node","id":7852260359,"lat":47.6104968,"lon":-122.1853929},{"type":"node","id":7852260360,"lat":47.610441,"lon":-122.1853916,"tags":{"crossing":"unmarked","highway":"crossing"}},{"type":"node","id":7852260361,"lat":47.6100823,"lon":-122.1853493},{"type":"node","id":7852260362,"lat":47.6101108,"lon":-122.185371},{"type":"node","id":7852264288,"lat":47.6101225,"lon":-122.1856833},{"type":"node","id":7852264292,"lat":47.611617,"lon":-122.1857081},{"type":"node","id":7852967439,"lat":47.6115158,"lon":-122.1907398,"tags":{"barrier":"kerb","kerb":"lowered"}},{"type":"node","id":7852967440,"lat":47.6114414,"lon":-122.1907375},{"type":"node","id":7852967441,"lat":47.6114565,"lon":-122.190738,"tags":{"barrier":"kerb","kerb":"lowered"}},{"type":"node","id":7852967442,"lat":47.6114783,"lon":-122.1907386,"tags":{"crossing":"unmarked","highway":"crossing"}},{"type":"node","id":7852967443,"lat":47.6107196,"lon":-122.1907155,"tags":{"barrier":"kerb","kerb":"lowered"}},{"type":"node","id":7852967444,"lat":47.6107366,"lon":-122.190716},{"type":"node","id":7852967445,"lat":47.6106394,"lon":-122.190713,"tags":{"barrier":"kerb","kerb":"lowered"}},{"type":"node","id":7852967446,"lat":47.6106201,"lon":-122.1907124},{"type":"node","id":7852967447,"lat":47.6106664,"lon":-122.1907139,"tags":{"crossing":"unmarked","highway":"crossing","tactile_paving":"no"}},{"type":"node","id":8164201988,"lat":47.6099903,"lon":-122.1931562},{"type":"node","id":8164201990,"lat":47.6099878,"lon":-122.1929074},{"type":"node","id":8164201995,"lat":47.609936,"lon":-122.1909905},{"type":"node","id":8164201996,"lat":47.609952,"lon":-122.1909392},{"type":"node","id":8164201997,"lat":47.6099889,"lon":-122.1909841},{"type":"node","id":8164201998,"lat":47.6100591,"lon":-122.1909971,"tags":{"button_operated":"yes","crossing":"traffic_signals","crossing:island":"no","highway":"crossing","lit":"yes","traffic_signals:foot":"yes","traffic_signals:sound":"yes"}},{"type":"node","id":8164201999,"lat":47.6100551,"lon":-122.1906653,"tags":{"button_operated":"yes","crossing":"traffic_signals","crossing:island":"no","highway":"crossing","lit":"yes","traffic_signals:foot":"yes","traffic_signals:sound":"yes"}},{"type":"node","id":8164202000,"lat":47.6099504,"lon":-122.190828,"tags":{"button_operated":"yes","crossing":"traffic_signals","crossing:island":"no","highway":"crossing","lit":"yes","traffic_signals:foot":"yes","traffic_signals:sound":"yes"}},{"type":"node","id":8164202016,"lat":47.6100108,"lon":-122.1935233},{"type":"node","id":8164238518,"lat":47.6099916,"lon":-122.1930078,"tags":{"crossing":"marked","highway":"crossing"}},{"type":"node","id":8164238525,"lat":47.6118512,"lon":-122.191055},{"type":"node","id":8164238555,"lat":47.6107347,"lon":-122.1910096},{"type":"node","id":8164238559,"lat":47.6112719,"lon":-122.1910284,"tags":{"barrier":"kerb","kerb":"lowered"}},{"type":"node","id":8164238560,"lat":47.6112866,"lon":-122.1910289},{"type":"node","id":8164238563,"lat":47.6112118,"lon":-122.1910246,"tags":{"barrier":"kerb","kerb":"lowered"}},{"type":"node","id":8164238564,"lat":47.6112394,"lon":-122.1910264,"tags":{"crossing":"unmarked","highway":"crossing"}},{"type":"node","id":8336364549,"lat":47.6016699,"lon":-122.1844202,"tags":{"amenity":"bench"}},{"type":"node","id":8567988801,"lat":47.6101629,"lon":-122.1835869},{"type":"node","id":8567988807,"lat":47.6110101,"lon":-122.182568,"tags":{"crossing":"unmarked","highway":"crossing"}},{"type":"node","id":8567988808,"lat":47.6111545,"lon":-122.1819431,"tags":{"barrier":"kerb","kerb":"lowered"}},{"type":"node","id":8567988812,"lat":47.6111618,"lon":-122.1818925,"tags":{"crossing":"unmarked","highway":"crossing"}},{"type":"node","id":8567988814,"lat":47.6114751,"lon":-122.1803298},{"type":"node","id":8568105504,"lat":47.6086987,"lon":-122.1851869},{"type":"node","id":8568105505,"lat":47.6087883,"lon":-122.1852145},{"type":"node","id":8568105506,"lat":47.6087221,"lon":-122.1851865},{"type":"node","id":8568105507,"lat":47.6087577,"lon":-122.1851975},{"type":"node","id":8568105514,"lat":47.6092956,"lon":-122.1843551},{"type":"node","id":8568105515,"lat":47.6093035,"lon":-122.184333,"tags":{"barrier":"kerb","kerb":"lowered","tactile_paving":"yes"}},{"type":"node","id":8568105516,"lat":47.6093706,"lon":-122.1841604},{"type":"node","id":8568144217,"lat":47.6093385,"lon":-122.1842399,"tags":{"crossing":"unmarked","highway":"crossing"}},{"type":"node","id":8568144218,"lat":47.6108611,"lon":-122.1832378,"tags":{"barrier":"kerb","kerb":"lowered"}},{"type":"node","id":8568144219,"lat":47.6108277,"lon":-122.1832859,"tags":{"crossing":"unmarked","highway":"crossing"}},{"type":"node","id":8568144221,"lat":47.6119508,"lon":-122.1803547},{"type":"node","id":8568144240,"lat":47.6112601,"lon":-122.1820163,"tags":{"barrier":"kerb","kerb":"lowered"}},{"type":"node","id":8568262047,"lat":47.6112705,"lon":-122.1819501,"tags":{"crossing":"unmarked","highway":"crossing"}},{"type":"node","id":8909509683,"lat":47.6099366,"lon":-122.1933455},{"type":"node","id":8909509684,"lat":47.6099443,"lon":-122.1933457},{"type":"node","id":8909509685,"lat":47.6099918,"lon":-122.1932895},{"type":"node","id":8909509688,"lat":47.6099934,"lon":-122.1934267},{"type":"node","id":9072795853,"lat":47.5895427,"lon":-122.1743727,"tags":{"access":"yes","amenity":"toilets","changing_table":"no","toilets:disposal":"chemical","unisex":"yes"}},{"type":"node","id":9072795854,"lat":47.589847,"lon":-122.1734916,"tags":{"amenity":"bench"}},{"type":"node","id":9072795855,"lat":47.5897988,"lon":-122.174135,"tags":{"amenity":"bench"}},{"type":"node","id":9112465019,"lat":47.5878293,"lon":-122.1384347},{"type":"node","id":9112465020,"lat":47.587714,"lon":-122.1386781,"tags":{"amenity":"bench","backrest":"yes","material":"wood"}},{"type":"node","id":9112465022,"lat":47.5890775,"lon":-122.1387035,"tags":{"amenity":"bench","backrest":"yes","material":"plastic"}},{"type":"node","id":9112465023,"lat":47.5878073,"lon":-122.1383375},{"type":"node","id":9112465026,"lat":47.5877875,"lon":-122.1383857,"tags":{"amenity":"drinking_water","bottle":"yes"}},{"type":"node","id":9112465031,"lat":47.5880803,"lon":-122.1385801,"tags":{"amenity":"bench","backrest":"no"}},{"type":"node","id":9112465035,"lat":47.5878455,"lon":-122.1383613},{"type":"node","id":9112465036,"lat":47.5883611,"lon":-122.1382411,"tags":{"amenity":"bench","backrest":"yes","material":"wood"}},{"type":"node","id":9112465038,"lat":47.589016,"lon":-122.1404319,"tags":{"amenity":"bench","backrest":"yes","material":"wood"}},{"type":"node","id":9112465039,"lat":47.5883066,"lon":-122.1382983,"tags":{"amenity":"bench","backrest":"yes","material":"wood"}},{"type":"node","id":9112465040,"lat":47.5877899,"lon":-122.1384145,"tags":{"entrance":"yes","male":"yes"}},{"type":"node","id":9112465800,"lat":47.5877911,"lon":-122.1377862,"tags":{"amenity":"bench","backrest":"yes","covered":"yes","inscription":"Donated by Wagly Pet Campus","material":"wood"}},{"type":"node","id":9112465801,"lat":47.5873139,"lon":-122.1376513,"tags":{"amenity":"bench","backrest":"yes","material":"wood"}},{"type":"node","id":9112465808,"lat":47.5874014,"lon":-122.1379988},{"type":"node","id":9112465811,"lat":47.5877198,"lon":-122.1376331,"tags":{"amenity":"bench","backrest":"yes","material":"wood"}},{"type":"node","id":9112465812,"lat":47.5874151,"lon":-122.1379987,"tags":{"barrier":"gate"}},{"type":"node","id":9112465813,"lat":47.5872972,"lon":-122.1378605,"tags":{"amenity":"bench","backrest":"yes","material":"wood"}},{"type":"node","id":9112511887,"lat":47.5882965,"lon":-122.137474},{"type":"node","id":9196042343,"lat":47.5913863,"lon":-122.1644256,"tags":{"bench":"no","bin":"no","bus":"yes","gtfs:feed":"US-WA-KCM","gtfs:stop_id":"71133","highway":"bus_stop","name":"Richards Rd & SE 21st Pl","network":"King County Metro","network:short":"KCM","network:wikidata":"Q6411393","operator":"King County Metro","operator:short":"KCM","operator:wikidata":"Q6411393","operator:wikipedia":"en:King County Metro","public_transport":"platform","ref":"71133","route_ref":"240","shelter":"no","wheelchair":"yes"}},{"type":"node","id":9196042344,"lat":47.5919497,"lon":-122.1641962,"tags":{"bench":"no","bin":"no","bus":"yes","gtfs:feed":"US-WA-KCM","gtfs:stop_id":"67039","highway":"bus_stop","name":"Richards Rd & SE 21st Pl","network":"King County Metro","network:short":"KCM","network:wikidata":"Q6411393","operator":"King County Metro","operator:short":"KCM","operator:wikidata":"Q6411393","operator:wikipedia":"en:King County Metro","public_transport":"platform","ref":"67039","route_ref":"240","shelter":"no","wheelchair":"yes"}},{"type":"node","id":9196042345,"lat":47.5876761,"lon":-122.1642244,"tags":{"bench":"no","bin":"no","bus":"yes","gtfs:feed":"US-WA-KCM","gtfs:stop_id":"67037","highway":"bus_stop","name":"Richards Rd & SE 26th St","network":"King County Metro","network:short":"KCM","network:wikidata":"Q6411393","operator":"King County Metro","operator:short":"KCM","operator:wikidata":"Q6411393","operator:wikipedia":"en:King County Metro","public_transport":"platform","ref":"67037","route_ref":"240","shelter":"no","wheelchair":"yes"}},{"type":"node","id":9196042346,"lat":47.5872781,"lon":-122.1638355,"tags":{"bench":"no","bin":"no","bus":"yes","gtfs:feed":"US-WA-KCM","gtfs:stop_id":"71139","highway":"bus_stop","lit":"yes","name":"SE 26th St & Richards Rd","network":"King County Metro","network:short":"KCM","network:wikidata":"Q6411393","operator":"King County Metro","operator:short":"KCM","operator:wikidata":"Q6411393","operator:wikipedia":"en:King County Metro","public_transport":"platform","ref":"71139","route_ref":"240","shelter":"no","wheelchair":"yes"}},{"type":"node","id":9196042347,"lat":47.5872527,"lon":-122.159384,"tags":{"bench":"no","bin":"no","bus":"yes","gtfs:feed":"US-WA-KCM","gtfs:stop_id":"71141","highway":"bus_stop","lit":"yes","name":"SE 26th St & 136th Ave SE","network":"King County Metro","network:short":"KCM","network:wikidata":"Q6411393","operator":"King County Metro","operator:short":"KCM","operator:wikidata":"Q6411393","operator:wikipedia":"en:King County Metro","public_transport":"platform","ref":"71141","route_ref":"240","shelter":"no","wheelchair":"yes"}},{"type":"node","id":9196042348,"lat":47.5873685,"lon":-122.158261,"tags":{"bench":"no","bin":"no","bus":"yes","gtfs:feed":"US-WA-KCM","gtfs:stop_id":"67033","highway":"bus_stop","name":"SE 26th St & 137th Ave SE","network":"King County Metro","network:short":"KCM","network:wikidata":"Q6411393","operator":"King County Metro","operator:short":"KCM","operator:wikidata":"Q6411393","operator:wikipedia":"en:King County Metro","public_transport":"platform","ref":"67033","route_ref":"240","shelter":"no","wheelchair":"yes"}},{"type":"node","id":9555541744,"lat":47.6067109,"lon":-122.1766933},{"type":"node","id":9555541745,"lat":47.6064645,"lon":-122.177208},{"type":"node","id":9642290909,"lat":47.607924,"lon":-122.1532733,"tags":{"barrier":"kerb","kerb":"lowered","tactile_paving":"yes","wheelchair":"yes"}},{"type":"node","id":9642290910,"lat":47.6079251,"lon":-122.1531658,"tags":{"barrier":"kerb","kerb":"lowered","tactile_paving":"yes","wheelchair":"yes"}},{"type":"node","id":9642290914,"lat":47.6079274,"lon":-122.1529427,"tags":{"barrier":"kerb","kerb":"lowered","tactile_paving":"yes","wheelchair":"yes"}},{"type":"node","id":9642290915,"lat":47.6079286,"lon":-122.1528292,"tags":{"barrier":"kerb","kerb":"lowered","tactile_paving":"yes","wheelchair":"yes"}},{"type":"node","id":9642353918,"lat":47.6084938,"lon":-122.1529478,"tags":{"barrier":"kerb","kerb":"lowered","tactile_paving":"no","wheelchair":"yes"}},{"type":"node","id":9642353926,"lat":47.6084936,"lon":-122.1528303,"tags":{"barrier":"kerb","kerb":"lowered","tactile_paving":"no","wheelchair":"yes"}},{"type":"node","id":9642353930,"lat":47.6089209,"lon":-122.1528332,"tags":{"barrier":"kerb","kerb":"lowered","tactile_paving":"no","wheelchair":"yes"}},{"type":"node","id":9642353931,"lat":47.608922,"lon":-122.1529534,"tags":{"barrier":"kerb","kerb":"lowered","tactile_paving":"no","wheelchair":"yes"}},{"type":"node","id":9644667179,"lat":47.5963955,"lon":-122.1320611,"tags":{"amenity":"bench"}},{"type":"node","id":9650810206,"lat":47.6097253,"lon":-122.1401381,"tags":{"amenity":"bench","backrest":"yes"}},{"type":"node","id":9650810207,"lat":47.609714,"lon":-122.1400864,"tags":{"amenity":"bench","backrest":"yes"}},{"type":"node","id":9650810208,"lat":47.6097136,"lon":-122.1400442,"tags":{"amenity":"bench","backrest":"yes"}},{"type":"node","id":9650831067,"lat":47.6090764,"lon":-122.1427157},{"type":"node","id":9650831068,"lat":47.6090763,"lon":-122.1427064},{"type":"node","id":9650831069,"lat":47.6091414,"lon":-122.1425072},{"type":"node","id":9650831070,"lat":47.6091114,"lon":-122.1425074},{"type":"node","id":9650831071,"lat":47.6091413,"lon":-122.1424887},{"type":"node","id":9650831072,"lat":47.6091113,"lon":-122.1424891},{"type":"node","id":9650935737,"lat":47.6094466,"lon":-122.1737213,"tags":{"amenity":"bench"}},{"type":"node","id":9650935738,"lat":47.6093382,"lon":-122.1738499,"tags":{"amenity":"bench"}},{"type":"node","id":9650935741,"lat":47.6093532,"lon":-122.1730032,"tags":{"amenity":"drinking_water"}},{"type":"node","id":9652096696,"lat":47.6090195,"lon":-122.1425787,"tags":{"entrance":"main"}},{"type":"node","id":9652096697,"lat":47.6090995,"lon":-122.1427057,"tags":{"entrance":"yes"}},{"type":"node","id":9652096699,"lat":47.6091575,"lon":-122.142596,"tags":{"entrance":"yes"}},{"type":"node","id":9652096714,"lat":47.6097443,"lon":-122.1414873,"tags":{"amenity":"bench","backrest":"yes"}},{"type":"node","id":9652096715,"lat":47.6097443,"lon":-122.1415376,"tags":{"amenity":"bench","backrest":"yes"}},{"type":"node","id":9652096716,"lat":47.609746,"lon":-122.1418037,"tags":{"amenity":"bench","backrest":"yes"}},{"type":"node","id":9652135129,"lat":47.6102414,"lon":-122.1434588,"tags":{"entrance":"main"}},{"type":"node","id":9652135135,"lat":47.6101249,"lon":-122.1435067,"tags":{"entrance":"main"}},{"type":"node","id":9652144428,"lat":47.6092684,"lon":-122.143378,"tags":{"amenity":"bench"}},{"type":"node","id":9652144430,"lat":47.6092575,"lon":-122.143449,"tags":{"entrance":"main"}},{"type":"node","id":9652144477,"lat":47.6084677,"lon":-122.1433408,"tags":{"amenity":"dentist","healthcare":"dentist"}},{"type":"node","id":9652157717,"lat":47.6097463,"lon":-122.1418525,"tags":{"amenity":"bench","backrest":"yes"}},{"type":"node","id":9671458170,"lat":47.5877193,"lon":-122.1423591},{"type":"node","id":9671458175,"lat":47.5875315,"lon":-122.1424568},{"type":"node","id":9678875179,"lat":47.5883157,"lon":-122.1381485,"tags":{"entrance":"main"}},{"type":"node","id":9678875184,"lat":47.5884719,"lon":-122.1384225,"tags":{"amenity":"bench"}},{"type":"node","id":9678875185,"lat":47.5886293,"lon":-122.1384252,"tags":{"amenity":"bench"}},{"type":"node","id":9696847834,"lat":47.5968968,"lon":-122.1335773,"tags":{"amenity":"bench"}},{"type":"node","id":9696989085,"lat":47.5876206,"lon":-122.144642},{"type":"node","id":9722104244,"lat":47.6031722,"lon":-122.192918,"tags":{"amenity":"bench"}},{"type":"node","id":9722104245,"lat":47.6029294,"lon":-122.1921411,"tags":{"amenity":"bench"}},{"type":"node","id":9722104247,"lat":47.6035739,"lon":-122.1931599,"tags":{"amenity":"bench"}},{"type":"node","id":9753174295,"lat":47.6039581,"lon":-122.1908954},{"type":"node","id":9753174297,"lat":47.6034088,"lon":-122.1908948},{"type":"node","id":9753174304,"lat":47.5996007,"lon":-122.1909871},{"type":"node","id":9753174305,"lat":47.5995039,"lon":-122.1910397},{"type":"node","id":9753174306,"lat":47.599404,"lon":-122.1911255},{"type":"node","id":9753174311,"lat":47.6029646,"lon":-122.1908987},{"type":"node","id":9753174312,"lat":47.6030351,"lon":-122.1908837},{"type":"node","id":9753174313,"lat":47.6031025,"lon":-122.1908973},{"type":"node","id":9753174314,"lat":47.6032694,"lon":-122.1908951},{"type":"node","id":9753174315,"lat":47.6035732,"lon":-122.1908932},{"type":"node","id":9753174316,"lat":47.6036717,"lon":-122.1908602},{"type":"node","id":9753230720,"lat":47.6033363,"lon":-122.190877},{"type":"node","id":9753230721,"lat":47.603926,"lon":-122.1908644},{"type":"node","id":9753230726,"lat":47.6072235,"lon":-122.1909505},{"type":"node","id":9753230730,"lat":47.5993947,"lon":-122.1911023,"tags":{"barrier":"kerb","kerb":"lowered","tactile_paving":"yes"}},{"type":"node","id":9760819587,"lat":47.6099736,"lon":-122.1917355},{"type":"node","id":9760819594,"lat":47.6094885,"lon":-122.1909892},{"type":"node","id":9875643930,"lat":47.6097713,"lon":-122.193087,"tags":{"barrier":"kerb","kerb":"lowered"}},{"type":"node","id":9875643931,"lat":47.609845,"lon":-122.1930922,"tags":{"barrier":"kerb","kerb":"lowered"}},{"type":"node","id":9881593203,"lat":47.6098619,"lon":-122.181521,"tags":{"amenity":"bench","inscription":"Jennifer Marglin Colestock Bench"}},{"type":"node","id":9881593204,"lat":47.6093271,"lon":-122.180477,"tags":{"amenity":"bench"}},{"type":"node","id":9881593210,"lat":47.6114018,"lon":-122.1823552,"tags":{"amenity":"bench"}},{"type":"node","id":9881593214,"lat":47.609776,"lon":-122.1810685,"tags":{"amenity":"bench","inscription":"Scott Family Bench"}},{"type":"node","id":9881593215,"lat":47.6112777,"lon":-122.1826474,"tags":{"amenity":"bench"}},{"type":"node","id":9881604918,"lat":47.609872,"lon":-122.180723,"tags":{"amenity":"bench","inscription":"B B L Joshi Bench"}},{"type":"node","id":9881604919,"lat":47.6098617,"lon":-122.1818558,"tags":{"amenity":"bench","inscription":"Zorra Bench"}},{"type":"node","id":9881604920,"lat":47.6092859,"lon":-122.1838349,"tags":{"amenity":"bench"}},{"type":"node","id":9881604921,"lat":47.6093064,"lon":-122.1838046,"tags":{"amenity":"bench"}},{"type":"node","id":9881604922,"lat":47.6084511,"lon":-122.1800204,"tags":{"amenity":"bench","inscription":"Patrick Foran Bench"}},{"type":"node","id":9953275198,"lat":47.6081667,"lon":-122.1744032,"tags":{"amenity":"bench"}},{"type":"node","id":9953278819,"lat":47.6083129,"lon":-122.1741993,"tags":{"amenity":"bench","backrest":"yes"}},{"type":"node","id":9953278820,"lat":47.6094063,"lon":-122.1738195,"tags":{"amenity":"drinking_water"}},{"type":"node","id":9953278821,"lat":47.60833,"lon":-122.1744735,"tags":{"amenity":"drinking_water"}},{"type":"node","id":10063000241,"lat":47.5915131,"lon":-122.1416276,"tags":{"amenity":"bench","backrest":"no","colour":"purple","material":"wood"}},{"type":"node","id":10063000242,"lat":47.5914897,"lon":-122.1416721,"tags":{"amenity":"bench","backrest":"no","colour":"purple","material":"wood"}},{"type":"node","id":10063000243,"lat":47.5915427,"lon":-122.1416261,"tags":{"amenity":"bench","backrest":"no","colour":"purple","material":"wood"}},{"type":"node","id":10063000244,"lat":47.5915952,"lon":-122.1416266,"tags":{"amenity":"bench","backrest":"no","colour":"purple","material":"wood"}},{"type":"node","id":10063000245,"lat":47.5916242,"lon":-122.141628,"tags":{"amenity":"bench","backrest":"no","colour":"purple","material":"wood"}},{"type":"node","id":10063000246,"lat":47.5915698,"lon":-122.1416669,"tags":{"amenity":"bench","backrest":"no","colour":"purple","material":"wood"}},{"type":"node","id":10063000247,"lat":47.5916439,"lon":-122.1416692,"tags":{"amenity":"bench","backrest":"no","colour":"purple","material":"wood"}},{"type":"node","id":10063000261,"lat":47.5915618,"lon":-122.1416658,"tags":{"amenity":"bench","backrest":"no","colour":"purple","material":"wood"}},{"type":"node","id":11021296548,"lat":47.6086511,"lon":-122.1909743},{"type":"node","id":11069786735,"lat":47.6093155,"lon":-122.1843007},{"type":"node","id":11186086385,"lat":47.6077024,"lon":-122.1751648,"tags":{"amenity":"bench","backrest":"yes"}},{"type":"node","id":11200429613,"lat":47.5890222,"lon":-122.1868784,"tags":{"amenity":"bench","backrest":"yes"}},{"type":"node","id":11200429618,"lat":47.5893152,"lon":-122.1872182,"tags":{"amenity":"bench","backrest":"yes"}},{"type":"node","id":11205825233,"lat":47.5923527,"lon":-122.1583751,"tags":{"amenity":"drinking_water","fountain":"bubbler"}},{"type":"node","id":11413225186,"lat":47.596812,"lon":-122.1483196,"tags":{"amenity":"pharmacy","healthcare":"pharmacy","name":"QFC Pharmacy","opening_hours":"Mo-Th 09:00-13:00,13:30-20:00; Sa 09:00-13:00,13:30-18:00; Su 11:00-13:00,13:30-18:00","phone":"+1-425-653-2431","wheelchair":"yes"}},{"type":"node","id":11612544463,"lat":47.5978775,"lon":-122.1228351,"tags":{"amenity":"bench","backrest":"yes","colour":"black","material":"metal","seats":"3"}},{"type":"node","id":11803549126,"lat":47.6073843,"lon":-122.1909539},{"type":"node","id":11812430040,"lat":47.5869866,"lon":-122.1907024,"tags":{"highway":"elevator","level":"0;1","level:ref":"S;P","wheelchair":"yes"}},{"type":"node","id":11836141460,"lat":47.5869573,"lon":-122.1905985,"tags":{"description":"South Bellevue to/from Downtown Redmond","gtfs:dataset_id":"KCGIS","gtfs:stop_id":"E09-T2","light_rail":"yes","name":"South Bellevue","network":"Link","network:wikidata":"Q2778618","operator":"Sound Transit","operator:wikidata":"Q3965367","public_transport":"stop_position","railway":"stop","ref":"56","source":"King County GIS","website":"https://www.soundtransit.org/ride-with-us/stops-stations/south-bellevue-station","wheelchair":"yes"}},{"type":"node","id":11836141461,"lat":47.6077113,"lon":-122.1911802,"tags":{"description":"East Main to South Bellevue","gtfs:dataset_id":"KCGIS","gtfs:stop_id":"E11-T1","light_rail":"yes","name":"East Main","network":"Link","network:wikidata":"Q2778618","operator":"Sound Transit","operator:wikidata":"Q3965367","public_transport":"stop_position","railway":"stop","ref":"57","source":"King County GIS","website":"https://www.soundtransit.org/ride-with-us/stops-stations/east-main-station","wheelchair":"yes"}},{"type":"node","id":11836149174,"lat":47.608408,"lon":-122.1911525,"tags":{"description":"East Main to Downtown Redmond","gtfs:dataset_id":"KCGIS","gtfs:stop_id":"E11-T2","light_rail":"yes","name":"East Main","network":"Link","network:wikidata":"Q2778618","operator":"Sound Transit","operator:wikidata":"Q3965367","public_transport":"stop_position","railway":"stop","ref":"57","source":"King County GIS","website":"https://www.soundtransit.org/ride-with-us/stops-stations/east-main-station","wheelchair":"yes"}},{"type":"node","id":11860997931,"lat":47.5869218,"lon":-122.1906384,"tags":{"amenity":"bench","backrest":"yes","seats":"4"}},{"type":"node","id":12117095520,"lat":47.6068611,"lon":-122.190872,"tags":{"bus":"yes","gtfs:feed":"US-WA-KCM","gtfs:stop_id":"82749","highway":"bus_stop","name":"112th Ave SE & SE 4th St","network":"King County Metro","network:short":"KCM","network:wikidata":"Q6411393","operator":"King County Metro","operator:short":"KCM","operator:wikidata":"Q6411393","operator:wikipedia":"en:King County Metro","public_transport":"platform","ref":"82749","route_ref":"240;246","wheelchair":"yes"}},{"type":"node","id":12117095635,"lat":47.6043205,"lon":-122.190643,"tags":{"bus":"yes","gtfs:feed":"US-WA-KCM","gtfs:stop_id":"84309","highway":"bus_stop","name":"112th Ave SE & SE 6th St","network":"King County Metro","network:short":"KCM","network:wikidata":"Q6411393","operator":"King County Metro","operator:short":"KCM","operator:wikidata":"Q6411393","operator:wikipedia":"en:King County Metro","public_transport":"platform","ref":"84309","route_ref":"240;246","wheelchair":"yes"}},{"type":"node","id":12117095658,"lat":47.6114235,"lon":-122.190956,"tags":{"bus":"yes","gtfs:feed":"US-WA-KCM","gtfs:stop_id":"82742","highway":"bus_stop","name":"112th Ave NE & Main St","network":"King County Metro","network:short":"KCM","network:wikidata":"Q6411393","operator":"King County Metro","operator:short":"KCM","operator:wikidata":"Q6411393","operator:wikipedia":"en:King County Metro","public_transport":"platform","ref":"82742","route_ref":"240","wheelchair":"yes"}},{"type":"node","id":12117096079,"lat":47.6099205,"lon":-122.140388,"tags":{"bench":"no","bin":"no","bus":"yes","gtfs:feed":"US-WA-KCM","gtfs:stop_id":"68476","highway":"bus_stop","lit":"no","name":"Main St & 150th Ave NE","network":"King County Metro","network:short":"KCM","network:wikidata":"Q6411393","operator":"King County Metro","operator:short":"KCM","operator:wikidata":"Q6411393","operator:wikipedia":"en:King County Metro","public_transport":"platform","ref":"68476","route_ref":"245","shelter":"no","tactile_paving":"no","wheelchair":"yes"}},{"type":"node","id":12117096080,"lat":47.6099701,"lon":-122.148842,"tags":{"bench":"yes","bin":"no","bus":"yes","gtfs:feed":"US-WA-KCM","gtfs:stop_id":"68475","highway":"bus_stop","lit":"yes","name":"Main St & 143rd Ave SE","network":"King County Metro","network:short":"KCM","network:wikidata":"Q6411393","operator":"King County Metro","operator:short":"KCM","operator:wikidata":"Q6411393","operator:wikipedia":"en:King County Metro","public_transport":"platform","ref":"68475","route_ref":"245","shelter":"no","tactile_paving":"no","wheelchair":"yes"}},{"type":"node","id":12117096081,"lat":47.6098289,"lon":-122.148094,"tags":{"bench":"no","bin":"no","bus":"yes","gtfs:feed":"US-WA-KCM","gtfs:stop_id":"68473","highway":"bus_stop","lit":"no","name":"Main St & 143rd Ave SE","network":"King County Metro","network:short":"KCM","network:wikidata":"Q6411393","operator":"King County Metro","operator:short":"KCM","operator:wikidata":"Q6411393","operator:wikipedia":"en:King County Metro","public_transport":"platform","ref":"68473","route_ref":"245","shelter":"no","tactile_paving":"no","wheelchair":"yes"}},{"type":"node","id":12125759825,"lat":47.5868875,"lon":-122.190611,"tags":{"amenity":"bench"}},{"type":"node","id":12125759826,"lat":47.5868275,"lon":-122.1905701,"tags":{"amenity":"bench"}},{"type":"node","id":12125759827,"lat":47.5868117,"lon":-122.1906182,"tags":{"amenity":"bench"}},{"type":"node","id":12125759828,"lat":47.5868749,"lon":-122.1906609,"tags":{"amenity":"bench"}},{"type":"node","id":12231200291,"lat":47.6105757,"lon":-122.1910063},{"type":"node","id":12231200293,"lat":47.6105209,"lon":-122.1910074},{"type":"node","id":12569726278,"lat":47.6051671,"lon":-122.1925698,"tags":{"amenity":"bench"}},{"type":"node","id":12569726279,"lat":47.6051811,"lon":-122.1925539,"tags":{"amenity":"bench"}},{"type":"node","id":12569726280,"lat":47.6053056,"lon":-122.1922058,"tags":{"amenity":"bench"}},{"type":"node","id":12569726281,"lat":47.6050239,"lon":-122.1919604,"tags":{"amenity":"bench"}},{"type":"node","id":12573393202,"lat":47.5919081,"lon":-122.1920943},{"type":"node","id":12573393203,"lat":47.5918898,"lon":-122.1920946},{"type":"node","id":12573393204,"lat":47.5918741,"lon":-122.1920716},{"type":"node","id":12573393205,"lat":47.5918738,"lon":-122.1920443},{"type":"node","id":12834786483,"lat":47.5862816,"lon":-122.1509338},{"type":"node","id":12834786484,"lat":47.5872783,"lon":-122.1513656},{"type":"node","id":12834786485,"lat":47.586126,"lon":-122.1509346},{"type":"node","id":12834786486,"lat":47.5824426,"lon":-122.150953},{"type":"node","id":12889787837,"lat":47.6002725,"lon":-122.1493274,"tags":{"amenity":"bench"}},{"type":"node","id":12963233757,"lat":47.6013898,"lon":-122.1765684,"tags":{"amenity":"bench"}},{"type":"node","id":13016366625,"lat":47.6086518,"lon":-122.1910307,"tags":{"bicycle":"yes","railway":"subway_entrance","ref":"A","wheelchair":"yes"}},{"type":"node","id":13016366626,"lat":47.6073841,"lon":-122.1909637,"tags":{"bicycle":"yes","railway":"subway_entrance","ref":"B","wheelchair":"yes"}},{"type":"node","id":13034216387,"lat":47.5869504,"lon":-122.1907403,"tags":{"bicycle":"yes","railway":"subway_entrance","ref":"A","wheelchair":"yes"}},{"type":"node","id":13034216388,"lat":47.5869726,"lon":-122.1906533,"tags":{"bicycle":"yes","railway":"subway_entrance","ref":"A","wheelchair":"yes"}},{"type":"node","id":13063891174,"lat":47.6043977,"lon":-122.1917658,"tags":{"amenity":"bench"}},{"type":"node","id":13101112609,"lat":47.609178,"lon":-122.1787895,"tags":{"man_made":"charge_point","manufacturer":"Mobility Matters","model":"HandiCharge","motorcar":"no","panoramax":"315791ff-9fa1-456e-b2bb-e171095578dc","socket:device:USB-A":"2","socket:xlr_3pin_cable":"1","socket:xlr_3pin_cable:current":"5","socket:xlr_3pin_cable:voltage":"24","wheelchair":"designated"}},{"type":"node","id":13101112610,"lat":47.609555,"lon":-122.1789001,"tags":{"amenity":"bench","backrest":"no","inscription":"Robert H. and Marguerite"}},{"type":"node","id":13101112611,"lat":47.6090938,"lon":-122.1788934,"tags":{"amenity":"bench","image":"File:Seattle metro, September 2023 - 038.jpg","inscription":"George D. White Bench"}},{"type":"node","id":13101112612,"lat":47.6091007,"lon":-122.1787254,"tags":{"amenity":"bench"}},{"type":"node","id":13101112613,"lat":47.609296,"lon":-122.1796062,"tags":{"amenity":"bench"}},{"type":"node","id":13101112614,"lat":47.6091086,"lon":-122.1789051,"tags":{"amenity":"bench","image":"File:Seattle metro, September 2023 - 038.jpg","inscription":"Eugene and Ariana Radach Bench"}},{"type":"node","id":13101112615,"lat":47.6090999,"lon":-122.1787944,"tags":{"amenity":"bench"}},{"type":"node","id":13101112616,"lat":47.6095225,"lon":-122.1790489,"tags":{"amenity":"bench","backrest":"no","inscription":"Sarah Navarre Bench"}},{"type":"node","id":13101112618,"lat":47.6093255,"lon":-122.1788195,"tags":{"amenity":"bench"}},{"type":"node","id":13101112619,"lat":47.6092966,"lon":-122.1795658,"tags":{"amenity":"bench"}},{"type":"node","id":13101112620,"lat":47.6091094,"lon":-122.179601,"tags":{"amenity":"drinking_water"}},{"type":"node","id":13101112623,"lat":47.6095057,"lon":-122.1793181,"tags":{"amenity":"bench","backrest":"no","image":"File:Seattle metro, September 2023 - 037.jpg","inscription":"Dale Hoffman Bench"}},{"type":"node","id":13123953480,"lat":47.5963564,"lon":-122.1684062,"tags":{"amenity":"bench"}},{"type":"node","id":13176039737,"lat":47.6083832,"lon":-122.1781731,"tags":{"amenity":"bench","backrest":"no","dedication":"Ramona Jean Burks 1954-09-26 to 2020-04-27.","name":"Ramona Jean Burks Bench"}},{"type":"node","id":13176504582,"lat":47.6086917,"lon":-122.1798772,"tags":{"amenity":"bench","backrest":"yes","inscription":"George \"Jerry\" Hibbs Bench"}},{"type":"node","id":13176504584,"lat":47.6093978,"lon":-122.180054,"tags":{"amenity":"bench","backrest":"yes","inscription":"Barbara Williams Bench"}},{"type":"node","id":13176504585,"lat":47.6093046,"lon":-122.1798903,"tags":{"amenity":"bench","inscription":"Karlene Ruth Johnson Bench"}},{"type":"node","id":13176504587,"lat":47.6095869,"lon":-122.1799445,"tags":{"amenity":"bench","inscription":"Robert and Edith Woodworth Bench"}},{"type":"node","id":13176504588,"lat":47.6094899,"lon":-122.1797792,"tags":{"amenity":"bench","inscription":"Linda Jean Plato Bench"}},{"type":"node","id":13176504589,"lat":47.6095071,"lon":-122.1796215,"tags":{"amenity":"bench","inscription":"Pat Hoffman Bench"}},{"type":"node","id":13176504590,"lat":47.60989,"lon":-122.1794756,"tags":{"amenity":"bench","armrest":"yes","backrest":"yes","image":"File:Bellevue, WA (2023) - 09.jpg","inscription":"Lisa Scott Bench","material":"wood"}},{"type":"node","id":13176504591,"lat":47.6099,"lon":-122.1793469,"tags":{"amenity":"bench","armrest":"yes","backrest":"yes","image":"File:Bellevue, WA (2023) - 09.jpg","inscription":"Summer Rose Scott Bench","material":"wood"}},{"type":"node","id":13176504592,"lat":47.6092523,"lon":-122.1786898,"tags":{"amenity":"bench","inscription":"Jack E.Causey Bench"}},{"type":"node","id":13176504594,"lat":47.609032,"lon":-122.1794985,"tags":{"amenity":"bench","inscription":"Landau Henson Bench"}},{"type":"node","id":13176504595,"lat":47.6089092,"lon":-122.1794661,"tags":{"amenity":"bench","inscription":"Mallahan Bench"}},{"type":"node","id":13176504598,"lat":47.6087061,"lon":-122.179417,"tags":{"amenity":"bench","inscription":"Mary Anne Lambert Bench"}},{"type":"node","id":13176504600,"lat":47.6086791,"lon":-122.1788665,"tags":{"amenity":"bench","inscription":"Kathleen Stuepfert Bench"}},{"type":"node","id":13176504601,"lat":47.6087446,"lon":-122.1784376,"tags":{"amenity":"bench","inscription":"Mrs. George Malwitz Bench"}},{"type":"node","id":13176504603,"lat":47.6082777,"lon":-122.1783426,"tags":{"amenity":"bench","inscription":"June Willard Bench"}},{"type":"node","id":13176504604,"lat":47.6081776,"lon":-122.1779729,"tags":{"amenity":"bench","inscription":"Tracy Family Bench"}},{"type":"node","id":13176504612,"lat":47.6094553,"lon":-122.1793183,"tags":{"amenity":"bench","inscription":"Clyde and Shirley Collins"}},{"type":"node","id":13182414433,"lat":47.6083897,"lon":-122.1752967},{"type":"node","id":13182414434,"lat":47.6083546,"lon":-122.1751392},{"type":"node","id":13182414435,"lat":47.6083905,"lon":-122.1752387},{"type":"node","id":13183668576,"lat":47.6086544,"lon":-122.1796928,"tags":{"amenity":"bench","inscription":"Soth Family Bench"}},{"type":"node","id":13183668577,"lat":47.6078554,"lon":-122.1794754,"tags":{"amenity":"bench","inscription":"Springgate Bench"}},{"type":"node","id":13183668578,"lat":47.607854,"lon":-122.1788603,"tags":{"amenity":"bench","inscription":"Donald C. Woodworth Bench"}},{"type":"node","id":13183672010,"lat":47.6067252,"lon":-122.1764948,"tags":{"amenity":"bench","inscription":"James and Maria Koh Bench"}},{"type":"node","id":13183672011,"lat":47.6066943,"lon":-122.1763004,"tags":{"amenity":"bench","inscription":"Cleo and Peter Raulerson Bench"}},{"type":"node","id":13183672012,"lat":47.6081105,"lon":-122.1780178,"tags":{"amenity":"bench","inscription":"Marjory Rowley Bench"}},{"type":"node","id":13347000412,"lat":47.610929,"lon":-122.1910144},{"type":"node","id":13347000413,"lat":47.6101749,"lon":-122.191016,"tags":{"barrier":"kerb","kerb":"lowered","tactile_paving":"yes","wheelchair":"yes"}},{"type":"node","id":13347000414,"lat":47.6101537,"lon":-122.1906651,"tags":{"barrier":"kerb","kerb":"lowered","tactile_paving":"yes","wheelchair":"yes"}},{"type":"node","id":13347000418,"lat":47.6101556,"lon":-122.191013},{"type":"node","id":13347000432,"lat":47.6108484,"lon":-122.1910124},{"type":"node","id":13387667961,"lat":47.6045719,"lon":-122.1660442,"tags":{"amenity":"bench","backrest":"yes"}},{"type":"node","id":13387667962,"lat":47.6046128,"lon":-122.1660646,"tags":{"amenity":"bench","backrest":"yes"}},{"type":"node","id":13387667963,"lat":47.6026636,"lon":-122.1652569,"tags":{"amenity":"bench","backrest":"yes"}},{"type":"node","id":13422147156,"lat":47.6016171,"lon":-122.1909166},{"type":"node","id":13563444208,"lat":47.5999191,"lon":-122.1891922,"tags":{"addr:city":"Bellevue","addr:housenumber":"1215","addr:postcode":"98004","addr:state":"WA","addr:street":"114th Avenue Southeast","amenity":"clinic","healthcare":"clinic","healthcare:speciality":"psychiatry","name":"Rogers Behavioral Health"}},{"type":"way","id":47324541,"nodes":[602752072,602752073,602752074,602752075,602752072],"tags":{"amenity":"toilets","building":"yes","wheelchair":"limited"}},{"type":"way","id":51424642,"nodes":[656440930,656440933,656440935,656440939,656440930],"tags":{"amenity":"toilets","building":"toilets","toilets:disposal":"flush","wheelchair":"yes"}},{"type":"way","id":55480144,"nodes":[697212625,697212626,697212627,697212628,8909509684,8909509683,697212625],"tags":{"addr:city":"Bellevue","addr:housenumber":"11015","addr:postcode":"98004","addr:state":"WA","addr:street":"Main Street","amenity":"dentist","building":"yes","building:levels":"2","healthcare":"dentist","name":"Advanced Dentistry Northwest"}},{"type":"way","id":55696671,"nodes":[699877324,699877327,699877330,699877334,9696989085,4789031622,4789031621,4789030220,4789030219,4789030218,4789030217,4789030216,4789030215,4789030214,4789030213,4789030212,699877340,4789031624,4789031623,4789030211,699877347,4789401004,4789401013,699877357,699877364,699877369,699877376,4795955133,699877381,4795955149,4795955152,3967446433,12834786486,12834786485,12834786483,356539695,12834786484,699877396,699877324],"tags":{"addr:city":"Bellevue","addr:housenumber":"3000","addr:postcode":"98007","addr:state":"WA","addr:street":"Landerholm Circle Southeast","amenity":"college","education":"college","ele":"118","gnis:feature_id":"1503290","name":"Bellevue College","operator":"Bellevue College","phone":"+1-425-564-1000","toilets:wheelchair":"yes","website":"https://www.bellevuecollege.edu/","wheelchair":"yes","wikidata":"Q4883929"}},{"type":"way","id":71070179,"nodes":[846500252,846500244,9652135135,846500264,846500236,846500252],"tags":{"addr:city":"Bellevue","addr:housenumber":"15","addr:postcode":"98007-4942","addr:state":"WA","addr:street":"148th Avenue Northeast","atm":"yes","brand":"7-Eleven","brand:wikidata":"Q259340","building":"retail","building:levels":"1","check_date":"2023-11-28","delivery":"yes","fast_food":"yes","fuel:propane":"yes","name":"7-Eleven","opening_hours":"24/7","phone":"+1-425-746-7564","ref":"17355","roof:levels":"0","shop":"convenience","website":"https://www.7-eleven.com/locations/wa/bellevue/15-148th-ave-ne-17355","wheelchair":"yes"}},{"type":"way","id":71070185,"nodes":[846500247,846500275,846500250,9652135129,846500246,846500247],"tags":{"addr:city":"Bellevue","addr:housenumber":"19","addr:postcode":"98007","addr:street":"148th Avenue Northeast","amenity":"restaurant","building":"yes","check_date":"2024-06-18","cuisine":"chinese","diet:vegetarian":"yes","indoor_seating":"yes","name":"Best Wok","opening_hours":"Mo-Th 11:30-21:45; Fr,Sa 11:30-22:45; Su 12:00-21:45","outdoor_seating":"no","wheelchair":"yes"}},{"type":"way","id":160075093,"nodes":[2266606264,4753933710,4753933709,9112465812,9112465808,1721508704,1721508711,1721508694,1721508626,1721508746,4753933708,1721508740,1721508724,1721508768,4796314467,1721508696,1721508745,1721508594,1721508767,1721508648,2266606264],"tags":{"barrier":"fence","leisure":"dog_park","wheelchair":"yes"}},{"type":"way","id":160075094,"nodes":[1721508643,1721508599,1721508713,9678875179,1721508621,1721508671,1721508580,1721508603,1721508707,9112511887,1721508723,1721508643],"tags":{"leisure":"sports_centre","name":"Robinswood Tennis Center","sport":"tennis","wheelchair":"yes"}},{"type":"way","id":160076907,"nodes":[1721515849,1721515971,4796314468,9671458170,1721515851,4753933711,9671458175,1721515912,1721515885,1721515839,1721515855,1721515962,1721515902,1721515849],"tags":{"barrier":"fence","dog":"yes","leisure":"dog_park","wheelchair":"yes"}},{"type":"way","id":184858839,"nodes":[1954268060,1954268124],"tags":{"handrail":"yes","highway":"steps","incline":"down","ramp":"yes","ramp:wheelchair":"yes","step_count":"3","wheelchair":"yes"}},{"type":"way","id":184858844,"nodes":[1954268139,1954268142,1954268031,1954268144,1954268145,1954268139],"tags":{"addr:city":"Bellevue","addr:housenumber":"355","addr:postcode":"98005","addr:state":"WA","addr:street":"118th Avenue Southeast","building":"office","wheelchair":"yes"}},{"type":"way","id":204085285,"nodes":[2141021800,2141021827,2141021805,2141021817,2141021800],"tags":{"amenity":"toilets","building":"yes"}},{"type":"way","id":210457899,"nodes":[9555541744,9555541745],"tags":{"attraction":"bridge","bridge":"yes","bridge:structure":"suspension","covered":"no","height":"46","highway":"footway","image":"File:Bellevue,_WA_(2023)_-_18.jpg","incline":"0%","layer":"1","lit":"no","name":"The Ravine Experience","oneway":"no","source:height":"https://bellevuebotanical.org/wp-content/uploads/2020/06/Childrens-Discovery-Map-2019-back.pdf","surface":"metal","tourism":"attraction","wheelchair":"yes","width":"1.5"}},{"type":"way","id":235666795,"nodes":[1721508742,2437404634,2437404630,1721508640,1721508742],"tags":{"addr:city":"Bellevue","addr:housenumber":"15001","addr:postcode":"98007","addr:street":"Southeast 22nd Street","amenity":"toilets","building":"yes","fee":"no","toilets:disposal":"flush","wheelchair":"yes","winter_service":"yes"}},{"type":"way","id":237049358,"nodes":[2449984890,9112465035,2449984889,9112465023,2449984887,9112465040,2449984888,9112465019,2449984890],"tags":{"amenity":"toilets","building":"toilets","changing_table":"no","fee":"no","wheelchair":"yes"}},{"type":"way","id":253529778,"nodes":[2594496496,9652096699,3326230238,9650831069,9650831071,9650831072,9650831070,3326230225,9652096696,2594496512,3326230223,3326230224,9650831067,9650831068,9652096697,2594496496],"tags":{"addr:city":"Bellevue","addr:housenumber":"180","addr:postcode":"98007","addr:state":"WA","addr:street":"148th Avenue Southeast","amenity":"cafe","branch":"Kelsey Creek - Bellevue","brand":"Starbucks","brand:wikidata":"Q37158","building":"yes","check_date":"2023-11-28","cuisine":"coffee_shop","diet:vegetarian":"yes","drive_through":"yes","indoor_seating":"yes","name":"Starbucks","official_name":"Starbucks Coffee","opening_hours":"Mo-Fr 05:00-21:00; Sa,Su 05:00-20:00","outdoor_seating":"yes","phone":"+1-425-378-9496","ref":"1005401","takeaway":"yes","website":"https://www.starbucks.com/store-locator/store/1005401/kelsey-creek-bellevue-180-148th-ave-se-bellevue-wa-980075174-us","wheelchair":"yes"}},{"type":"way","id":345607348,"nodes":[3522504949,8164201988,8909509685,8909509688,3522504954,3522504965,8164202016],"tags":{"description":"Main Street (S sidewalk)","footway":"sidewalk","highway":"footway","surface":"concrete","wheelchair":"yes"}},{"type":"way","id":347026245,"nodes":[8164201990,9760819587,3534737522,5759462302],"tags":{"bicycle":"designated","description":"Main Street (S sidewalk)","foot":"designated","highway":"cycleway","surface":"concrete","wheelchair":"yes"}},{"type":"way","id":404511023,"nodes":[13347000413,13347000418,8164201998,8164201997,5759462303],"tags":{"button_operated":"yes","crossing":"marked","crossing:markings":"yes","crossing_ref":"pelican","foot":"designated","footway":"crossing","highway":"footway","lit":"yes","surface":"asphalt","traffic_signals":"no","traffic_signals:foot":"yes","traffic_signals:sound":"yes","wheelchair":"yes"}},{"type":"way","id":404511024,"nodes":[5759462303,8164201996,8164202000,5759462304],"tags":{"button_operated":"yes","crossing":"marked","crossing:markings":"yes","crossing_ref":"pelican","foot":"designated","footway":"crossing","highway":"footway","lit":"yes","surface":"asphalt","traffic_signals":"yes","traffic_signals:foot":"yes","traffic_signals:sound":"yes","wheelchair":"yes"}},{"type":"way","id":408072382,"nodes":[4100909289,4100909293,4100909291,4100909287,4100909289],"tags":{"amenity":"bench","name":"Federal Field Bleachers","seats":"56"}},{"type":"way","id":479471931,"nodes":[4725640045,4725640046,4725640047,4725640048,4725640045],"tags":{"amenity":"toilets","building":"yes"}},{"type":"way","id":479565519,"nodes":[4726421749,4726421750,4726421751,4726421752,4726421753,4726421754,4726421755,4726421756,4726421749],"tags":{"amenity":"toilets","building":"yes"}},{"type":"way","id":481940524,"nodes":[4748220247,4748220248,4748220249,4748220250,4748220247],"tags":{"amenity":"toilets","building":"yes"}},{"type":"way","id":482979420,"nodes":[4757440666,4757440667,4757440668,4757440669,4757440670,4757440671,9652144430,4757440672,4757440673,4757440666],"tags":{"addr:housenumber":"17","addr:state":"WA","addr:street":"148th Avenue Southeast","addr:unit":"2","building":"yes","healthcare":"optometrist","name":"Lake Hills Eye Clinic","phone":"+1-425-644-6478","website":"http://www.lakehillseye.com/index.html"}},{"type":"way","id":484297525,"nodes":[4770412410,4770412411,4770412412,4770412413,4770412410],"tags":{"amenity":"toilets","building":"yes"}},{"type":"way","id":503282743,"nodes":[7852260361,4936217636],"tags":{"foot":"designated","footway":"sidewalk","highway":"footway","incline":"down","surface":"concrete","tactile_paving":"yes","wheelchair":"yes"}},{"type":"way","id":503282745,"nodes":[4979766278,4979766279],"tags":{"foot":"designated","footway":"sidewalk","highway":"footway","surface":"concrete","wheelchair":"yes"}},{"type":"way","id":503282746,"nodes":[8568144221,4936217908,4936217907,4936217906,4936217905,4936217904,4936217900,4936217899,4936217898,4936217897,4936217896,4936217892,4936217891,4936217889],"tags":{"footway":"sidewalk","highway":"footway","surface":"concrete","wheelchair":"yes"}},{"type":"way","id":503282756,"nodes":[4936217966,4936217965,4936217964,4936217963,4936217962,4936217961,4936217960,4936217958,4936217956,4936217696,4936217952,4936217953],"tags":{"footway":"sidewalk","highway":"footway","surface":"concrete","wheelchair":"yes"}},{"type":"way","id":503282757,"nodes":[4936217980,4936217979,4936217679,4936217678,4936217677,4936217676,4936217680,4936217681],"tags":{"footway":"sidewalk","highway":"footway","surface":"paved","wheelchair":"yes"}},{"type":"way","id":511576227,"nodes":[5003924942,8164238525,5003924945,8164238560],"tags":{"description":"112th Av NE (W sidewalk)","foot":"designated","footway":"sidewalk","highway":"footway","surface":"concrete","wheelchair":"yes"}},{"type":"way","id":515389196,"nodes":[4067939790,7852264288,4067939791,7852264292],"tags":{"description":"116th Ave NE (W side)","foot":"designated","footway":"sidewalk","highway":"footway","surface":"concrete","wheelchair":"yes"}},{"type":"way","id":518430067,"nodes":[9753230730,9753174306,9753174305,9753174304,7041194056,7041194081,13422147156,9753174311,9753174312,9753174313,9753174314,9753230720,9753174297,9753174315,9753174316,9753230721,9753174295,7041194052,5057085619,5057085618,9753230726,11803549126,5057085617,5057085616,11021296548,9760819594,8164201995,5759462302],"tags":{"bicycle":"designated","description":"112th Place Southeast (W sidewalk)","foot":"designated","highway":"cycleway","surface":"concrete","wheelchair":"yes"}},{"type":"way","id":518430069,"nodes":[9875643931,3522504941,3522504944,3522504949],"tags":{"description":"110th Place Southeast (W sidewalk)","footway":"sidewalk","highway":"footway","surface":"paved","wheelchair":"yes"}},{"type":"way","id":518438401,"nodes":[5057086723,8164238518,5057169181],"tags":{"crossing":"marked","crossing_ref":"pelican","footway":"crossing","highway":"footway","surface":"asphalt","traffic_signals":"no","wheelchair":"yes"}},{"type":"way","id":518438402,"nodes":[3522504949,5057086723],"tags":{"description":"Main Street (S sidewalk)","highway":"footway","incline":"down","surface":"concrete","tactile_paving":"yes","wheelchair":"yes"}},{"type":"way","id":607982255,"nodes":[4936217953,5760824009,5760824008,5760824007,5760824006,5760824005,5760824004,5760824003,5760824002],"tags":{"footway":"sidewalk","highway":"footway","surface":"paved","wheelchair":"yes"}},{"type":"way","id":607982827,"nodes":[4936217848,8568105505,8568105507,8568105506,8568105504,4936217660,4936217658,4936217844,4936217655,4936217842,4936217841,4936217840,4936217839,4936217837],"tags":{"foot":"designated","footway":"sidewalk","highway":"footway","surface":"concrete","wheelchair":"yes"}},{"type":"way","id":617263668,"nodes":[5835147057,5835147058,5835147059,5835147060,5835147061,5835147062,5835147063,5835147064,5835147065,5835147066,2621740971,5835147067,5835147057],"tags":{"access":"yes","amenity":"parking","capacity":"4","fee":"no","name":"Sunset Park parking area","park_ride":"no","parking":"surface","supervised":"no","surface":"paved","wheelchair":"limited"}},{"type":"way","id":696959324,"nodes":[6545372560,6545372561,6545372562,6545372563,6545372560],"tags":{"amenity":"toilets","building":"toilets","wheelchair":"yes"}},{"type":"way","id":790801839,"nodes":[7392898377,7392898376,7392898375,7392898374,7392898377],"tags":{"access":"yes","amenity":"toilets","building":"yes","drinking_water":"yes","operator":"Bellevue College","toilets:disposal":"flush"}},{"type":"way","id":841610234,"nodes":[7852260346,7852260352,7852260348],"tags":{"crossing":"unmarked","footway":"crossing","highway":"footway","surface":"concrete","wheelchair":"yes"}},{"type":"way","id":841610235,"nodes":[7852260347,7852260346],"tags":{"footway":"sidewalk","highway":"footway","incline":"down","surface":"concrete","wheelchair":"yes"}},{"type":"way","id":841610239,"nodes":[7852260353,7852260347],"tags":{"footway":"sidewalk","highway":"footway","surface":"concrete","wheelchair":"yes"}},{"type":"way","id":841610240,"nodes":[7852260345,7852260353],"tags":{"footway":"sidewalk","highway":"footway","incline":"up","surface":"concrete","wheelchair":"yes"}},{"type":"way","id":841610241,"nodes":[7852260355,7852260354],"tags":{"footway":"sidewalk","highway":"footway","incline":"down","surface":"concrete","wheelchair":"yes"}},{"type":"way","id":841610242,"nodes":[7852260354,7852260356,7852260345],"tags":{"crossing":"unmarked","footway":"crossing","highway":"footway","surface":"concrete","wheelchair":"yes"}},{"type":"way","id":841610243,"nodes":[4936217634,7852260359],"tags":{"footway":"sidewalk","highway":"footway","incline":"up","surface":"concrete","wheelchair":"yes"}},{"type":"way","id":841610244,"nodes":[7852260357,7852260360,4936217634],"tags":{"crossing":"unmarked","footway":"crossing","highway":"footway","surface":"concrete","wheelchair":"yes"}},{"type":"way","id":841610245,"nodes":[7852260358,7852260357],"tags":{"footway":"sidewalk","highway":"footway","incline":"down","surface":"concrete","wheelchair":"yes"}},{"type":"way","id":841610246,"nodes":[7852260359,7852260355],"tags":{"footway":"sidewalk","highway":"footway","surface":"concrete","wheelchair":"yes"}},{"type":"way","id":841610247,"nodes":[7852260361,4936217830],"tags":{"foot":"designated","footway":"sidewalk","highway":"footway","surface":"concrete","wheelchair":"yes"}},{"type":"way","id":841610248,"nodes":[4936217830,7852260362,7852260344,7852260358],"tags":{"footway":"sidewalk","highway":"footway","surface":"concrete","wheelchair":"yes"}},{"type":"way","id":841610249,"nodes":[4936217641,4936217639],"tags":{"foot":"designated","footway":"sidewalk","highway":"footway","incline":"down","surface":"concrete","tactile_paving":"yes","wheelchair":"yes"}},{"type":"way","id":841610250,"nodes":[4979766279,4936217641],"tags":{"foot":"designated","footway":"sidewalk","highway":"footway","surface":"concrete","wheelchair":"yes"}},{"type":"way","id":841698971,"nodes":[7852967439,7852967442,7852967441],"tags":{"crossing":"unmarked","crossing:markings":"no","description":"112th Av NE (E sidewalk)","foot":"designated","footway":"crossing","highway":"footway","surface":"concrete","wheelchair":"yes"}},{"type":"way","id":841698972,"nodes":[7852967440,7852967444],"tags":{"description":"112th Av NE (E sidewalk)","foot":"designated","footway":"sidewalk","highway":"footway","surface":"concrete","wheelchair":"yes"}},{"type":"way","id":841698973,"nodes":[7852967441,7852967440],"tags":{"description":"112th Av NE (E sidewalk)","foot":"designated","footway":"sidewalk","highway":"footway","incline":"up","surface":"concrete","wheelchair":"yes"}},{"type":"way","id":841698974,"nodes":[7852967443,7852967447,7852967445],"tags":{"crossing":"unmarked","crossing:markings":"no","description":"112th Av NE (E sidewalk)","foot":"designated","footway":"crossing","highway":"footway","surface":"concrete","wheelchair":"yes"}},{"type":"way","id":841698975,"nodes":[7852967444,7852967443],"tags":{"description":"112th Av NE (E sidewalk)","footway":"sidewalk","highway":"footway","incline":"up","surface":"concrete","wheelchair":"yes"}},{"type":"way","id":841698976,"nodes":[7852967445,7852967446],"tags":{"description":"112th Av NE (E sidewalk)","footway":"sidewalk","highway":"footway","incline":"up","surface":"concrete","wheelchair":"yes"}},{"type":"way","id":841698977,"nodes":[7852967446,5003952892,5221746854],"tags":{"description":"112th Av NE (E sidewalk)","foot":"designated","footway":"sidewalk","highway":"footway","surface":"concrete","wheelchair":"yes"}},{"type":"way","id":877479568,"nodes":[5759462304,8164201999,13347000414],"tags":{"button_operated":"yes","crossing":"marked","crossing:markings":"yes","crossing_ref":"pelican","foot":"designated","footway":"crossing","highway":"footway","lit":"yes","surface":"asphalt","traffic_signals":"yes","traffic_signals:foot":"yes","traffic_signals:sound":"yes","wheelchair":"yes"}},{"type":"way","id":877479569,"nodes":[8164201990,5057169181],"tags":{"description":"Main Street (S sidewalk)","highway":"footway","incline":"down","surface":"concrete","tactile_paving":"yes","wheelchair":"yes"}},{"type":"way","id":877479601,"nodes":[8164238563,13347000412,13347000432,8164238555,12231200291,12231200293,5003924943],"tags":{"description":"112th Av NE (W sidewalk)","foot":"designated","footway":"sidewalk","highway":"footway","surface":"concrete","wheelchair":"yes"}},{"type":"way","id":877479605,"nodes":[8164238560,8164238559],"tags":{"description":"112th Av NE (W sidewalk)","foot":"designated","footway":"sidewalk","highway":"footway","incline":"down","surface":"concrete","wheelchair":"yes"}},{"type":"way","id":877479607,"nodes":[8164238559,8164238564,8164238563],"tags":{"crossing":"unmarked","crossing:markings":"no","description":"112th Av NE (W sidewalk)","foot":"designated","footway":"crossing","highway":"footway","surface":"concrete","wheelchair":"yes"}},{"type":"way","id":922976468,"nodes":[4936217681,5760820805,8567988801,4936217684,4936217685,4936217686,4936217973,4936217972,4936217687,4936217689,4936217690,4936217970,4936217969,4936217691],"tags":{"footway":"sidewalk","highway":"footway","surface":"concrete","wheelchair":"yes"}},{"type":"way","id":922976469,"nodes":[4936217691,8567988807,4936217968],"tags":{"crossing":"unmarked","footway":"crossing","highway":"footway","surface":"concrete","wheelchair":"yes"}},{"type":"way","id":922976472,"nodes":[4936217968,4936217967,8567988808],"tags":{"footway":"sidewalk","highway":"footway","surface":"concrete","wheelchair":"yes"}},{"type":"way","id":922976473,"nodes":[8567988808,8567988812,4936217966],"tags":{"crossing":"unmarked","footway":"crossing","highway":"footway","surface":"concrete","wheelchair":"yes"}},{"type":"way","id":922976475,"nodes":[4936217951,4936217950,8567988814,4936217756,4936217757],"tags":{"footway":"sidewalk","highway":"footway","surface":"concrete","wheelchair":"yes"}},{"type":"way","id":922993084,"nodes":[4936217837,4936217836,4936217649,4979766278],"tags":{"foot":"designated","footway":"sidewalk","highway":"footway","surface":"concrete","wheelchair":"yes"}},{"type":"way","id":922993087,"nodes":[4936217852,4936217851],"tags":{"footway":"sidewalk","highway":"footway","incline":"down","surface":"concrete","tactile_paving":"yes","wheelchair":"yes"}},{"type":"way","id":922993092,"nodes":[8568105514,4936217664,4936217860,4936217859,4936217857,4936217855,4936217853,4936217852],"tags":{"foot":"designated","footway":"sidewalk","highway":"footway","surface":"concrete","wheelchair":"yes"}},{"type":"way","id":922993093,"nodes":[8568105514,8568105515],"tags":{"footway":"sidewalk","highway":"footway","incline":"down","surface":"concrete","tactile_paving":"yes","wheelchair":"yes"}},{"type":"way","id":922993094,"nodes":[4936217663,8568144217,11069786735,8568105515],"tags":{"crossing":"unmarked","footway":"crossing","highway":"footway","surface":"concrete","wheelchair":"yes"}},{"type":"way","id":922993095,"nodes":[8568105516,4936217663],"tags":{"footway":"sidewalk","highway":"footway","incline":"down","surface":"concrete","wheelchair":"yes"}},{"type":"way","id":922993096,"nodes":[5760820803,4936217866,4936217667,4936217865,4936217665,4936217864,4936217666,8568105516],"tags":{"footway":"sidewalk","highway":"footway","surface":"concrete","wheelchair":"yes"}},{"type":"way","id":922993097,"nodes":[4936217878,4936217877,4936217875,4936217671,4936217873,4936217670,5760820803],"tags":{"footway":"sidewalk","highway":"footway","surface":"concrete","wheelchair":"yes"}},{"type":"way","id":922993098,"nodes":[8568144218,8568144219,4936217878],"tags":{"crossing":"unmarked","footway":"crossing","highway":"footway","surface":"concrete","wheelchair":"yes"}},{"type":"way","id":922993115,"nodes":[4936217674,4936217673,4936217881,4936217880,8568144218],"tags":{"footway":"sidewalk","highway":"footway","surface":"concrete","wheelchair":"yes"}},{"type":"way","id":922993116,"nodes":[4936217889,8568262047,8568144240],"tags":{"crossing":"unmarked","footway":"crossing","highway":"footway","surface":"concrete","wheelchair":"yes"}},{"type":"way","id":923009714,"nodes":[4936217887,4936217886,4936217885],"tags":{"footway":"sidewalk","highway":"footway","surface":"concrete","wheelchair":"yes"}},{"type":"way","id":923009715,"nodes":[4936217885,4936217674],"tags":{"footway":"sidewalk","highway":"footway","surface":"concrete","wheelchair":"yes"}},{"type":"way","id":923009735,"nodes":[8568144240,4936217887],"tags":{"footway":"sidewalk","highway":"footway","surface":"concrete","wheelchair":"yes"}},{"type":"way","id":985701124,"nodes":[1721508643,1721508723,9112511887,1721508713,1721508599,1721508643],"tags":{"addr:city":"Bellevue","addr:housenumber":"2400","addr:postcode":"98007","addr:street":"151st Place Southeast","building":"sports_hall","wheelchair":"yes"}},{"type":"way","id":1077004856,"nodes":[9875643930,7626181240,9875643931],"tags":{"crossing":"unmarked","description":"110th Place Southeast (W sidewalk)","footway":"crossing","highway":"footway","surface":"paved","wheelchair":"yes"}},{"type":"way","id":1077004857,"nodes":[3522504938,9875643930],"tags":{"description":"110th Place Southeast (W sidewalk)","footway":"sidewalk","highway":"footway","surface":"paved","wheelchair":"yes"}},{"type":"way","id":1358502486,"nodes":[12573393202,12573393203,12573393204,12573393205],"tags":{"amenity":"bench","armrest":"no","backrest":"no","material":"wood","seats":"12"}},{"type":"way","id":1434239752,"nodes":[13182414433,13182414435],"tags":{"access":"yes","covered":"no","handrail":"yes","highway":"steps","incline":"up","indoor":"no","oneway":"no","ramp":"no","step_count":"12","stroller":"no","surface":"concrete","wheelchair":"no"}},{"type":"way","id":1434239753,"nodes":[4057274191,13182414434],"tags":{"access":"yes","covered":"no","handrail":"yes","highway":"steps","incline":"up","indoor":"no","oneway":"no","ramp":"no","step_count":"8","stroller":"no","surface":"concrete","wheelchair":"no"}}]}