{"version":0.6,"generator":"Overpass API 0.7.62.10 2d4cfc48","osm3s":{"timestamp_osm_base":"2026-03-01T06:52:01Z","copyright":"The data included in this document is from www.openstreetmap.org. The data is made available under ODbL."},"elements":[{"type":"node","id":321156101,"lat":47.6452802,"lon":-122.1335286},{"type":"node","id":321710312,"lat":47.6445319,"lon":-122.1337376,"tags":{"bin":"yes","bus":"yes","departures_board":"timetable","gtfs:stop_id:US-WA-KCM":"71336","highway":"bus_stop","lit":"yes","name":"State Route 520 & Northeast 40th Street","network":"King County Metro","network:short":"KCM","network:wikidata":"Q6411393","operator":"King County Metro","operator:short":"KCM","operator:wikidata":"Q6411393","operator:wikipedia":"en:King County Metro","public_transport":"platform","ref":"71336","route_ref":"542;545;566;982","shelter":"separate","tactile_paving":"no","wheelchair":"yes"}},{"type":"node","id":326876448,"lat":47.6452279,"lon":-122.1353266,"tags":{"bench":"yes","bin":"yes","bus":"yes","gtfs:stop_id:US-WA-KCM":"71335","highway":"bus_stop","lit":"yes","name":"State Route 520 & Northeast 40th Street","network":"King County Metro","network:short":"KCM","network:wikidata":"Q6411393","operator":"King County Metro","operator:short":"KCM","operator:wikidata":"Q6411393","operator:wikipedia":"en:King County Metro","public_transport":"platform","ref":"71335","route_ref":"542;545;566","shelter":"separate","tactile_paving":"no","wheelchair":"yes"}},{"type":"node","id":740206579,"lat":47.6441398,"lon":-122.1431526,"tags":{"bus":"yes","gtfs:feed":"US-WA-KCM","gtfs:stop_id":"73250","highway":"bus_stop","name":"148th Ave NE & NE 37th Pl","network":"King County Metro","network:short":"KCM","network:wikidata":"Q6411393","operator":"King County Metro","operator:short":"KCM","operator:wikidata":"Q6411393","operator:wikipedia":"en:King County Metro","public_transport":"platform","ref":"73250","route_ref":"221;223","wheelchair":"yes"}},{"type":"node","id":1030907164,"lat":47.6658533,"lon":-122.196645,"tags":{"addr:city":"Kirkland","addr:housenumber":"10625","addr:postcode":"98033","addr:street":"Northeast 68th Street","amenity":"pharmacy","brand":"CVS Pharmacy","brand:wikidata":"Q2078880","check_date":"2025-12-30","healthcare":"pharmacy","name":"CVS Pharmacy","short_name":"CVS"}},{"type":"node","id":2142181956,"lat":47.6646888,"lon":-122.1644158,"tags":{"addr:city":"Kirkland","addr:housenumber":"6507","addr:postcode":"98033","addr:street":"132nd Avenue Northeast","amenity":"dentist","healthcare":"dentist","name":"Bridle Trails Family Dentistry"}},{"type":"node","id":2209473235,"lat":47.6444193,"lon":-122.2013178},{"type":"node","id":2209473236,"lat":47.6444152,"lon":-122.2014017},{"type":"node","id":2209473238,"lat":47.6444332,"lon":-122.2010446},{"type":"node","id":2209473239,"lat":47.6444319,"lon":-122.2010779},{"type":"node","id":2209473246,"lat":47.6445931,"lon":-122.2014176},{"type":"node","id":2209473250,"lat":47.6446076,"lon":-122.2010602},{"type":"node","id":2276341487,"lat":47.6441991,"lon":-122.1972229},{"type":"node","id":2295272069,"lat":47.6453037,"lon":-122.1976114,"tags":{"addr:city":"Kirkland","addr:housename":"Kenworth Truck Company","addr:housenumber":"10630","addr:postcode":"98033","addr:street":"NE 38th Place","name":"Kenworth Truck Company","office":"company","phone":"+1-425-828-5000","source":"Employee","website":"https://www.kenworth.com/","wheelchair":"yes","wikidata":"Q774830","wikipedia":"en:Kenworth"}},{"type":"node","id":2439935999,"lat":47.668177,"lon":-122.1456845},{"type":"node","id":2699075005,"lat":47.644662,"lon":-122.132503,"tags":{"bench":"yes","bin":"yes","gtfs:stop_id:US-WA-KCM":"68398","highway":"bus_stop","lit":"yes","local_ref":"7","name":"Redmond Technology Station Bay 7 - Bay 7","network":"King County Metro","network:short":"KCM","network:wikidata":"Q6411393","operator":"King County Metro","operator:short":"KCM","operator:wikidata":"Q6411393","operator:wikipedia":"en:King County Metro","public_transport":"platform","ref":"68398","route_ref":"245;B Line","shelter":"yes","tactile_paving":"no","wheelchair":"yes"}},{"type":"node","id":2699075023,"lat":47.6468926,"lon":-122.1428634,"tags":{"bus":"yes","gtfs:stop_id:US-WA-KCM":"73342","highway":"bus_stop","name":"148th Avenue Northeast & Northeast 40th Street","network":"King County Metro","network:short":"KCM","network:wikidata":"Q6411393","operator":"King County Metro","operator:short":"KCM","operator:wikidata":"Q6411393","operator:wikipedia":"en:King County Metro","public_transport":"platform","ref":"73342","route_ref":"221;223;225;269;B Line","wheelchair":"yes"}},{"type":"node","id":2957879604,"lat":47.6695969,"lon":-122.1971447,"tags":{"entrance":"yes","wheelchair":"yes"}},{"type":"node","id":2957881806,"lat":47.6691502,"lon":-122.1971087,"tags":{"access":"private","entrance":"yes","wheelchair":"yes"}},{"type":"node","id":3134327728,"lat":47.6481771,"lon":-122.1894199,"tags":{"amenity":"bench","backrest":"yes","direction":"SE","material":"wood","seats":"1"}},{"type":"node","id":3313348147,"lat":47.6658786,"lon":-122.2073515},{"type":"node","id":3313348162,"lat":47.6658916,"lon":-122.2074615},{"type":"node","id":3313348249,"lat":47.6659549,"lon":-122.2073315},{"type":"node","id":3313348257,"lat":47.665968,"lon":-122.2074415},{"type":"node","id":3327679633,"lat":47.6670307,"lon":-122.198282,"tags":{"addr:city":"Kirkland","addr:housenumber":"10600","addr:postcode":"98033","addr:street":"Northeast 68th Street","addr:unit":"C","healthcare":"physiotherapist","name":"Spoarts Physical Therapy","phone":"+1-425-628-2031","website":"https://sportsptcenters.com/"}},{"type":"node","id":3327680029,"lat":47.6695033,"lon":-122.1966277,"tags":{"access":"customers","entrance":"yes","wheelchair":"yes"}},{"type":"node","id":3327680043,"lat":47.6695805,"lon":-122.1977624,"tags":{"access":"private","entrance":"yes","wheelchair":"yes"}},{"type":"node","id":3327680066,"lat":47.6698438,"lon":-122.1976357,"tags":{"access":"private","entrance":"yes","wheelchair":"yes"}},{"type":"node","id":3327680090,"lat":47.6699445,"lon":-122.1967437,"tags":{"access":"private","entrance":"yes","wheelchair":"yes"}},{"type":"node","id":3327680104,"lat":47.670275,"lon":-122.1967907,"tags":{"access":"private","entrance":"yes","wheelchair":"yes"}},{"type":"node","id":3333476102,"lat":47.6605167,"lon":-122.2059572},{"type":"node","id":3333476111,"lat":47.6605199,"lon":-122.2061693},{"type":"node","id":3333476171,"lat":47.6606042,"lon":-122.2059543},{"type":"node","id":3333476177,"lat":47.660614,"lon":-122.206049},{"type":"node","id":3333476178,"lat":47.6606157,"lon":-122.2061662},{"type":"node","id":3334413701,"lat":47.651741,"lon":-122.195728},{"type":"node","id":3334413702,"lat":47.651741,"lon":-122.1958007},{"type":"node","id":3334413758,"lat":47.6518083,"lon":-122.1957279},{"type":"node","id":3334413760,"lat":47.6518084,"lon":-122.1958006},{"type":"node","id":3343029708,"lat":47.6671794,"lon":-122.164451,"tags":{"addr:city":"Kirkland","addr:housenumber":"13112","addr:postcode":"98033","addr:street":"Northeast 70th Place","healthcare":"optometrist","name":"Kirkland Vision Center","opening_hours":"Tu-Th 08:30-18:00; Fr 09:00-17:00; Sa 09:00-16:00","phone":"+1-425-822-8253","website":"https://www.kirklandvision.com/"}},{"type":"node","id":3343030624,"lat":47.6681575,"lon":-122.1696957},{"type":"node","id":3343030646,"lat":47.6681735,"lon":-122.1697529},{"type":"node","id":3343030686,"lat":47.668224,"lon":-122.1696547},{"type":"node","id":3343030702,"lat":47.6682401,"lon":-122.1697119},{"type":"node","id":3735373831,"lat":47.6563393,"lon":-122.1844317},{"type":"node","id":3735373832,"lat":47.6564341,"lon":-122.1844294},{"type":"node","id":3735373833,"lat":47.6564352,"lon":-122.184534},{"type":"node","id":3735373834,"lat":47.6563404,"lon":-122.1845363},{"type":"node","id":3807447134,"lat":47.644336,"lon":-122.1325924},{"type":"node","id":3937055904,"lat":47.6705439,"lon":-122.2062524,"tags":{"amenity":"drinking_water"}},{"type":"node","id":3937055905,"lat":47.6659248,"lon":-122.2074595,"tags":{"amenity":"drinking_water"}},{"type":"node","id":3947190825,"lat":47.6702153,"lon":-122.1982543,"tags":{"amenity":"drinking_water","check_date":"2024-05-11","fee":"no"}},{"type":"node","id":4039510017,"lat":47.6711365,"lon":-122.2024036,"tags":{"bus":"yes","gtfs:feed":"US-WA-KCM","gtfs:stop_id":"72232","highway":"bus_stop","name":"State St & 6th Ave S","network":"King County Metro","network:short":"KCM","network:wikidata":"Q6411393","operator":"King County Metro","operator:short":"KCM","operator:wikidata":"Q6411393","operator:wikipedia":"en:King County Metro","public_transport":"platform","ref":"72232","route_ref":"250","wheelchair":"yes"}},{"type":"node","id":4039510018,"lat":47.670694,"lon":-122.2021997,"tags":{"bus":"yes","gtfs:feed":"US-WA-KCM","gtfs:stop_id":"72190","highway":"bus_stop","name":"State St & 7th Ave S","network":"King County Metro","network:short":"KCM","network:wikidata":"Q6411393","operator":"King County Metro","operator:short":"KCM","operator:wikidata":"Q6411393","operator:wikipedia":"en:King County Metro","public_transport":"platform","ref":"72190","route_ref":"250","wheelchair":"yes"}},{"type":"node","id":4039510019,"lat":47.6676785,"lon":-122.2018097,"tags":{"bus":"yes","gtfs:feed":"US-WA-KCM","gtfs:stop_id":"72180","highway":"bus_stop","name":"State St S & 10th Ave S","network":"King County Metro","network:short":"KCM","network:wikidata":"Q6411393","operator":"King County Metro","operator:short":"KCM","operator:wikidata":"Q6411393","operator:wikipedia":"en:King County Metro","public_transport":"platform","ref":"72180","route_ref":"250","wheelchair":"yes"}},{"type":"node","id":4039510020,"lat":47.6673507,"lon":-122.2020377,"tags":{"bus":"yes","gtfs:feed":"US-WA-KCM","gtfs:stop_id":"72250","highway":"bus_stop","name":"State St S & 10th Ave S","network":"King County Metro","network:short":"KCM","network:wikidata":"Q6411393","operator":"King County Metro","operator:short":"KCM","operator:wikidata":"Q6411393","operator:wikipedia":"en:King County Metro","public_transport":"platform","ref":"72250","route_ref":"250","wheelchair":"yes"}},{"type":"node","id":4039510021,"lat":47.6631669,"lon":-122.204833,"tags":{"bus":"yes","gtfs:feed":"US-WA-KCM","gtfs:stop_id":"68875","highway":"bus_stop","name":"Lakeview Dr NE & NE 64th St","network":"King County Metro","network:short":"KCM","network:wikidata":"Q6411393","operator":"King County Metro","operator:short":"KCM","operator:wikidata":"Q6411393","operator:wikipedia":"en:King County Metro","public_transport":"platform","ref":"68875","route_ref":"250","shelter":"no","wheelchair":"yes"}},{"type":"node","id":4039510023,"lat":47.6605743,"lon":-122.204873,"tags":{"bus":"yes","gtfs:feed":"US-WA-KCM","gtfs:stop_id":"68873","highway":"bus_stop","name":"Lakeview Dr NE & NE 59th St","network":"King County Metro","network:short":"KCM","network:wikidata":"Q6411393","operator":"King County Metro","operator:short":"KCM","operator:wikidata":"Q6411393","operator:wikipedia":"en:King County Metro","public_transport":"platform","ref":"68873","route_ref":"250","wheelchair":"yes"}},{"type":"node","id":4045186103,"lat":47.6520009,"lon":-122.1434216,"tags":{"bus":"yes","gtfs:stop_id:US-WA-KCM":"73243","highway":"bus_stop","name":"148th Avenue Northeast & Northeast 46th Street","network":"King County Metro","network:short":"KCM","network:wikidata":"Q6411393","operator":"King County Metro","operator:short":"KCM","operator:wikidata":"Q6411393","operator:wikipedia":"en:King County Metro","public_transport":"platform","ref":"73243","route_ref":"221;223;225;269;B Line","wheelchair":"yes"}},{"type":"node","id":4045186105,"lat":47.652706,"lon":-122.1431414,"tags":{"bus":"yes","gtfs:stop_id:US-WA-KCM":"73366","highway":"bus_stop","name":"148th Avenue Northeast & Northeast 46th Street","network":"King County Metro","network:short":"KCM","network:wikidata":"Q6411393","operator":"King County Metro","operator:short":"KCM","operator:wikidata":"Q6411393","operator:wikipedia":"en:King County Metro","public_transport":"platform","ref":"73366","route_ref":"221;223;225;269;B Line","wheelchair":"yes"}},{"type":"node","id":4045186107,"lat":47.6546925,"lon":-122.1434646,"tags":{"bench":"yes","bin":"yes","bus":"yes","gtfs:stop_id:US-WA-KCM":"73240","highway":"bus_stop","lit":"no","name":"148th Avenue Northeast & Northeast 51st Street","network":"King County Metro","network:short":"KCM","network:wikidata":"Q6411393","operator":"King County Metro","operator:short":"KCM","operator:wikidata":"Q6411393","operator:wikipedia":"en:King County Metro","public_transport":"platform","ref":"73240","route_ref":"221;223;225;269;B Line","shelter":"yes","tactile_paving":"no","wheelchair":"yes"}},{"type":"node","id":4045186109,"lat":47.6556826,"lon":-122.143081,"tags":{"bench":"yes","bin":"yes","bus":"yes","check_date:shelter":"2022-05-06","gtfs:stop_id:US-WA-KCM":"73350","highway":"bus_stop","name":"148th Avenue Northeast & Northeast 51st Street","network":"King County Metro","network:short":"KCM","network:wikidata":"Q6411393","operator":"King County Metro","operator:short":"KCM","operator:wikidata":"Q6411393","operator:wikipedia":"en:King County Metro","public_transport":"platform","ref":"73350","route_ref":"221;223;225;245;B Line","shelter":"yes","tactile_paving":"no","wheelchair":"yes"}},{"type":"node","id":4045186123,"lat":47.6671612,"lon":-122.143297,"tags":{"bench":"yes","bin":"yes","bus":"yes","gtfs:stop_id:US-WA-KCM":"73130","highway":"bus_stop","name":"148th Avenue Northeast & Northeast Old Redmond Road","network":"King County Metro","network:short":"KCM","network:wikidata":"Q6411393","operator":"King County Metro","operator:short":"KCM","operator:wikidata":"Q6411393","operator:wikipedia":"en:King County Metro","public_transport":"platform","ref":"73130","route_ref":"221;223;225;245;B Line","shelter":"yes","wheelchair":"yes"}},{"type":"node","id":4045186125,"lat":47.6684978,"lon":-122.1429451,"tags":{"bus":"yes","gtfs:stop_id:US-WA-KCM":"73391","highway":"bus_stop","name":"148th Avenue Northeast & Northeast Old Redmond Road","network":"King County Metro","network:short":"KCM","network:wikidata":"Q6411393","operator":"King County Metro","operator:short":"KCM","operator:wikidata":"Q6411393","operator:wikipedia":"en:King County Metro","public_transport":"platform","ref":"73391","route_ref":"B Line","shelter":"yes","wheelchair":"yes"}},{"type":"node","id":4045186148,"lat":47.6458989,"lon":-122.1378737,"tags":{"bench":"yes","bin":"no","bus":"yes","gtfs:stop_id:US-WA-KCM":"71325","highway":"bus_stop","lit":"yes","name":"Northeast 40th Street & 152nd Avenue Northeast","network":"King County Metro","network:short":"KCM","network:wikidata":"Q6411393","operator":"King County Metro","operator:short":"KCM","operator:wikidata":"Q6411393","operator:wikipedia":"en:King County Metro","public_transport":"platform","ref":"71325","route_ref":"225;269;B Line","shelter":"no","tactile_paving":"no","wheelchair":"yes"}},{"type":"node","id":4045186150,"lat":47.6460864,"lon":-122.1379633,"tags":{"bench":"no","bus":"yes","gtfs:stop_id:US-WA-KCM":"71329","highway":"bus_stop","name":"Northeast 40th Street & 152nd Avenue Northeast","network":"King County Metro","network:short":"KCM","network:wikidata":"Q6411393","operator":"King County Metro","operator:short":"KCM","operator:wikidata":"Q6411393","operator:wikipedia":"en:King County Metro","public_transport":"platform","ref":"71329","route_ref":"225;269;B Line","shelter":"no","wheelchair":"yes"}},{"type":"node","id":4113028471,"lat":47.6699177,"lon":-122.2066415,"tags":{"amenity":"bench","backrest":"yes"}},{"type":"node","id":4113028890,"lat":47.6706174,"lon":-122.2070816,"tags":{"amenity":"bench"}},{"type":"node","id":4113028891,"lat":47.6705172,"lon":-122.2071071,"tags":{"amenity":"bench"}},{"type":"node","id":4113028901,"lat":47.6705584,"lon":-122.2070536,"tags":{"amenity":"bench"}},{"type":"node","id":4151068023,"lat":47.6649131,"lon":-122.1385769,"tags":{"amenity":"bench"}},{"type":"node","id":4151068024,"lat":47.6647753,"lon":-122.1389336,"tags":{"amenity":"bench"}},{"type":"node","id":4151068025,"lat":47.6645915,"lon":-122.1390724,"tags":{"amenity":"bench"}},{"type":"node","id":4151072279,"lat":47.6689541,"lon":-122.1435876},{"type":"node","id":4151072280,"lat":47.6688558,"lon":-122.1435882},{"type":"node","id":4151072281,"lat":47.6688554,"lon":-122.1434205},{"type":"node","id":4151072282,"lat":47.6689537,"lon":-122.1434199},{"type":"node","id":4186623367,"lat":47.6676421,"lon":-122.2076504,"tags":{"amenity":"bench","backrest":"yes"}},{"type":"node","id":4186623368,"lat":47.6685712,"lon":-122.2074794,"tags":{"amenity":"bench","backrest":"no"}},{"type":"node","id":4186623369,"lat":47.6685689,"lon":-122.207525,"tags":{"amenity":"bench","backrest":"no"}},{"type":"node","id":4186623370,"lat":47.6696135,"lon":-122.2071249,"tags":{"amenity":"bench"}},{"type":"node","id":4245248036,"lat":47.6605873,"lon":-122.204689,"tags":{"bus":"yes","gtfs:feed":"US-WA-KCM","gtfs:stop_id":"69475","highway":"bus_stop","name":"Lakeview Dr NE & NE 59th St","network":"King County Metro","network:short":"KCM","network:wikidata":"Q6411393","operator":"King County Metro","operator:short":"KCM","operator:wikidata":"Q6411393","operator:wikipedia":"en:King County Metro","public_transport":"platform","ref":"69475","route_ref":"250","wheelchair":"yes"}},{"type":"node","id":4274833357,"lat":47.6539892,"lon":-122.1389254,"tags":{"bus":"yes","gtfs:stop_id:US-WA-KCM":"71341","highway":"bus_stop","name":"State Route 520 & Northeast 51st Street","network":"King County Metro","network:short":"KCM","network:wikidata":"Q6411393","operator":"King County Metro","operator:short":"KCM","operator:wikidata":"Q6411393","operator:wikipedia":"en:King County Metro","public_transport":"platform","ref":"71341","route_ref":"542;545","wheelchair":"yes"}},{"type":"node","id":4274841893,"lat":47.6548715,"lon":-122.1367779,"tags":{"bench":"yes","bin":"yes","bus":"yes","gtfs:stop_id:US-WA-KCM":"71353","highway":"bus_stop","name":"State Route 520 & Northeast 51st Street","network":"King County Metro","network:short":"KCM","network:wikidata":"Q6411393","operator":"King County Metro","operator:short":"KCM","operator:wikidata":"Q6411393","operator:wikipedia":"en:King County Metro","public_transport":"platform","ref":"71353","route_ref":"269;542;545","shelter":"yes","wheelchair":"yes"}},{"type":"node","id":4330090702,"lat":47.6699228,"lon":-122.2063389,"tags":{"amenity":"bench","backrest":"yes","material":"wood"}},{"type":"node","id":4330090703,"lat":47.6695106,"lon":-122.2064936,"tags":{"amenity":"bench","backrest":"no","material":"wood"}},{"type":"node","id":4340580092,"lat":47.6614533,"lon":-122.2072767,"tags":{"amenity":"bench"}},{"type":"node","id":4340584789,"lat":47.6606056,"lon":-122.2060492},{"type":"node","id":4340584792,"lat":47.6614888,"lon":-122.2072897,"tags":{"amenity":"bench"}},{"type":"node","id":4340598389,"lat":47.6608249,"lon":-122.2069958,"tags":{"amenity":"bench"}},{"type":"node","id":4340601889,"lat":47.6604818,"lon":-122.2065597,"tags":{"amenity":"drinking_water"}},{"type":"node","id":4428051195,"lat":47.6476229,"lon":-122.202794,"tags":{"bus":"yes","gtfs:feed":"US-WA-KCM","gtfs:stop_id":"69420","highway":"bus_stop","name":"Lake Washington Blvd NE & NE 43rd St","network":"King County Metro","network:short":"KCM","network:wikidata":"Q6411393","operator":"King County Metro","operator:short":"KCM","operator:wikidata":"Q6411393","operator:wikipedia":"en:King County Metro","public_transport":"platform","ref":"69420","route_ref":"250","wheelchair":"yes"}},{"type":"node","id":4428070393,"lat":47.6508394,"lon":-122.204197,"tags":{"bus":"yes","gtfs:feed":"US-WA-KCM","gtfs:stop_id":"68900","highway":"bus_stop","name":"Lake Washington Blvd NE & NE 52nd St","network":"King County Metro","network:short":"KCM","network:wikidata":"Q6411393","operator":"King County Metro","operator:short":"KCM","operator:wikidata":"Q6411393","operator:wikipedia":"en:King County Metro","public_transport":"platform","ref":"68900","route_ref":"250","shelter":"no","wheelchair":"yes"}},{"type":"node","id":4428131990,"lat":47.6651719,"lon":-122.2077086,"tags":{"amenity":"bench"}},{"type":"node","id":4428150791,"lat":47.6657327,"lon":-122.2071253,"tags":{"amenity":"bench"}},{"type":"node","id":4428161489,"lat":47.665674,"lon":-122.20762,"tags":{"amenity":"bench"}},{"type":"node","id":4428161503,"lat":47.6664621,"lon":-122.2069304,"tags":{"amenity":"bench"}},{"type":"node","id":4428161689,"lat":47.6656954,"lon":-122.2071273,"tags":{"amenity":"drinking_water"}},{"type":"node","id":4428161889,"lat":47.6658033,"lon":-122.2074565,"tags":{"amenity":"bench"}},{"type":"node","id":4432058220,"lat":47.6594427,"lon":-122.2072792,"tags":{"amenity":"bench"}},{"type":"node","id":4432058221,"lat":47.6594648,"lon":-122.2071504,"tags":{"amenity":"bench"}},{"type":"node","id":4432058222,"lat":47.6594666,"lon":-122.2072195,"tags":{"amenity":"bench"}},{"type":"node","id":4432058223,"lat":47.6595046,"lon":-122.2069064,"tags":{"amenity":"bench"}},{"type":"node","id":4432058226,"lat":47.6600443,"lon":-122.2071102,"tags":{"amenity":"bench","backrest":"yes"}},{"type":"node","id":4432058227,"lat":47.66007,"lon":-122.2071089,"tags":{"amenity":"bench","backrest":"yes"}},{"type":"node","id":4432058232,"lat":47.6603387,"lon":-122.2070619,"tags":{"access":"yes","amenity":"toilets","changing_table":"no","check_date":"2022-10-02","toilets:disposal":"flush","wheelchair":"no"}},{"type":"node","id":4488084025,"lat":47.6458817,"lon":-122.141167,"tags":{"bench":"yes","bus":"yes","gtfs:stop_id:US-WA-KCM":"73407","highway":"bus_stop","name":"Northeast 40th Street & 148th Avenue Northeast","network":"King County Metro","network:short":"KCM","network:wikidata":"Q6411393","operator":"King County Metro","operator:short":"KCM","operator:wikidata":"Q6411393","operator:wikipedia":"en:King County Metro","public_transport":"platform","ref":"73407","route_ref":"225;269;B Line","shelter":"yes","wheelchair":"yes"}},{"type":"node","id":4549950062,"lat":47.6689506,"lon":-122.184786,"tags":{"bench":"yes","bin":"yes","bus":"yes","gtfs:feed":"US-WA-KCM","gtfs:stop_id":"72312","highway":"bus_stop","name":"NE 70th Pl & 116th Ave NE","network":"King County Metro","network:short":"KCM","network:wikidata":"Q6411393","operator":"King County Metro","operator:short":"KCM","operator:wikidata":"Q6411393","operator:wikipedia":"en:King County Metro","public_transport":"platform","ref":"72312","route_ref":"245","shelter":"yes","wheelchair":"yes"}},{"type":"node","id":4549950064,"lat":47.667512,"lon":-122.1961741,"tags":{"bus":"yes","gtfs:feed":"US-WA-KCM","gtfs:stop_id":"72161","highway":"bus_stop","name":"6th St S & 9th Ave S","network":"King County Metro","network:short":"KCM","network:wikidata":"Q6411393","operator":"King County Metro","operator:short":"KCM","operator:wikidata":"Q6411393","operator:wikipedia":"en:King County Metro","public_transport":"platform","ref":"72161","route_ref":"245;255","wheelchair":"yes"}},{"type":"node","id":4549950065,"lat":47.6590548,"lon":-122.196337,"tags":{"bench":"yes","bus":"yes","gtfs:feed":"US-WA-KCM","gtfs:stop_id":"74410","highway":"bus_stop","name":"108th Ave NE & NE 58th St","network":"King County Metro","network:short":"KCM","network:wikidata":"Q6411393","operator":"King County Metro","operator:short":"KCM","operator:wikidata":"Q6411393","operator:wikipedia":"en:King County Metro","public_transport":"platform","ref":"74410","route_ref":"255","shelter":"no","wheelchair":"yes"}},{"type":"node","id":4549950066,"lat":47.669329,"lon":-122.1883257,"tags":{"bench":"no","bin":"no","bus":"yes","gtfs:feed":"US-WA-KCM","gtfs:stop_id":"72134","highway":"bus_stop","name":"NE 72nd Pl & 116th Ave NE","network":"King County Metro","network:short":"KCM","network:wikidata":"Q6411393","operator":"King County Metro","operator:short":"KCM","operator:wikidata":"Q6411393","operator:wikipedia":"en:King County Metro","public_transport":"platform","ref":"72134","route_ref":"245","shelter":"yes","wheelchair":"yes"}},{"type":"node","id":4549950075,"lat":47.6438032,"lon":-122.1966014,"tags":{"bench":"yes","bin":"yes","gtfs:feed":"US-WA-KCM","gtfs:stop_id":"74450","highway":"bus_stop","lit":"yes","name":"South Kirkland Park & Ride","network":"King County Metro","network:short":"KCM","network:wikidata":"Q6411393","operator":"King County Metro","operator:short":"KCM","operator:wikidata":"Q6411393","operator:wikipedia":"en:King County Metro","public_transport":"platform","ref":"74450","route_ref":"249;250;255;981;986;DART 249","shelter":"separate","tactile_paving":"no","wheelchair":"yes"}},{"type":"node","id":4549950076,"lat":47.6591421,"lon":-122.1961027,"tags":{"bus":"yes","gtfs:feed":"US-WA-KCM","gtfs:stop_id":"74560","highway":"bus_stop","name":"108th Ave NE & NE 58th St","network":"King County Metro","network:short":"KCM","network:wikidata":"Q6411393","operator":"King County Metro","operator:short":"KCM","operator:wikidata":"Q6411393","operator:wikipedia":"en:King County Metro","public_transport":"platform","ref":"74560","route_ref":"255","wheelchair":"yes"}},{"type":"node","id":4549950081,"lat":47.6688325,"lon":-122.196391,"tags":{"bus":"yes","gtfs:feed":"US-WA-KCM","gtfs:stop_id":"70679","highway":"bus_stop","name":"6th St S & 9th Ave S","network":"King County Metro","network:short":"KCM","network:wikidata":"Q6411393","operator":"King County Metro","operator:short":"KCM","operator:wikidata":"Q6411393","operator:wikipedia":"en:King County Metro","public_transport":"platform","ref":"70679","route_ref":"245;255","shelter":"yes","wheelchair":"yes"}},{"type":"node","id":4584387549,"lat":47.6582958,"lon":-122.1434534,"tags":{"bench":"yes","bin":"yes","bus":"yes","gtfs:feed":"US-WA-KCM","gtfs:stop_id":"73351","highway":"bus_stop","name":"148th Ave NE & NE 55th St","network":"King County Metro","network:short":"KCM","network:wikidata":"Q6411393","operator":"King County Metro","operator:short":"KCM","operator:wikidata":"Q6411393","operator:wikipedia":"en:King County Metro","public_transport":"platform","ref":"73351","route_ref":"221;223;225;245","shelter":"yes","tactile_paving":"no","wheelchair":"yes"}},{"type":"node","id":4584387550,"lat":47.6678986,"lon":-122.138798,"tags":{"bench":"no","bus":"yes","gtfs:feed":"US-WA-KCM","gtfs:stop_id":"72005","highway":"bus_stop","name":"NE Old Redmond Rd & 151st Ave NE","network":"King County Metro","network:short":"KCM","network:wikidata":"Q6411393","operator":"King County Metro","operator:short":"KCM","operator:wikidata":"Q6411393","operator:wikipedia":"en:King County Metro","public_transport":"platform","ref":"72005","route_ref":"221;223","shelter":"no","wheelchair":"yes"}},{"type":"node","id":4584387551,"lat":47.6678309,"lon":-122.1336308,"tags":{"bench":"no","bin":"no","bus":"yes","gtfs:feed":"US-WA-KCM","gtfs:stop_id":"71985","highway":"bus_stop","name":"NE Old Redmond Rd & NE 70th St","network":"King County Metro","network:short":"KCM","network:wikidata":"Q6411393","operator":"King County Metro","operator:short":"KCM","operator:wikidata":"Q6411393","operator:wikipedia":"en:King County Metro","public_transport":"platform","ref":"71985","route_ref":"221;223","shelter":"no","wheelchair":"yes"}},{"type":"node","id":4584387552,"lat":47.6671979,"lon":-122.1360453,"tags":{"bench":"yes","bus":"yes","gtfs:feed":"US-WA-KCM","gtfs:stop_id":"71990","highway":"bus_stop","name":"NE Old Redmond Rd & NE 68th St","network":"King County Metro","network:short":"KCM","network:wikidata":"Q6411393","operator":"King County Metro","operator:short":"KCM","operator:wikidata":"Q6411393","operator:wikipedia":"en:King County Metro","public_transport":"platform","ref":"71990","route_ref":"221;223","shelter":"yes","wheelchair":"yes"}},{"type":"node","id":4584387558,"lat":47.6480836,"lon":-122.143242,"tags":{"bus":"yes","gtfs:feed":"US-WA-KCM","gtfs:stop_id":"73246","highway":"bus_stop","name":"148th Ave NE & NE 43rd Pl","network":"King County Metro","network:short":"KCM","network:wikidata":"Q6411393","operator":"King County Metro","operator:short":"KCM","operator:wikidata":"Q6411393","operator:wikipedia":"en:King County Metro","public_transport":"platform","ref":"73246","route_ref":"221;223;225;269","wheelchair":"yes"}},{"type":"node","id":4584387559,"lat":47.6455629,"lon":-122.143151,"tags":{"bench":"yes","bin":"yes","bus":"yes","gtfs:feed":"US-WA-KCM","gtfs:stop_id":"73248","highway":"bus_stop","name":"148th Ave NE & NE 40th St","network":"King County Metro","network:short":"KCM","network:wikidata":"Q6411393","operator":"King County Metro","operator:short":"KCM","operator:wikidata":"Q6411393","operator:wikipedia":"en:King County Metro","public_transport":"platform","ref":"73248","route_ref":"221;223","shelter":"yes","wheelchair":"yes"}},{"type":"node","id":4584387560,"lat":47.6618886,"lon":-122.143435,"tags":{"bus":"yes","gtfs:feed":"US-WA-KCM","gtfs:stop_id":"73152","highway":"bus_stop","name":"148th Ave NE & NE 61st St","network":"King County Metro","network:short":"KCM","network:wikidata":"Q6411393","operator":"King County Metro","operator:short":"KCM","operator:wikidata":"Q6411393","operator:wikipedia":"en:King County Metro","public_transport":"platform","ref":"73152","route_ref":"221;223;225;245","shelter":"no","wheelchair":"yes"}},{"type":"node","id":4584388006,"lat":47.6624955,"lon":-122.143065,"tags":{"bus":"yes","gtfs:feed":"US-WA-KCM","gtfs:stop_id":"73368","highway":"bus_stop","name":"148th Ave NE & NE 61st Way","network":"King County Metro","network:short":"KCM","network:wikidata":"Q6411393","operator":"King County Metro","operator:short":"KCM","operator:wikidata":"Q6411393","operator:wikipedia":"en:King County Metro","public_transport":"platform","ref":"73368","route_ref":"221;223;225;245","wheelchair":"yes"}},{"type":"node","id":4584388007,"lat":47.64382,"lon":-122.1428082,"tags":{"bench":"yes","bin":"yes","bus":"yes","gtfs:feed":"US-WA-KCM","gtfs:stop_id":"73340","highway":"bus_stop","name":"148th Ave NE & NE 37th Pl","network":"King County Metro","network:short":"KCM","network:wikidata":"Q6411393","operator":"King County Metro","operator:short":"KCM","operator:wikidata":"Q6411393","operator:wikipedia":"en:King County Metro","public_transport":"platform","ref":"73340","route_ref":"221;223","shelter":"yes","wheelchair":"yes"}},{"type":"node","id":4584388012,"lat":47.6683737,"lon":-122.1332952,"tags":{"bench":"no","bin":"no","bus":"yes","gtfs:feed":"US-WA-KCM","gtfs:stop_id":"72444","highway":"bus_stop","name":"NE Old Redmond Rd & NE 70th St","network":"King County Metro","network:short":"KCM","network:wikidata":"Q6411393","operator":"King County Metro","operator:short":"KCM","operator:wikidata":"Q6411393","operator:wikipedia":"en:King County Metro","public_transport":"platform","ref":"72444","route_ref":"221;223","shelter":"no","wheelchair":"yes"}},{"type":"node","id":4584388014,"lat":47.6677647,"lon":-122.138912,"tags":{"bus":"yes","gtfs:feed":"US-WA-KCM","gtfs:stop_id":"72435","highway":"bus_stop","name":"NE Old Redmond Rd & 151st Ave NE","network":"King County Metro","network:short":"KCM","network:wikidata":"Q6411393","operator":"King County Metro","operator:short":"KCM","operator:wikidata":"Q6411393","operator:wikipedia":"en:King County Metro","public_transport":"platform","ref":"72435","route_ref":"221;223","wheelchair":"yes"}},{"type":"node","id":4584388015,"lat":47.6663722,"lon":-122.1354808,"tags":{"bench":"no","bin":"no","bus":"yes","gtfs:feed":"US-WA-KCM","gtfs:stop_id":"72442","highway":"bus_stop","name":"NE Old Redmond Rd & NE 68th St","network":"King County Metro","network:short":"KCM","network:wikidata":"Q6411393","operator":"King County Metro","operator:short":"KCM","operator:wikidata":"Q6411393","operator:wikipedia":"en:King County Metro","public_transport":"platform","ref":"72442","route_ref":"221;223","shelter":"no","wheelchair":"yes"}},{"type":"node","id":4584388016,"lat":47.6655922,"lon":-122.1429858,"tags":{"bench":"no","bin":"no","bus":"yes","gtfs:feed":"US-WA-KCM","gtfs:stop_id":"73380","highway":"bus_stop","name":"148th Ave NE & NE 66th St","network":"King County Metro","network:short":"KCM","network:wikidata":"Q6411393","operator":"King County Metro","operator:short":"KCM","operator:wikidata":"Q6411393","operator:wikipedia":"en:King County Metro","public_transport":"platform","ref":"73380","route_ref":"221;223;225;245","shelter":"no","tactile_paving":"no","wheelchair":"yes"}},{"type":"node","id":4584388017,"lat":47.6677897,"lon":-122.141887,"tags":{"bench":"no","bin":"no","bus":"yes","gtfs:feed":"US-WA-KCM","gtfs:stop_id":"72420","highway":"bus_stop","name":"NE Old Redmond Rd & 148th Ave NE","network":"King County Metro","network:short":"KCM","network:wikidata":"Q6411393","operator":"King County Metro","operator:short":"KCM","operator:wikidata":"Q6411393","operator:wikipedia":"en:King County Metro","public_transport":"platform","ref":"72420","route_ref":"221;223","shelter":"no","wheelchair":"yes"}},{"type":"node","id":4584388018,"lat":47.6583201,"lon":-122.1431306,"tags":{"bench":"yes","bus":"yes","gtfs:feed":"US-WA-KCM","gtfs:stop_id":"73352","highway":"bus_stop","name":"148th Ave NE & NE 55th St","network":"King County Metro","network:short":"KCM","network:wikidata":"Q6411393","operator":"King County Metro","operator:short":"KCM","operator:wikidata":"Q6411393","operator:wikipedia":"en:King County Metro","public_transport":"platform","ref":"73352","route_ref":"221;223;225;245","shelter":"yes","wheelchair":"yes"}},{"type":"node","id":4720748384,"lat":47.6517294,"lon":-122.1958666},{"type":"node","id":4720748385,"lat":47.6517287,"lon":-122.1957253},{"type":"node","id":4720748386,"lat":47.6515394,"lon":-122.195725},{"type":"node","id":4720748387,"lat":47.6515405,"lon":-122.1958696},{"type":"node","id":4720769636,"lat":47.6713112,"lon":-122.1929605},{"type":"node","id":4720769637,"lat":47.6713227,"lon":-122.1927786},{"type":"node","id":4720769638,"lat":47.6712224,"lon":-122.1927641},{"type":"node","id":4720769639,"lat":47.67121,"lon":-122.1929486},{"type":"node","id":4732708145,"lat":47.6652386,"lon":-122.1386792,"tags":{"amenity":"bench"}},{"type":"node","id":4741177819,"lat":47.6479963,"lon":-122.1956026,"tags":{"amenity":"bench"}},{"type":"node","id":4741179028,"lat":47.66534,"lon":-122.2013405,"tags":{"amenity":"toilets"}},{"type":"node","id":4775958858,"lat":47.6688554,"lon":-122.1434812},{"type":"node","id":4775958908,"lat":47.6688027,"lon":-122.1440492,"tags":{"amenity":"bench","backrest":"yes"}},{"type":"node","id":4775958909,"lat":47.6686232,"lon":-122.1440541,"tags":{"amenity":"bench","backrest":"yes"}},{"type":"node","id":4775959026,"lat":47.6682137,"lon":-122.1456323},{"type":"node","id":4775959027,"lat":47.6681865,"lon":-122.1455909},{"type":"node","id":4775959028,"lat":47.6681262,"lon":-122.1455945},{"type":"node","id":4775959029,"lat":47.6681259,"lon":-122.1456163},{"type":"node","id":4775959030,"lat":47.668103,"lon":-122.1456477},{"type":"node","id":4775959031,"lat":47.6681234,"lon":-122.1456819},{"type":"node","id":4782019425,"lat":47.6438876,"lon":-122.132143,"tags":{"bench":"yes","bin":"yes","gtfs:feed":"US-WA-KCM","gtfs:stop_id":"68498","highway":"bus_stop","local_ref":"8","name":"Redmond Technology Station - Bay 8","network":"King County Metro","network:wikidata":"Q6411393","operator":"King County Metro","operator:short":"KCM","operator:wikidata":"Q6411393","operator:wikipedia":"en:King County Metro","public_transport":"platform","ref":"68498","route_ref":"245;B Line","shelter":"yes","wheelchair":"yes"}},{"type":"node","id":4787312004,"lat":47.6601851,"lon":-122.2067271,"tags":{"amenity":"bench","backrest":"yes","material":"wood"}},{"type":"node","id":4892892278,"lat":47.6599227,"lon":-122.138268,"tags":{"amenity":"bench"}},{"type":"node","id":4909804971,"lat":47.6709214,"lon":-122.206215,"tags":{"amenity":"bench"}},{"type":"node","id":4909804973,"lat":47.6707077,"lon":-122.2062614,"tags":{"amenity":"bench"}},{"type":"node","id":4909804974,"lat":47.6710188,"lon":-122.2061562,"tags":{"amenity":"bench"}},{"type":"node","id":4909804976,"lat":47.6708061,"lon":-122.2062268,"tags":{"amenity":"bench"}},{"type":"node","id":4909804977,"lat":47.6710867,"lon":-122.2060991,"tags":{"amenity":"bench"}},{"type":"node","id":4988663356,"lat":47.6502205,"lon":-122.1896122,"tags":{"amenity":"bench","backrest":"yes"}},{"type":"node","id":4988663357,"lat":47.6530718,"lon":-122.1884289,"tags":{"amenity":"bench","backrest":"no"}},{"type":"node","id":5732604885,"lat":47.6617197,"lon":-122.157291},{"type":"node","id":5732604886,"lat":47.6617187,"lon":-122.1573867},{"type":"node","id":5732604887,"lat":47.6616544,"lon":-122.157394},{"type":"node","id":5732604888,"lat":47.6616328,"lon":-122.1574304},{"type":"node","id":5732604889,"lat":47.6616333,"lon":-122.1574865},{"type":"node","id":5732604890,"lat":47.6616264,"lon":-122.1575361},{"type":"node","id":5732604891,"lat":47.6616197,"lon":-122.1576177},{"type":"node","id":5753014820,"lat":47.6685013,"lon":-122.1959075},{"type":"node","id":5753014821,"lat":47.6685086,"lon":-122.1956134},{"type":"node","id":5753014823,"lat":47.668324,"lon":-122.1959076},{"type":"node","id":5753014824,"lat":47.668324,"lon":-122.1956031},{"type":"node","id":5880376222,"lat":47.6655354,"lon":-122.1659376,"tags":{"addr:city":"Kirkland","addr:housenumber":"12030","addr:postcode":"98033","addr:street":"Northeast 85th Street","addr:unit":"6623","brand":"Dollar Tree","brand:wikidata":"Q5289230","check_date":"2024-07-11","name":"Dollar Tree","opening_hours":"Mo-Su 08:00-21:00","shop":"variety_store","website":"https://www.dollartree.com/locations/wa/kirkland/7396/","wheelchair":"yes"}},{"type":"node","id":6247310433,"lat":47.6439727,"lon":-122.201528},{"type":"node","id":6247310435,"lat":47.6440628,"lon":-122.2018516},{"type":"node","id":6247310436,"lat":47.6440167,"lon":-122.2018516},{"type":"node","id":6247310439,"lat":47.6437446,"lon":-122.2015286},{"type":"node","id":6300037087,"lat":47.668178,"lon":-122.1455888,"tags":{"amenity":"drinking_water","fountain":"bubbler"}},{"type":"node","id":6315479381,"lat":47.6444083,"lon":-122.1327398},{"type":"node","id":6364042982,"lat":47.6651212,"lon":-122.1961253,"tags":{"bench":"yes","bus":"yes","gtfs:feed":"US-WA-KCM","gtfs:stop_id":"72156","highway":"bus_stop","name":"108th Ave NE & NE 68th St","network":"King County Metro","network:short":"KCM","network:wikidata":"Q6411393","operator":"King County Metro","operator:short":"KCM","operator:wikidata":"Q6411393","operator:wikipedia":"en:King County Metro","public_transport":"platform","ref":"72156","route_ref":"255;986","wheelchair":"yes"}},{"type":"node","id":6364042983,"lat":47.6631148,"lon":-122.1961087,"tags":{"bench":"yes","bus":"yes","gtfs:feed":"US-WA-KCM","gtfs:stop_id":"72155","highway":"bus_stop","name":"108th Ave NE & NE 62nd St","network":"King County Metro","network:short":"KCM","network:wikidata":"Q6411393","operator":"King County Metro","operator:short":"KCM","operator:wikidata":"Q6411393","operator:wikipedia":"en:King County Metro","public_transport":"platform","ref":"72155","route_ref":"255","wheelchair":"yes"}},{"type":"node","id":6364042984,"lat":47.6561515,"lon":-122.1961225,"tags":{"bus":"yes","gtfs:feed":"US-WA-KCM","gtfs:stop_id":"74550","highway":"bus_stop","name":"108th Ave NE & NE 53rd St","network":"King County Metro","network:short":"KCM","network:wikidata":"Q6411393","operator":"King County Metro","operator:short":"KCM","operator:wikidata":"Q6411393","operator:wikipedia":"en:King County Metro","public_transport":"platform","ref":"74550","route_ref":"255","shelter":"yes","wheelchair":"yes"}},{"type":"node","id":6364045885,"lat":47.6613404,"lon":-122.196108,"tags":{"bus":"yes","gtfs:feed":"US-WA-KCM","gtfs:stop_id":"74570","highway":"bus_stop","name":"108th Ave NE & NE 60th St","network":"King County Metro","network:short":"KCM","network:wikidata":"Q6411393","operator":"King County Metro","operator:short":"KCM","operator:wikidata":"Q6411393","operator:wikipedia":"en:King County Metro","public_transport":"platform","ref":"74570","route_ref":"255","wheelchair":"yes"}},{"type":"node","id":6364045887,"lat":47.6521645,"lon":-122.196159,"tags":{"bench":"yes","bus":"yes","gtfs:feed":"US-WA-KCM","gtfs:stop_id":"74540","highway":"bus_stop","name":"108th Ave NE & NE 47th St","network":"King County Metro","network:short":"KCM","network:wikidata":"Q6411393","operator":"King County Metro","operator:short":"KCM","operator:wikidata":"Q6411393","operator:wikipedia":"en:King County Metro","public_transport":"platform","ref":"74540","route_ref":"255","wheelchair":"yes"}},{"type":"node","id":6364045888,"lat":47.644249,"lon":-122.194107,"tags":{"bus":"yes","gtfs:feed":"US-WA-KCM","gtfs:stop_id":"85040","highway":"bus_stop","name":"108th Ave NE & NE 38th Pl","network":"King County Metro","network:short":"KCM","network:wikidata":"Q6411393","operator":"King County Metro","operator:short":"KCM","operator:wikidata":"Q6411393","operator:wikipedia":"en:King County Metro","public_transport":"platform","ref":"85040","route_ref":"255","wheelchair":"yes"}},{"type":"node","id":6364045889,"lat":47.6503832,"lon":-122.196184,"tags":{"bus":"yes","gtfs:feed":"US-WA-KCM","gtfs:stop_id":"74530","highway":"bus_stop","name":"108th Ave NE & NE 45th St","network":"King County Metro","network:short":"KCM","network:wikidata":"Q6411393","operator":"King County Metro","operator:short":"KCM","operator:wikidata":"Q6411393","operator:wikipedia":"en:King County Metro","public_transport":"platform","ref":"74530","route_ref":"255","wheelchair":"yes"}},{"type":"node","id":6364045890,"lat":47.6451487,"lon":-122.1941539,"tags":{"bus":"yes","gtfs:feed":"US-WA-KCM","gtfs:stop_id":"74533","highway":"bus_stop","name":"108th Ave NE & NE 39th St","network":"King County Metro","network:short":"KCM","network:wikidata":"Q6411393","operator":"King County Metro","operator:short":"KCM","operator:wikidata":"Q6411393","operator:wikipedia":"en:King County Metro","public_transport":"platform","ref":"74533","route_ref":"255","wheelchair":"yes"}},{"type":"node","id":6364045901,"lat":47.6651765,"lon":-122.1963801,"tags":{"bin":"yes","bus":"yes","gtfs:feed":"US-WA-KCM","gtfs:stop_id":"74395","highway":"bus_stop","name":"108th Ave NE & NE 68th St","network":"King County Metro","network:short":"KCM","network:wikidata":"Q6411393","operator":"King County Metro","operator:short":"KCM","operator:wikidata":"Q6411393","operator:wikipedia":"en:King County Metro","public_transport":"platform","ref":"74395","route_ref":"255;986","shelter":"yes","wheelchair":"yes"}},{"type":"node","id":6364045902,"lat":47.6522897,"lon":-122.196376,"tags":{"bench":"yes","bus":"yes","gtfs:feed":"US-WA-KCM","gtfs:stop_id":"74430","highway":"bus_stop","name":"108th Ave NE & NE 47th Pl","network":"King County Metro","network:short":"KCM","network:wikidata":"Q6411393","operator":"King County Metro","operator:short":"KCM","operator:wikidata":"Q6411393","operator:wikipedia":"en:King County Metro","public_transport":"platform","ref":"74430","route_ref":"255","wheelchair":"yes"}},{"type":"node","id":6364045903,"lat":47.6613492,"lon":-122.196324,"tags":{"bus":"yes","gtfs:feed":"US-WA-KCM","gtfs:stop_id":"74400","highway":"bus_stop","name":"108th Ave NE & NE 60th St","network":"King County Metro","network:short":"KCM","network:wikidata":"Q6411393","operator":"King County Metro","operator:short":"KCM","operator:wikidata":"Q6411393","operator:wikipedia":"en:King County Metro","public_transport":"platform","ref":"74400","route_ref":"255","wheelchair":"yes"}},{"type":"node","id":6364045904,"lat":47.662965,"lon":-122.196335,"tags":{"bus":"yes","gtfs:feed":"US-WA-KCM","gtfs:stop_id":"74396","highway":"bus_stop","name":"108th Ave NE & NE 62nd St","network":"King County Metro","network:short":"KCM","network:wikidata":"Q6411393","operator":"King County Metro","operator:short":"KCM","operator:wikidata":"Q6411393","operator:wikipedia":"en:King County Metro","public_transport":"platform","ref":"74396","route_ref":"255","wheelchair":"yes"}},{"type":"node","id":6364045905,"lat":47.6442795,"lon":-122.194321,"tags":{"bench":"yes","bus":"yes","gtfs:feed":"US-WA-KCM","gtfs:stop_id":"74442","highway":"bus_stop","name":"108th Ave NE & NE 38th Pl","network":"King County Metro","network:short":"KCM","network:wikidata":"Q6411393","operator":"King County Metro","operator:short":"KCM","operator:wikidata":"Q6411393","operator:wikipedia":"en:King County Metro","public_transport":"platform","ref":"74442","route_ref":"255","shelter":"no","wheelchair":"yes"}},{"type":"node","id":6364045906,"lat":47.6457255,"lon":-122.195061,"tags":{"bus":"yes","gtfs:feed":"US-WA-KCM","gtfs:stop_id":"74441","highway":"bus_stop","name":"108th Ave NE & NE 39th St","network":"King County Metro","network:short":"KCM","network:wikidata":"Q6411393","operator":"King County Metro","operator:short":"KCM","operator:wikidata":"Q6411393","operator:wikipedia":"en:King County Metro","public_transport":"platform","ref":"74441","route_ref":"255","wheelchair":"yes"}},{"type":"node","id":6364045907,"lat":47.65574,"lon":-122.1963674,"tags":{"bus":"yes","gtfs:feed":"US-WA-KCM","gtfs:stop_id":"74420","highway":"bus_stop","name":"108th Ave NE & NE 53rd St","network":"King County Metro","network:short":"KCM","network:wikidata":"Q6411393","operator":"King County Metro","operator:short":"KCM","operator:wikidata":"Q6411393","operator:wikipedia":"en:King County Metro","public_transport":"platform","ref":"74420","route_ref":"255","shelter":"yes","wheelchair":"yes"}},{"type":"node","id":6364045909,"lat":47.6499718,"lon":-122.196401,"tags":{"bus":"yes","gtfs:feed":"US-WA-KCM","gtfs:stop_id":"74440","highway":"bus_stop","name":"108th Ave NE & NE 45th St","network":"King County Metro","network:short":"KCM","network:wikidata":"Q6411393","operator":"King County Metro","operator:short":"KCM","operator:wikidata":"Q6411393","operator:wikipedia":"en:King County Metro","public_transport":"platform","ref":"74440","route_ref":"255","wheelchair":"yes"}},{"type":"node","id":6731946646,"lat":47.6448193,"lon":-122.1328222},{"type":"node","id":6731946651,"lat":47.6441532,"lon":-122.1328128},{"type":"node","id":6778049776,"lat":47.6441835,"lon":-122.1333051},{"type":"node","id":6835857713,"lat":47.6567512,"lon":-122.1991372,"tags":{"amenity":"bench"}},{"type":"node","id":6898831346,"lat":47.6682968,"lon":-122.180672,"tags":{"bench":"yes","bin":"no","bus":"yes","gtfs:feed":"US-WA-KCM","gtfs:stop_id":"72120","highway":"bus_stop","name":"NE 70th St & 120th Ave NE","network":"King County Metro","network:short":"KCM","network:wikidata":"Q6411393","operator":"King County Metro","operator:short":"KCM","operator:wikidata":"Q6411393","operator:wikipedia":"en:King County Metro","public_transport":"platform","ref":"72120","route_ref":"245","shelter":"no","wheelchair":"yes"}},{"type":"node","id":6898831347,"lat":47.6679878,"lon":-122.169266,"tags":{"bench":"no","bin":"no","bus":"yes","gtfs:feed":"US-WA-KCM","gtfs:stop_id":"72080","highway":"bus_stop","name":"NE 70th St & 128th Ave NE","network":"King County Metro","network:short":"KCM","network:wikidata":"Q6411393","operator":"King County Metro","operator:short":"KCM","operator:wikidata":"Q6411393","operator:wikipedia":"en:King County Metro","public_transport":"platform","ref":"72080","route_ref":"245","shelter":"no","wheelchair":"yes"}},{"type":"node","id":6898831348,"lat":47.6682281,"lon":-122.175003,"tags":{"bus":"yes","gtfs:feed":"US-WA-KCM","gtfs:stop_id":"72100","highway":"bus_stop","name":"NE 70th St & 124th Ave NE","network":"King County Metro","network:short":"KCM","network:wikidata":"Q6411393","operator":"King County Metro","operator:short":"KCM","operator:wikidata":"Q6411393","operator:wikipedia":"en:King County Metro","public_transport":"platform","ref":"72100","route_ref":"245","wheelchair":"yes"}},{"type":"node","id":6898831349,"lat":47.6670952,"lon":-122.158295,"tags":{"bench":"yes","bin":"no","bus":"yes","gtfs:feed":"US-WA-KCM","gtfs:stop_id":"72050","highway":"bus_stop","lit":"no","name":"NE Old Redmond Rd & 137th Ave NE","network":"King County Metro","network:short":"KCM","network:wikidata":"Q6411393","operator":"King County Metro","operator:short":"KCM","operator:wikidata":"Q6411393","operator:wikipedia":"en:King County Metro","public_transport":"platform","ref":"72050","route_ref":"225;245","shelter":"yes","tactile_paving":"yes","wheelchair":"yes"}},{"type":"node","id":6898831350,"lat":47.667038,"lon":-122.164688,"tags":{"bus":"yes","gtfs:feed":"US-WA-KCM","gtfs:stop_id":"72060","highway":"bus_stop","name":"NE 70th Pl & 132nd Ave NE","network":"King County Metro","network:short":"KCM","network:wikidata":"Q6411393","operator":"King County Metro","operator:short":"KCM","operator:wikidata":"Q6411393","operator:wikipedia":"en:King County Metro","public_transport":"platform","ref":"72060","route_ref":"245;895","wheelchair":"yes"}},{"type":"node","id":6898831351,"lat":47.6663628,"lon":-122.148911,"tags":{"bench":"yes","bin":"yes","bus":"yes","gtfs:feed":"US-WA-KCM","gtfs:stop_id":"72030","highway":"bus_stop","lit":"no","name":"NE Old Redmond Rd & 143rd Ct NE","network":"King County Metro","network:short":"KCM","network:wikidata":"Q6411393","operator":"King County Metro","operator:short":"KCM","operator:wikidata":"Q6411393","operator:wikipedia":"en:King County Metro","public_transport":"platform","ref":"72030","route_ref":"225;245","shelter":"yes","tactile_paving":"no","wheelchair":"yes"}},{"type":"node","id":6898831352,"lat":47.6661758,"lon":-122.153076,"tags":{"bench":"yes","bin":"no","bus":"yes","gtfs:feed":"US-WA-KCM","gtfs:stop_id":"72040","highway":"bus_stop","name":"NE Old Redmond Rd & 140th Ave NE","network":"King County Metro","network:short":"KCM","network:wikidata":"Q6411393","operator":"King County Metro","operator:short":"KCM","operator:wikidata":"Q6411393","operator:wikipedia":"en:King County Metro","public_transport":"platform","ref":"72040","route_ref":"225;245","shelter":"yes","wheelchair":"yes"}},{"type":"node","id":6898831353,"lat":47.6546898,"lon":-122.139389,"tags":{"bench":"yes","bin":"no","bus":"yes","gtfs:feed":"US-WA-KCM","gtfs:stop_id":"73419","highway":"bus_stop","name":"NE 51st St & Sr 520","network":"King County Metro","network:short":"KCM","network:wikidata":"Q6411393","operator":"King County Metro","operator:short":"KCM","operator:wikidata":"Q6411393","operator:wikipedia":"en:King County Metro","public_transport":"platform","ref":"73419","route_ref":"245;269","shelter":"no","tactile_paving":"no","wheelchair":"yes"}},{"type":"node","id":6898831354,"lat":47.667527,"lon":-122.1439731,"tags":{"bench":"yes","bin":"yes","bus":"yes","gtfs:feed":"US-WA-KCM","gtfs:stop_id":"72015","highway":"bus_stop","lit":"no","name":"NE Old Redmond Rd & 148th Ave NE","network":"King County Metro","network:short":"KCM","network:wikidata":"Q6411393","operator":"King County Metro","operator:short":"KCM","operator:wikidata":"Q6411393","operator:wikipedia":"en:King County Metro","public_transport":"platform","ref":"72015","route_ref":"225;245","shelter":"yes","tactile_paving":"no","wheelchair":"yes"}},{"type":"node","id":6898831355,"lat":47.6520233,"lon":-122.132339,"tags":{"bench":"yes","bin":"no","bus":"yes","gtfs:feed":"US-WA-KCM","gtfs:stop_id":"68406","highway":"bus_stop","name":"156th Ave NE & NE 51st St","network":"King County Metro","network:short":"KCM","network:wikidata":"Q6411393","operator":"King County Metro","operator:short":"KCM","operator:wikidata":"Q6411393","operator:wikipedia":"en:King County Metro","public_transport":"platform","ref":"68406","route_ref":"245","shelter":"no","tactile_paving":"no","wheelchair":"yes"}},{"type":"node","id":6898831356,"lat":47.6541557,"lon":-122.134995,"tags":{"bench":"yes","bus":"yes","gtfs:feed":"US-WA-KCM","gtfs:stop_id":"73188","highway":"bus_stop","name":"NE 51st St & 154th Ave NE","network":"King County Metro","network:short":"KCM","network:wikidata":"Q6411393","operator":"King County Metro","operator:short":"KCM","operator:wikidata":"Q6411393","operator:wikipedia":"en:King County Metro","public_transport":"platform","ref":"73188","route_ref":"245","shelter":"yes","wheelchair":"yes"}},{"type":"node","id":6898831358,"lat":47.6500359,"lon":-122.132271,"tags":{"bench":"yes","bin":"no","bus":"yes","gtfs:feed":"US-WA-KCM","gtfs:stop_id":"68463","highway":"bus_stop","name":"156th Ave NE & NE 45th St","network":"King County Metro","network:short":"KCM","network:wikidata":"Q6411393","operator":"King County Metro","operator:short":"KCM","operator:wikidata":"Q6411393","operator:wikipedia":"en:King County Metro","public_transport":"platform","ref":"68463","route_ref":"245","shelter":"no","tactile_paving":"no","wheelchair":"yes"}},{"type":"node","id":6898831373,"lat":47.6492538,"lon":-122.132446,"tags":{"bench":"yes","bin":"yes","bus":"yes","gtfs:feed":"US-WA-KCM","gtfs:stop_id":"68462","highway":"bus_stop","lit":"yes","name":"156th Ave NE & NE 45th St","network":"King County Metro","network:short":"KCM","network:wikidata":"Q6411393","operator":"King County Metro","operator:short":"KCM","operator:wikidata":"Q6411393","operator:wikipedia":"en:King County Metro","public_transport":"platform","ref":"68462","route_ref":"245","shelter":"yes","tactile_paving":"no","wheelchair":"yes"}},{"type":"node","id":6898831375,"lat":47.6548615,"lon":-122.14212,"tags":{"bench":"yes","bin":"yes","bus":"yes","gtfs:feed":"US-WA-KCM","gtfs:stop_id":"73167","highway":"bus_stop","name":"NE 51st St & 148th Ave NE","network":"King County Metro","network:short":"KCM","network:wikidata":"Q6411393","operator":"King County Metro","operator:short":"KCM","operator:wikidata":"Q6411393","operator:wikipedia":"en:King County Metro","public_transport":"platform","ref":"73167","route_ref":"245;269","shelter":"yes","tactile_paving":"no","wheelchair":"yes"}},{"type":"node","id":6898831376,"lat":47.6519547,"lon":-122.132545,"tags":{"bench":"yes","bin":"yes","bus":"yes","gtfs:feed":"US-WA-KCM","gtfs:stop_id":"68391","highway":"bus_stop","name":"156th Ave NE & NE 51st St","network":"King County Metro","network:short":"KCM","network:wikidata":"Q6411393","operator":"King County Metro","operator:short":"KCM","operator:wikidata":"Q6411393","operator:wikipedia":"en:King County Metro","public_transport":"platform","ref":"68391","route_ref":"245","shelter":"yes","tactile_paving":"no","wheelchair":"yes"}},{"type":"node","id":6898831377,"lat":47.6663399,"lon":-122.148186,"tags":{"bench":"no","bin":"no","bus":"yes","gtfs:feed":"US-WA-KCM","gtfs:stop_id":"72400","highway":"bus_stop","name":"NE Old Redmond Rd & 143rd Ave NE","network":"King County Metro","network:short":"KCM","network:wikidata":"Q6411393","operator":"King County Metro","operator:short":"KCM","operator:wikidata":"Q6411393","operator:wikipedia":"en:King County Metro","public_transport":"platform","ref":"72400","route_ref":"225;245","shelter":"no","wheelchair":"yes"}},{"type":"node","id":6898831378,"lat":47.6671181,"lon":-122.144279,"tags":{"bench":"no","bin":"no","bus":"yes","gtfs:feed":"US-WA-KCM","gtfs:stop_id":"72410","highway":"bus_stop","name":"NE Old Redmond Rd & 147th Ct NE","network":"King County Metro","network:short":"KCM","network:wikidata":"Q6411393","operator":"King County Metro","operator:short":"KCM","operator:wikidata":"Q6411393","operator:wikipedia":"en:King County Metro","public_transport":"platform","ref":"72410","route_ref":"225;245","shelter":"no","tactile_paving":"no","wheelchair":"yes"}},{"type":"node","id":6898831379,"lat":47.6669884,"lon":-122.157791,"tags":{"bench":"yes","bin":"yes","bus":"yes","gtfs:feed":"US-WA-KCM","gtfs:stop_id":"72380","highway":"bus_stop","lit":"no","name":"NE Old Redmond Rd & 137th Ave NE","network":"King County Metro","network:short":"KCM","network:wikidata":"Q6411393","operator":"King County Metro","operator:short":"KCM","operator:wikidata":"Q6411393","operator:wikipedia":"en:King County Metro","public_transport":"platform","ref":"72380","route_ref":"225;245","shelter":"yes","tactile_paving":"no","wheelchair":"yes"}},{"type":"node","id":6898831380,"lat":47.6660309,"lon":-122.152985,"tags":{"bench":"yes","bin":"yes","bus":"yes","gtfs:feed":"US-WA-KCM","gtfs:stop_id":"72391","highway":"bus_stop","name":"NE Old Redmond Rd & 140th Ave NE","network":"King County Metro","network:short":"KCM","network:wikidata":"Q6411393","operator":"King County Metro","operator:short":"KCM","operator:wikidata":"Q6411393","operator:wikipedia":"en:King County Metro","public_transport":"platform","ref":"72391","route_ref":"225;245","shelter":"yes","wheelchair":"yes"}},{"type":"node","id":6898831381,"lat":47.6672134,"lon":-122.166153,"tags":{"bench":"yes","bin":"no","bus":"yes","disused:highway":"bus_stop","disused:public_transport":"platform","gtfs:feed":"US-WA-KCM","gtfs:stop_id":"72360","name":"NE 70th Pl & 130th Ave NE","network":"King County Metro","network:short":"KCM","network:wikidata":"Q6411393","operator":"King County Metro","operator:short":"KCM","operator:wikidata":"Q6411393","operator:wikipedia":"en:King County Metro","ref":"72360","route_ref":"245","shelter":"no","wheelchair":"yes"}},{"type":"node","id":6898831382,"lat":47.6665077,"lon":-122.163307,"tags":{"bench":"no","bin":"no","bus":"yes","gtfs:feed":"US-WA-KCM","gtfs:stop_id":"72371","highway":"bus_stop","name":"NE Old Redmond Rd & 132nd Ave NE","network":"King County Metro","network:short":"KCM","network:wikidata":"Q6411393","operator":"King County Metro","operator:short":"KCM","operator:wikidata":"Q6411393","operator:wikipedia":"en:King County Metro","public_transport":"platform","ref":"72371","route_ref":"225;245","shelter":"no","tactile_paving":"no","wheelchair":"yes"}},{"type":"node","id":6898831383,"lat":47.6680832,"lon":-122.174194,"tags":{"bus":"yes","gtfs:feed":"US-WA-KCM","gtfs:stop_id":"72330","highway":"bus_stop","name":"NE 70th St & 124th Ave NE","network":"King County Metro","network:short":"KCM","network:wikidata":"Q6411393","operator":"King County Metro","operator:short":"KCM","operator:wikidata":"Q6411393","operator:wikipedia":"en:King County Metro","public_transport":"platform","ref":"72330","route_ref":"245","shelter":"no","wheelchair":"yes"}},{"type":"node","id":6898831384,"lat":47.6679764,"lon":-122.169945,"tags":{"bench":"no","bus":"yes","gtfs:feed":"US-WA-KCM","gtfs:stop_id":"72348","highway":"bus_stop","name":"NE 70th St & NE 70th Pl","network":"King County Metro","network:short":"KCM","network:wikidata":"Q6411393","operator":"King County Metro","operator:short":"KCM","operator:wikidata":"Q6411393","operator:wikipedia":"en:King County Metro","public_transport":"platform","ref":"72348","route_ref":"245","shelter":"no","wheelchair":"yes"}},{"type":"node","id":6898831385,"lat":47.6681519,"lon":-122.179588,"tags":{"bench":"yes","bin":"yes","bus":"yes","gtfs:feed":"US-WA-KCM","gtfs:stop_id":"72310","highway":"bus_stop","name":"NE 70th St & 120th Ave NE","network":"King County Metro","network:short":"KCM","network:wikidata":"Q6411393","operator":"King County Metro","operator:short":"KCM","operator:wikidata":"Q6411393","operator:wikipedia":"en:King County Metro","public_transport":"platform","ref":"72310","route_ref":"245","shelter":"yes","wheelchair":"yes"}},{"type":"node","id":6898831386,"lat":47.6692585,"lon":-122.1879482,"tags":{"bench":"yes","bin":"yes","bus":"yes","gtfs:feed":"US-WA-KCM","gtfs:stop_id":"72294","highway":"bus_stop","name":"NE 72nd Pl & 116th Ave NE","network":"King County Metro","network:short":"KCM","network:wikidata":"Q6411393","operator":"King County Metro","operator:short":"KCM","operator:wikidata":"Q6411393","operator:wikipedia":"en:King County Metro","public_transport":"platform","ref":"72294","route_ref":"245","shelter":"yes","wheelchair":"yes"}},{"type":"node","id":6898831387,"lat":47.6666718,"lon":-122.195656,"tags":{"bus":"yes","gtfs:feed":"US-WA-KCM","gtfs:stop_id":"70681","highway":"bus_stop","name":"NE 68th St & 6th St S","network":"King County Metro","network:short":"KCM","network:wikidata":"Q6411393","operator":"King County Metro","operator:short":"KCM","operator:wikidata":"Q6411393","operator:wikipedia":"en:King County Metro","public_transport":"platform","ref":"70681","route_ref":"245","wheelchair":"yes"}},{"type":"node","id":6898831388,"lat":47.6667252,"lon":-122.190659,"tags":{"bus":"yes","gtfs:feed":"US-WA-KCM","gtfs:stop_id":"72290","highway":"bus_stop","name":"NE 68th St & 112th Ave NE","network":"King County Metro","network:short":"KCM","network:wikidata":"Q6411393","operator":"King County Metro","operator:short":"KCM","operator:wikidata":"Q6411393","operator:wikipedia":"en:King County Metro","public_transport":"platform","ref":"72290","route_ref":"245","wheelchair":"yes"}},{"type":"node","id":6898831389,"lat":47.6666374,"lon":-122.191162,"tags":{"bus":"yes","gtfs:feed":"US-WA-KCM","gtfs:stop_id":"72140","highway":"bus_stop","name":"NE 68th St & 112th Ave NE","network":"King County Metro","network:short":"KCM","network:wikidata":"Q6411393","operator":"King County Metro","operator:short":"KCM","operator:wikidata":"Q6411393","operator:wikipedia":"en:King County Metro","public_transport":"platform","ref":"72140","route_ref":"245","wheelchair":"yes"}},{"type":"node","id":6899051435,"lat":47.669899,"lon":-122.131017,"tags":{"bench":"yes","bin":"yes","bus":"yes","gtfs:stop_id:US-WA-KCM":"72456","highway":"bus_stop","name":"West Lake Sammamish Parkway Northeast & Leary Way","network":"King County Metro","network:short":"KCM","network:wikidata":"Q6411393","operator":"King County Metro","operator:short":"KCM","operator:wikidata":"Q6411393","operator:wikipedia":"en:King County Metro","public_transport":"platform","ref":"72456","route_ref":"222;542;545","shelter":"yes","tactile_paving":"no","wheelchair":"yes"}},{"type":"node","id":6899051438,"lat":47.6698189,"lon":-122.130348,"tags":{"bench":"no","bin":"no","bus":"yes","gtfs:stop_id:US-WA-KCM":"72458","highway":"bus_stop","name":"West Lake Sammamish Parkway Northeast & Leary Way","network":"King County Metro","network:short":"KCM","network:wikidata":"Q6411393","operator":"King County Metro","operator:short":"KCM","operator:wikidata":"Q6411393","operator:wikipedia":"en:King County Metro","public_transport":"platform","ref":"72458","route_ref":"222;542;545","shelter":"no","tactile_paving":"no","wheelchair":"yes"}},{"type":"node","id":6997506308,"lat":47.6439699,"lon":-122.1359876,"tags":{"amenity":"bench"}},{"type":"node","id":6997506309,"lat":47.6439377,"lon":-122.1359868,"tags":{"amenity":"bench"}},{"type":"node","id":6997506310,"lat":47.6438227,"lon":-122.135976,"tags":{"amenity":"bench","backrest":"yes"}},{"type":"node","id":6997506313,"lat":47.6446824,"lon":-122.1362905,"tags":{"amenity":"bench"}},{"type":"node","id":6997724791,"lat":47.6451944,"lon":-122.1382799,"tags":{"amenity":"bench"}},{"type":"node","id":7003048451,"lat":47.6448123,"lon":-122.138609,"tags":{"amenity":"bench"}},{"type":"node","id":7003048452,"lat":47.6446706,"lon":-122.1392421,"tags":{"amenity":"bench"}},{"type":"node","id":7003048453,"lat":47.6447009,"lon":-122.1389253,"tags":{"amenity":"bench"}},{"type":"node","id":7003048454,"lat":47.6438459,"lon":-122.1388458,"tags":{"amenity":"bench"}},{"type":"node","id":7003048455,"lat":47.6437909,"lon":-122.1392167,"tags":{"amenity":"bench"}},{"type":"node","id":7003048456,"lat":47.6438562,"lon":-122.1396481,"tags":{"amenity":"bench"}},{"type":"node","id":7003048457,"lat":47.6445362,"lon":-122.1396168,"tags":{"amenity":"bench"}},{"type":"node","id":7003048461,"lat":47.6442777,"lon":-122.1398901,"tags":{"amenity":"bench"}},{"type":"node","id":7003048477,"lat":47.644445,"lon":-122.1381317,"tags":{"amenity":"bench"}},{"type":"node","id":7003048481,"lat":47.6445536,"lon":-122.139728,"tags":{"amenity":"bench"}},{"type":"node","id":7003048492,"lat":47.6454541,"lon":-122.1385931,"tags":{"amenity":"bench"}},{"type":"node","id":7003048493,"lat":47.6454678,"lon":-122.1385684,"tags":{"amenity":"bench"}},{"type":"node","id":7003048494,"lat":47.6454901,"lon":-122.138544,"tags":{"amenity":"bench"}},{"type":"node","id":7003048495,"lat":47.6455157,"lon":-122.1385706,"tags":{"amenity":"bench"}},{"type":"node","id":7003048496,"lat":47.6455317,"lon":-122.138158,"tags":{"amenity":"bench"}},{"type":"node","id":7003048497,"lat":47.6455532,"lon":-122.1381851,"tags":{"amenity":"bench"}},{"type":"node","id":7003048498,"lat":47.644938,"lon":-122.1387305,"tags":{"amenity":"bench"}},{"type":"node","id":7003048499,"lat":47.6449676,"lon":-122.1387199,"tags":{"amenity":"bench"}},{"type":"node","id":7003048500,"lat":47.6454816,"lon":-122.1371372,"tags":{"amenity":"bench"}},{"type":"node","id":7003048501,"lat":47.6453466,"lon":-122.1371648,"tags":{"amenity":"bench"}},{"type":"node","id":7003048502,"lat":47.6435226,"lon":-122.1380336,"tags":{"amenity":"bench"}},{"type":"node","id":7003048505,"lat":47.6437023,"lon":-122.1364852,"tags":{"amenity":"bench"}},{"type":"node","id":7003048506,"lat":47.6439542,"lon":-122.1365619,"tags":{"amenity":"bench"}},{"type":"node","id":7003048507,"lat":47.6441109,"lon":-122.1367201,"tags":{"amenity":"bench"}},{"type":"node","id":7003048508,"lat":47.6440212,"lon":-122.1365628,"tags":{"amenity":"bench"}},{"type":"node","id":7003048511,"lat":47.6442103,"lon":-122.1376417,"tags":{"amenity":"bench"}},{"type":"node","id":7003167545,"lat":47.6436254,"lon":-122.1365993,"tags":{"amenity":"bench"}},{"type":"node","id":7003167546,"lat":47.6435836,"lon":-122.1369922,"tags":{"amenity":"bench"}},{"type":"node","id":7003167547,"lat":47.6437438,"lon":-122.138587,"tags":{"amenity":"bench","backrest":"yes"}},{"type":"node","id":7003167548,"lat":47.6435104,"lon":-122.1387792,"tags":{"amenity":"bench","backrest":"yes"}},{"type":"node","id":7003167549,"lat":47.6433513,"lon":-122.1393022,"tags":{"amenity":"bench","backrest":"yes"}},{"type":"node","id":7003167554,"lat":47.6444636,"lon":-122.136093,"tags":{"amenity":"bench"}},{"type":"node","id":7003167555,"lat":47.6445125,"lon":-122.1360913,"tags":{"amenity":"bench"}},{"type":"node","id":7009961017,"lat":47.6468566,"lon":-122.1372083,"tags":{"amenity":"bench"}},{"type":"node","id":7009961018,"lat":47.6467998,"lon":-122.1371501,"tags":{"amenity":"bench"}},{"type":"node","id":7009961019,"lat":47.6467476,"lon":-122.1371087,"tags":{"amenity":"bench"}},{"type":"node","id":7009961020,"lat":47.6466882,"lon":-122.1370553,"tags":{"amenity":"bench"}},{"type":"node","id":7009961021,"lat":47.6469087,"lon":-122.1372634,"tags":{"amenity":"bench"}},{"type":"node","id":7009961022,"lat":47.6469263,"lon":-122.1372595,"tags":{"amenity":"bench"}},{"type":"node","id":7009961023,"lat":47.6469711,"lon":-122.1371664,"tags":{"amenity":"bench"}},{"type":"node","id":7009961024,"lat":47.6469718,"lon":-122.1371217,"tags":{"amenity":"bench"}},{"type":"node","id":7120581252,"lat":47.6448871,"lon":-122.1307635,"tags":{"amenity":"bench","backrest":"no"}},{"type":"node","id":7120581253,"lat":47.6448864,"lon":-122.1307238,"tags":{"amenity":"bench","backrest":"no"}},{"type":"node","id":7120581256,"lat":47.6449966,"lon":-122.130577,"tags":{"amenity":"bench","backrest":"no"}},{"type":"node","id":7120581257,"lat":47.6450214,"lon":-122.130577,"tags":{"amenity":"bench","backrest":"no"}},{"type":"node","id":7120635294,"lat":47.6450569,"lon":-122.1304251,"tags":{"amenity":"bench","backrest":"yes"}},{"type":"node","id":7120635295,"lat":47.6450574,"lon":-122.1303849,"tags":{"amenity":"bench","backrest":"yes"}},{"type":"node","id":7120635296,"lat":47.6447823,"lon":-122.1308293,"tags":{"amenity":"bench","backrest":"yes"}},{"type":"node","id":7120635297,"lat":47.6447501,"lon":-122.1308305,"tags":{"amenity":"bench","backrest":"yes"}},{"type":"node","id":7123400024,"lat":47.6432361,"lon":-122.1302835,"tags":{"amenity":"bench"}},{"type":"node","id":7123400025,"lat":47.6432366,"lon":-122.130235,"tags":{"amenity":"bench"}},{"type":"node","id":7137827993,"lat":47.6433042,"lon":-122.1413598,"tags":{"amenity":"bench","backrest":"yes"}},{"type":"node","id":7137827994,"lat":47.6433681,"lon":-122.1413559,"tags":{"amenity":"bench","backrest":"yes"}},{"type":"node","id":7137827995,"lat":47.6434025,"lon":-122.1413545,"tags":{"amenity":"bench","backrest":"yes"}},{"type":"node","id":7137827996,"lat":47.6434572,"lon":-122.1413541,"tags":{"amenity":"bench"}},{"type":"node","id":7137827997,"lat":47.6434964,"lon":-122.141352,"tags":{"amenity":"bench"}},{"type":"node","id":7137827998,"lat":47.6434959,"lon":-122.1417807,"tags":{"amenity":"bench","backrest":"yes"}},{"type":"node","id":7137827999,"lat":47.6435644,"lon":-122.1417804,"tags":{"amenity":"bench","backrest":"yes"}},{"type":"node","id":7137828000,"lat":47.6435998,"lon":-122.1417804,"tags":{"amenity":"bench","backrest":"yes"}},{"type":"node","id":7137828001,"lat":47.6436563,"lon":-122.1417778,"tags":{"amenity":"bench","backrest":"yes"}},{"type":"node","id":7157792192,"lat":47.6468017,"lon":-122.1336756,"tags":{"amenity":"bench","backrest":"no"}},{"type":"node","id":7157792194,"lat":47.6470213,"lon":-122.1336636,"tags":{"amenity":"bench","backrest":"no"}},{"type":"node","id":7164912843,"lat":47.646563,"lon":-122.1335177,"tags":{"amenity":"bench","backrest":"no"}},{"type":"node","id":7164913101,"lat":47.6494789,"lon":-122.1348176,"tags":{"amenity":"bench","backrest":"yes"}},{"type":"node","id":7165167817,"lat":47.6507546,"lon":-122.1345488,"tags":{"amenity":"bench","backrest":"yes"}},{"type":"node","id":7209775550,"lat":47.6594834,"lon":-122.1415446,"tags":{"amenity":"bench"}},{"type":"node","id":7209775551,"lat":47.6594834,"lon":-122.1415157,"tags":{"amenity":"bench"}},{"type":"node","id":7213677059,"lat":47.6585645,"lon":-122.1408637,"tags":{"amenity":"bench"}},{"type":"node","id":7213677060,"lat":47.6586453,"lon":-122.1409407,"tags":{"amenity":"bench"}},{"type":"node","id":7213677065,"lat":47.6591118,"lon":-122.139013,"tags":{"amenity":"bench"}},{"type":"node","id":7213677066,"lat":47.6591377,"lon":-122.1390137,"tags":{"amenity":"bench"}},{"type":"node","id":7213677078,"lat":47.659464,"lon":-122.1398619,"tags":{"amenity":"bench"}},{"type":"node","id":7213677079,"lat":47.6594409,"lon":-122.1398628,"tags":{"amenity":"bench"}},{"type":"node","id":7213677080,"lat":47.659474,"lon":-122.1397815,"tags":{"amenity":"bench"}},{"type":"node","id":7213677081,"lat":47.6594741,"lon":-122.139824,"tags":{"amenity":"bench"}},{"type":"node","id":7213682343,"lat":47.6586137,"lon":-122.1402517,"tags":{"amenity":"bench"}},{"type":"node","id":7213735605,"lat":47.6586627,"lon":-122.1392854,"tags":{"amenity":"bench"}},{"type":"node","id":7213735606,"lat":47.6586626,"lon":-122.1392527,"tags":{"amenity":"bench"}},{"type":"node","id":7221345267,"lat":47.6591676,"lon":-122.1391451,"tags":{"amenity":"bench"}},{"type":"node","id":7234329936,"lat":47.6522429,"lon":-122.1334453,"tags":{"amenity":"bench","backrest":"yes"}},{"type":"node","id":7240925698,"lat":47.6512618,"lon":-122.134651,"tags":{"amenity":"bench","backrest":"yes"}},{"type":"node","id":7241159881,"lat":47.6517169,"lon":-122.1354844,"tags":{"amenity":"bench","backrest":"yes"}},{"type":"node","id":7241160055,"lat":47.6512297,"lon":-122.1340364,"tags":{"amenity":"bench","backrest":"yes"}},{"type":"node","id":7251783910,"lat":47.6473199,"lon":-122.1331259,"tags":{"amenity":"bench","backrest":"no"}},{"type":"node","id":7251783911,"lat":47.6472599,"lon":-122.1331189,"tags":{"amenity":"bench","backrest":"no"}},{"type":"node","id":7458590564,"lat":47.6448624,"lon":-122.1377946,"tags":{"amenity":"bench"}},{"type":"node","id":7458590565,"lat":47.6448639,"lon":-122.1378353,"tags":{"amenity":"bench"}},{"type":"node","id":7458590575,"lat":47.645183,"lon":-122.1371553,"tags":{"amenity":"bench"}},{"type":"node","id":7462172848,"lat":47.6447747,"lon":-122.139281,"tags":{"amenity":"bench"}},{"type":"node","id":7487097911,"lat":47.6599476,"lon":-122.2071725},{"type":"node","id":7487097912,"lat":47.6599482,"lon":-122.2071941},{"type":"node","id":7487097913,"lat":47.6601028,"lon":-122.2071841},{"type":"node","id":7487097914,"lat":47.6602236,"lon":-122.2071718},{"type":"node","id":7487097915,"lat":47.6603419,"lon":-122.2072511},{"type":"node","id":7487097916,"lat":47.6604436,"lon":-122.2072311},{"type":"node","id":7487097917,"lat":47.6604644,"lon":-122.2071494},{"type":"node","id":7487097918,"lat":47.6604363,"lon":-122.2071916},{"type":"node","id":7487097919,"lat":47.660343,"lon":-122.2072141},{"type":"node","id":7487097920,"lat":47.6602268,"lon":-122.2071409},{"type":"node","id":7516983706,"lat":47.6445344,"lon":-122.135997,"tags":{"amenity":"bench"}},{"type":"node","id":7516983720,"lat":47.6439763,"lon":-122.1365367,"tags":{"amenity":"bench"}},{"type":"node","id":7528124013,"lat":47.6439196,"lon":-122.1378071,"tags":{"amenity":"bench"}},{"type":"node","id":7549247171,"lat":47.6456443,"lon":-122.1378377,"tags":{"amenity":"bench"}},{"type":"node","id":7552629185,"lat":47.6666705,"lon":-122.1859952,"tags":{"amenity":"doctors","name":"Lakeside-Milam Recovery Center"}},{"type":"node","id":7669764980,"lat":47.6638,"lon":-122.1905641,"tags":{"amenity":"bench"}},{"type":"node","id":7669764981,"lat":47.6637677,"lon":-122.1905606,"tags":{"amenity":"bench"}},{"type":"node","id":7669764982,"lat":47.6637375,"lon":-122.1905584,"tags":{"amenity":"bench"}},{"type":"node","id":7670711184,"lat":47.6439452,"lon":-122.1320844,"tags":{"amenity":"bench"}},{"type":"node","id":7672060076,"lat":47.6458327,"lon":-122.137669,"tags":{"amenity":"bench"}},{"type":"node","id":7672060077,"lat":47.6454343,"lon":-122.1382245,"tags":{"amenity":"bench"}},{"type":"node","id":7672060078,"lat":47.6458591,"lon":-122.1372878,"tags":{"amenity":"bench"}},{"type":"node","id":7672083413,"lat":47.6458645,"lon":-122.13784,"tags":{"amenity":"bench"}},{"type":"node","id":7744630739,"lat":47.6447978,"lon":-122.133633,"tags":{"light_rail":"yes","name":"Redmond Technology","network":"Link","network:wikidata":"Q2778618","not:network:wikidata":"Q7564853","operator":"Sound Transit","operator:wikidata":"Q3965367","public_transport":"station","railway":"station","ref":"63","route_ref":"2 Line","station":"light_rail","wheelchair":"yes"}},{"type":"node","id":7797599354,"lat":47.6603595,"lon":-122.2065374,"tags":{"amenity":"bench","backrest":"yes"}},{"type":"node","id":8066641351,"lat":47.6662009,"lon":-122.157039},{"type":"node","id":8066641352,"lat":47.6662001,"lon":-122.1569656},{"type":"node","id":8210556859,"lat":47.641856,"lon":-122.1319959},{"type":"node","id":8210556863,"lat":47.6438475,"lon":-122.1353061},{"type":"node","id":8653489069,"lat":47.6700108,"lon":-122.1983121},{"type":"node","id":8653489070,"lat":47.6699914,"lon":-122.1982164},{"type":"node","id":8653489071,"lat":47.6699667,"lon":-122.1982037},{"type":"node","id":8653489072,"lat":47.6699495,"lon":-122.198175},{"type":"node","id":8653489073,"lat":47.6699141,"lon":-122.1981463},{"type":"node","id":8653489074,"lat":47.669883,"lon":-122.1981495},{"type":"node","id":8653489075,"lat":47.6698507,"lon":-122.1981877},{"type":"node","id":8653489076,"lat":47.6698282,"lon":-122.1982372},{"type":"node","id":8653489077,"lat":47.6697906,"lon":-122.1982755},{"type":"node","id":8653489078,"lat":47.6697874,"lon":-122.1984142},{"type":"node","id":8666053455,"lat":47.6433129,"lon":-122.195865,"tags":{"barrier":"kerb","kerb":"lowered","tactile_paving":"yes","tactile_paving:colour":"yellow","wheelchair":"yes"}},{"type":"node","id":8666053456,"lat":47.6432009,"lon":-122.1960492,"tags":{"barrier":"kerb","kerb":"lowered","tactile_paving":"yes","tactile_paving:colour":"yellow","wheelchair":"yes"}},{"type":"node","id":8702722576,"lat":47.6436504,"lon":-122.1979184,"tags":{"barrier":"kerb","kerb":"lowered","tactile_paving":"yes","tactile_paving:colour":"yellow","wheelchair":"yes"}},{"type":"node","id":8702722577,"lat":47.6435392,"lon":-122.1977584,"tags":{"barrier":"kerb","kerb":"lowered","tactile_paving":"yes","tactile_paving:colour":"yellow","wheelchair":"yes"}},{"type":"node","id":8702722578,"lat":47.643458,"lon":-122.1978943,"tags":{"barrier":"kerb","kerb":"lowered","tactile_paving":"yes","tactile_paving:colour":"yellow","wheelchair":"yes"}},{"type":"node","id":8703001669,"lat":47.6440061,"lon":-122.2014478,"tags":{"barrier":"kerb","kerb":"flush","lit":"yes","tactile_paving":"yes","tactile_paving:colour":"yellow"}},{"type":"node","id":8703001672,"lat":47.6439741,"lon":-122.2015502,"tags":{"barrier":"kerb","kerb":"flush","lit":"yes","tactile_paving":"yes","tactile_paving:colour":"yellow"}},{"type":"node","id":8703001673,"lat":47.6439392,"lon":-122.2015267,"tags":{"barrier":"kerb","kerb":"flush","lit":"yes","tactile_paving":"yes","tactile_paving:colour":"yellow"}},{"type":"node","id":8703001674,"lat":47.6440158,"lon":-122.2018233,"tags":{"barrier":"kerb","kerb":"flush","lit":"yes","tactile_paving":"yes","tactile_paving:colour":"yellow"}},{"type":"node","id":8703001675,"lat":47.6439997,"lon":-122.2018585,"tags":{"barrier":"kerb","kerb":"flush","lit":"yes","tactile_paving":"yes","tactile_paving:colour":"yellow"}},{"type":"node","id":8703001677,"lat":47.6437914,"lon":-122.2015282,"tags":{"barrier":"kerb","kerb":"flush","lit":"yes","tactile_paving":"yes","tactile_paving:colour":"yellow"}},{"type":"node","id":8703001679,"lat":47.6437444,"lon":-122.2015513,"tags":{"barrier":"kerb","kerb":"flush","lit":"yes","tactile_paving":"yes","tactile_paving:colour":"yellow"}},{"type":"node","id":8703001680,"lat":47.6436859,"lon":-122.2015097,"tags":{"barrier":"kerb","kerb":"flush","lit":"yes","tactile_paving":"yes","tactile_paving:colour":"yellow"}},{"type":"node","id":8703018721,"lat":47.6435115,"lon":-122.1961737,"tags":{"barrier":"kerb","kerb":"lowered","tactile_paving":"yes","tactile_paving:colour":"yellow","wheelchair":"yes"}},{"type":"node","id":8703018722,"lat":47.643574,"lon":-122.1962583,"tags":{"barrier":"kerb","kerb":"lowered","tactile_paving":"yes","tactile_paving:colour":"yellow","wheelchair":"yes"}},{"type":"node","id":8703018724,"lat":47.6435739,"lon":-122.1963086,"tags":{"barrier":"kerb","kerb":"lowered","tactile_paving":"yes","tactile_paving:colour":"yellow","wheelchair":"yes"}},{"type":"node","id":8703018725,"lat":47.6435012,"lon":-122.19642,"tags":{"barrier":"kerb","kerb":"lowered","tactile_paving":"yes","tactile_paving:colour":"yellow","wheelchair":"yes"}},{"type":"node","id":8703018726,"lat":47.6438894,"lon":-122.1967426,"tags":{"barrier":"kerb","kerb":"lowered","tactile_paving":"yes","tactile_paving:colour":"yellow","wheelchair":"yes"}},{"type":"node","id":8703018727,"lat":47.6438175,"lon":-122.1968562,"tags":{"barrier":"kerb","kerb":"lowered","tactile_paving":"yes","tactile_paving:colour":"yellow","wheelchair":"yes"}},{"type":"node","id":8703018731,"lat":47.644152,"lon":-122.1970613,"tags":{"barrier":"kerb","kerb":"lowered","tactile_paving":"yes","tactile_paving:colour":"yellow","wheelchair":"yes"}},{"type":"node","id":8703018732,"lat":47.644087,"lon":-122.1969811,"tags":{"barrier":"kerb","kerb":"lowered","tactile_paving":"yes","tactile_paving:colour":"yellow","wheelchair":"yes"}},{"type":"node","id":8703018744,"lat":47.6441973,"lon":-122.1971649,"tags":{"barrier":"kerb","kerb":"lowered","tactile_paving":"yes","tactile_paving:colour":"yellow","wheelchair":"yes"}},{"type":"node","id":9413959847,"lat":47.6454105,"lon":-122.1329259},{"type":"node","id":9413959848,"lat":47.6456162,"lon":-122.1330675},{"type":"node","id":9413959849,"lat":47.6455659,"lon":-122.1334929},{"type":"node","id":9413959850,"lat":47.6456917,"lon":-122.1333748},{"type":"node","id":9413959853,"lat":47.6441432,"lon":-122.1332535},{"type":"node","id":9413959858,"lat":47.6441753,"lon":-122.1328132},{"type":"node","id":9498371009,"lat":47.6417607,"lon":-122.1318062},{"type":"node","id":9688911572,"lat":47.6440788,"lon":-122.2018704,"tags":{"barrier":"kerb","kerb":"flush","lit":"yes","tactile_paving":"yes","tactile_paving:colour":"yellow"}},{"type":"node","id":9693549033,"lat":47.650163,"lon":-122.1900554,"tags":{"amenity":"bench","material":"wood","seats":"1"}},{"type":"node","id":9719458303,"lat":47.6691193,"lon":-122.159183,"tags":{"amenity":"bench"}},{"type":"node","id":9719458304,"lat":47.6690984,"lon":-122.159183,"tags":{"amenity":"bench"}},{"type":"node","id":9719875213,"lat":47.6688721,"lon":-122.1591692,"tags":{"amenity":"bench"}},{"type":"node","id":9719875216,"lat":47.6688617,"lon":-122.1591669,"tags":{"amenity":"bench"}},{"type":"node","id":9722002771,"lat":47.6516411,"lon":-122.1956352,"tags":{"amenity":"bench"}},{"type":"node","id":9722002781,"lat":47.6516664,"lon":-122.1958973,"tags":{"amenity":"bench"}},{"type":"node","id":9722002782,"lat":47.651776,"lon":-122.1958073,"tags":{"amenity":"bench"}},{"type":"node","id":9723764744,"lat":47.6675724,"lon":-122.2069465,"tags":{"amenity":"bench"}},{"type":"node","id":9913558590,"lat":47.6621813,"lon":-122.2017603,"tags":{"amenity":"bench","backrest":"yes","material":"metal","seats":"1"}},{"type":"node","id":9913558591,"lat":47.6621486,"lon":-122.2017742,"tags":{"amenity":"bench","backrest":"yes","material":"metal","seats":"1"}},{"type":"node","id":9934229670,"lat":47.6704446,"lon":-122.2063223,"tags":{"amenity":"bench"}},{"type":"node","id":10202999417,"lat":47.6563951,"lon":-122.1844324,"tags":{"amenity":"drinking_water"}},{"type":"node","id":10203608317,"lat":47.6556954,"lon":-122.1843256,"tags":{"amenity":"drinking_water"}},{"type":"node","id":10709365979,"lat":47.6688939,"lon":-122.1957898,"tags":{"addr:city":"Kirkland","addr:housenumber":"816","addr:postcode":"98033","addr:state":"WA","addr:street":"6th Street South","healthcare":"alternative","healthcare:speciality":"chiropractic","name":"Lake Washington Family Chiropractic","operator":"Lake Washington Family Chiropractic","website":"https://www.lwfamilychiro.com"}},{"type":"node","id":10731573612,"lat":47.6589494,"lon":-122.1323097,"tags":{"amenity":"bench","backrest":"yes","colour":"brown","material":"wood","seats":"3"}},{"type":"node","id":10731573616,"lat":47.6590811,"lon":-122.1322583,"tags":{"amenity":"bench","backrest":"yes","colour":"brown","material":"wood","seats":"3"}},{"type":"node","id":10731573619,"lat":47.65908,"lon":-122.1321215,"tags":{"amenity":"bench","backrest":"yes","colour":"brown","material":"wood","seats":"3"}},{"type":"node","id":10736108784,"lat":47.6595414,"lon":-122.1311645,"tags":{"amenity":"bench","backrest":"yes","colour":"brown","material":"wood","seats":"3"}},{"type":"node","id":10736108785,"lat":47.6595277,"lon":-122.1310196,"tags":{"amenity":"bench","backrest":"yes","colour":"brown","material":"wood","seats":"3"}},{"type":"node","id":10736108786,"lat":47.6592415,"lon":-122.1318089,"tags":{"amenity":"bench","backrest":"yes","colour":"brown","material":"wood","seats":"3"}},{"type":"node","id":10736108787,"lat":47.6593497,"lon":-122.1320694,"tags":{"amenity":"bench","backrest":"yes","colour":"brown","material":"wood","seats":"3"}},{"type":"node","id":10789168516,"lat":47.6686217,"lon":-122.1438339,"tags":{"amenity":"recycling","operator":"City of Redmond","recycling:cans":"yes","recycling:glass_bottles":"yes","recycling:plastic_bottles":"yes","recycling_type":"container","wheelchair":"yes"}},{"type":"node","id":10789168518,"lat":47.6683506,"lon":-122.1439167,"tags":{"amenity":"bench","backrest":"yes","colour":"brown","material":"wood","seats":"3"}},{"type":"node","id":10789168519,"lat":47.6684766,"lon":-122.1439134,"tags":{"amenity":"bench","backrest":"yes","colour":"brown","material":"wood","seats":"3"}},{"type":"node","id":10789168520,"lat":47.6689503,"lon":-122.1436096,"tags":{"amenity":"bench","backrest":"no","material":"concrete","seats":"4"}},{"type":"node","id":10789168521,"lat":47.6689193,"lon":-122.1435878,"tags":{"entrance":"yes","name":"Men's Restroom"}},{"type":"node","id":10789168522,"lat":47.6688956,"lon":-122.143588,"tags":{"entrance":"yes","name":"Women's Restroom"}},{"type":"node","id":10789168524,"lat":47.6688732,"lon":-122.1435979,"tags":{"amenity":"recycling","operator":"City of Redmond","recycling:cans":"yes","recycling:glass_bottles":"yes","recycling:plastic_bottles":"yes","recycling_type":"container","wheelchair":"yes"}},{"type":"node","id":10789168525,"lat":47.6687326,"lon":-122.1434778,"tags":{"amenity":"bench","backrest":"no","material":"concrete","seats":"4"}},{"type":"node","id":10789168526,"lat":47.6687252,"lon":-122.143503,"tags":{"amenity":"bench","backrest":"no","material":"concrete","seats":"4"}},{"type":"node","id":10789168527,"lat":47.6686668,"lon":-122.1436452,"tags":{"amenity":"bench","backrest":"no","material":"concrete","seats":"4"}},{"type":"node","id":10789168528,"lat":47.6684895,"lon":-122.1436934,"tags":{"amenity":"bench","backrest":"no","material":"concrete","seats":"4"}},{"type":"node","id":10789168529,"lat":47.6684337,"lon":-122.143685,"tags":{"amenity":"recycling","operator":"City of Redmond","recycling:cans":"yes","recycling:glass_bottles":"yes","recycling:plastic_bottles":"yes","recycling_type":"container","wheelchair":"yes"}},{"type":"node","id":10789168533,"lat":47.6684116,"lon":-122.1438604,"tags":{"amenity":"bench","backrest":"yes","colour":"brown","material":"wood","seats":"3"}},{"type":"node","id":10789168534,"lat":47.6683732,"lon":-122.1438366,"tags":{"amenity":"bench","backrest":"no","material":"concrete","seats":"4"}},{"type":"node","id":10789168535,"lat":47.668373,"lon":-122.1438017,"tags":{"amenity":"bench","backrest":"no","material":"concrete","seats":"4"}},{"type":"node","id":10801860198,"lat":47.6605189,"lon":-122.206105,"tags":{"entrance":"yes"}},{"type":"node","id":10801860203,"lat":47.6606149,"lon":-122.2061079,"tags":{"entrance":"main"}},{"type":"node","id":10961098350,"lat":47.6701864,"lon":-122.198275,"tags":{"amenity":"bench"}},{"type":"node","id":10961098356,"lat":47.6696923,"lon":-122.1984649,"tags":{"amenity":"bench"}},{"type":"node","id":10961098357,"lat":47.669544,"lon":-122.198517,"tags":{"amenity":"bench"}},{"type":"node","id":10961098359,"lat":47.6694413,"lon":-122.1984906,"tags":{"amenity":"bench"}},{"type":"node","id":10961098360,"lat":47.6694214,"lon":-122.198456,"tags":{"amenity":"bench"}},{"type":"node","id":10961098361,"lat":47.6693989,"lon":-122.1984133,"tags":{"amenity":"bench"}},{"type":"node","id":11046780898,"lat":47.6448506,"lon":-122.1367864,"tags":{"amenity":"bench","backrest":"yes","material":"wood"}},{"type":"node","id":11046780899,"lat":47.6449058,"lon":-122.1367755,"tags":{"amenity":"bench","backrest":"yes","material":"wood"}},{"type":"node","id":11121042891,"lat":47.6432764,"lon":-122.1392438,"tags":{"amenity":"bench","backrest":"yes","material":"wood"}},{"type":"node","id":11121042892,"lat":47.6439004,"lon":-122.1382437,"tags":{"amenity":"bench","backrest":"yes","material":"wood"}},{"type":"node","id":11182636347,"lat":47.64242,"lon":-122.1329105},{"type":"node","id":11218039566,"lat":47.6682103,"lon":-122.1697403,"tags":{"amenity":"drinking_water","description":"Water supply is turned off during cold months.","seasonal":"spring;summer;autumn"}},{"type":"node","id":11218039567,"lat":47.6677775,"lon":-122.1462766,"tags":{"amenity":"drinking_water","fountain":"bubbler"}},{"type":"node","id":11471000935,"lat":47.6445739,"lon":-122.1330376,"tags":{"bench":"yes","bin":"yes","gtfs:feed":"US-WA-KCM","gtfs:stop_id":"71346","highway":"bus_stop","lit":"yes","local_ref":"5","name":"Redmond Technology Station Acs - Bay 5","network":"King County Metro","network:short":"KCM","network:wikidata":"Q6411393","operator":"King County Metro","operator:short":"KCM","operator:wikidata":"Q6411393","operator:wikipedia":"en:King County Metro","ref":"71346","route_ref":"222","shelter":"yes","tactile_paving":"no","wheelchair":"yes"}},{"type":"node","id":11481601969,"lat":47.6429769,"lon":-122.1336923},{"type":"node","id":11685214859,"lat":47.6683356,"lon":-122.143773,"tags":{"amenity":"bench","backrest":"no"}},{"type":"node","id":11688561811,"lat":47.6688554,"lon":-122.14349},{"type":"node","id":11764264395,"lat":47.6712076,"lon":-122.2059566,"tags":{"amenity":"bench"}},{"type":"node","id":11832041400,"lat":47.6440601,"lon":-122.1333144,"tags":{"bicycle":"yes","railway":"subway_entrance","ref":"C","wheelchair":"yes"}},{"type":"node","id":11836141467,"lat":47.6452113,"lon":-122.1336551,"tags":{"description":"Redmond Technology to Downtown Redmond","gtfs:stop_id":"E27-T2","light_rail":"yes","name":"Redmond Technology","network":"Link","network:wikidata":"Q2778618","operator":"Sound Transit","operator:wikidata":"Q3965367","public_transport":"stop_position","railway":"stop","ref":"63","website":"https://www.soundtransit.org/ride-with-us/stops-stations/redmond-technology-station","wheelchair":"yes"}},{"type":"node","id":11836141468,"lat":47.6444187,"lon":-122.133622,"tags":{"description":"Redmond Technology to South Bellevue","gtfs:stop_id":"E27-T1","light_rail":"yes","name":"Redmond Technology","network":"Link","network:wikidata":"Q2778618","operator":"Sound Transit","operator:wikidata":"Q3965367","public_transport":"stop_position","railway":"stop","ref":"63","website":"https://www.soundtransit.org/ride-with-us/stops-stations/redmond-technology-station","wheelchair":"yes"}},{"type":"node","id":11840550853,"lat":47.6439159,"lon":-122.1356061},{"type":"node","id":11840550854,"lat":47.6438928,"lon":-122.1354738},{"type":"node","id":11840550855,"lat":47.6438781,"lon":-122.1356351,"tags":{"access":"yes","addr:floor":"1,2","highway":"elevator","level":"0","operator":"Microsoft","source":"survey","start_date":"2024-04-22","wheelchair":"yes"}},{"type":"node","id":11847858626,"lat":47.6440078,"lon":-122.1334741,"tags":{"bicycle":"yes","highway":"elevator","level":"0-3","level:ref":"1-4","railway":"subway_entrance","ref":"B2","wheelchair":"yes"}},{"type":"node","id":11847858628,"lat":47.6441737,"lon":-122.1335036,"tags":{"bicycle":"no","entrance":"main","railway":"subway_entrance","ref":"B1","wheelchair":"no"}},{"type":"node","id":11860854718,"lat":47.6437282,"lon":-122.1346857,"tags":{"access":"yes","amenity":"bench","backrest":"yes","level":"1","material":"wood"}},{"type":"node","id":11860854719,"lat":47.6432124,"lon":-122.1339472,"tags":{"access":"yes","amenity":"bench","backrest":"yes","layer":"1","level":"1","material":"wood"}},{"type":"node","id":11888487708,"lat":47.6438702,"lon":-122.1351044},{"type":"node","id":11888487709,"lat":47.6438667,"lon":-122.135047},{"type":"node","id":11888487710,"lat":47.6438716,"lon":-122.1348313},{"type":"node","id":11888487712,"lat":47.6430575,"lon":-122.1336851},{"type":"node","id":11888487713,"lat":47.6426702,"lon":-122.1331426},{"type":"node","id":11888487714,"lat":47.642444,"lon":-122.1328781},{"type":"node","id":11888487716,"lat":47.6419006,"lon":-122.1319964},{"type":"node","id":11888529166,"lat":47.6451801,"lon":-122.132873},{"type":"node","id":11904623069,"lat":47.6678241,"lon":-122.1474915,"tags":{"amenity":"drinking_water","fountain":"bubbler"}},{"type":"node","id":11933867875,"lat":47.6686721,"lon":-122.1988822,"tags":{"amenity":"bench","backrest":"yes"}},{"type":"node","id":12003337468,"lat":47.6605554,"lon":-122.2069847,"tags":{"amenity":"bench"}},{"type":"node","id":12003343773,"lat":47.6606149,"lon":-122.2061108},{"type":"node","id":12003343774,"lat":47.6605944,"lon":-122.2066457,"tags":{"amenity":"bench"}},{"type":"node","id":12003343782,"lat":47.6602075,"lon":-122.2061289,"tags":{"amenity":"bench"}},{"type":"node","id":12003343784,"lat":47.6606879,"lon":-122.2066706,"tags":{"amenity":"bench"}},{"type":"node","id":12003343789,"lat":47.6605578,"lon":-122.2067982,"tags":{"amenity":"bench"}},{"type":"node","id":12003343793,"lat":47.6605802,"lon":-122.2069679,"tags":{"amenity":"bench"}},{"type":"node","id":12003343794,"lat":47.6603895,"lon":-122.2069174,"tags":{"amenity":"bench"}},{"type":"node","id":12003343800,"lat":47.6608861,"lon":-122.2067367,"tags":{"amenity":"bench"}},{"type":"node","id":12003343804,"lat":47.660807,"lon":-122.2067003,"tags":{"amenity":"bench"}},{"type":"node","id":12010036575,"lat":47.6438822,"lon":-122.1353014},{"type":"node","id":12010320898,"lat":47.64382,"lon":-122.1348829},{"type":"node","id":12046827169,"lat":47.6675325,"lon":-122.1988666,"tags":{"addr:city":"Kirkland","addr:housenumber":"10526","addr:postcode":"98033","addr:state":"WA","addr:street":"Northeast 68th Street","addr:unit":"101","email":"office@binnaclepsychiatry.com","fax":"+1-425-576-1234","healthcare":"psychotherapist","healthcare:speciality":"psychiatry","name":"Binnacle Psychiatry","opening_hours":"Tu-Fr 10:00-18:00","phone":"+1-425-947-1303","website":"https://www.binnaclepsychiatry.com"}},{"type":"node","id":12063563397,"lat":47.6506828,"lon":-122.1525428,"tags":{"amenity":"toilets"}},{"type":"node","id":12063563399,"lat":47.6507151,"lon":-122.1525217,"tags":{"amenity":"drinking_water"}},{"type":"node","id":12115457505,"lat":47.645557,"lon":-122.133521,"tags":{"barrier":"kerb","kerb":"lowered","tactile_paving":"yes"}},{"type":"node","id":12117095924,"lat":47.6456451,"lon":-122.2006,"tags":{"bus":"yes","gtfs:feed":"US-WA-KCM","gtfs:stop_id":"74437","highway":"bus_stop","name":"NE 38th Pl & Lake Washington Blvd NE","network":"King County Metro","network:short":"KCM","network:wikidata":"Q6411393","operator":"King County Metro","operator:short":"KCM","operator:wikidata":"Q6411393","operator:wikipedia":"en:King County Metro","public_transport":"platform","ref":"74437","route_ref":"249;250;DART 249","wheelchair":"yes"}},{"type":"node","id":12117095948,"lat":47.6676865,"lon":-122.163879,"tags":{"bus":"yes","gtfs:feed":"US-WA-KCM","gtfs:stop_id":"73926","highway":"bus_stop","name":"132nd Ave NE & NE 70th Pl","network":"King County Metro","network:short":"KCM","network:wikidata":"Q6411393","operator":"King County Metro","operator:short":"KCM","operator:wikidata":"Q6411393","operator:wikipedia":"en:King County Metro","public_transport":"platform","ref":"73926","route_ref":"225","wheelchair":"yes"}},{"type":"node","id":12117095962,"lat":47.6540337,"lon":-122.135139,"tags":{"bus":"yes","gtfs:feed":"US-WA-KCM","gtfs:stop_id":"73168","highway":"bus_stop","name":"NE 51st St & 154th Ave NE","network":"King County Metro","network:short":"KCM","network:wikidata":"Q6411393","operator":"King County Metro","operator:short":"KCM","operator:wikidata":"Q6411393","operator:wikipedia":"en:King County Metro","public_transport":"platform","ref":"73168","route_ref":"245","wheelchair":"yes"}},{"type":"node","id":12117095966,"lat":47.6461182,"lon":-122.130539,"tags":{"bus":"yes","gtfs:feed":"US-WA-KCM","gtfs:stop_id":"73059","highway":"bus_stop","name":"NE 40th St & 156th Ave NE","network":"King County Metro","network:short":"KCM","network:wikidata":"Q6411393","operator":"King County Metro","operator:short":"KCM","operator:wikidata":"Q6411393","operator:wikipedia":"en:King County Metro","public_transport":"platform","ref":"73059","route_ref":"249;269;895","wheelchair":"yes"}},{"type":"node","id":12117095986,"lat":47.669445,"lon":-122.185394,"tags":{"bench":"no","bin":"no","bus":"yes","gtfs:feed":"US-WA-KCM","gtfs:stop_id":"72311","highway":"bus_stop","name":"NE 70th Pl & 116th Ave NE","network":"King County Metro","network:short":"KCM","network:wikidata":"Q6411393","operator":"King County Metro","operator:short":"KCM","operator:wikidata":"Q6411393","operator:wikipedia":"en:King County Metro","public_transport":"platform","ref":"72311","route_ref":"245","shelter":"no","wheelchair":"yes"}},{"type":"node","id":12117096000,"lat":47.6460228,"lon":-122.140671,"tags":{"bus":"yes","gtfs:feed":"US-WA-KCM","gtfs:stop_id":"71327","highway":"bus_stop","name":"NE 40th St & 150th Ave NE","network":"King County Metro","network:short":"KCM","network:wikidata":"Q6411393","operator":"King County Metro","operator:short":"KCM","operator:wikidata":"Q6411393","operator:wikipedia":"en:King County Metro","public_transport":"platform","ref":"71327","route_ref":"225;269","wheelchair":"yes"}},{"type":"node","id":12117096045,"lat":47.6641541,"lon":-122.204628,"tags":{"bus":"yes","gtfs:feed":"US-WA-KCM","gtfs:stop_id":"69485","highway":"bus_stop","name":"Lakeview Dr NE & NE 64th St","network":"King County Metro","network:short":"KCM","network:wikidata":"Q6411393","operator":"King County Metro","operator:short":"KCM","operator:wikidata":"Q6411393","operator:wikipedia":"en:King County Metro","public_transport":"platform","ref":"69485","route_ref":"250","shelter":"no","wheelchair":"yes"}},{"type":"node","id":12117096046,"lat":47.6580734,"lon":-122.204712,"tags":{"bus":"yes","gtfs:feed":"US-WA-KCM","gtfs:stop_id":"69465","highway":"bus_stop","name":"Lakeview Dr NE & Lake Washington Blvd NE","network":"King County Metro","network:short":"KCM","network:wikidata":"Q6411393","operator":"King County Metro","operator:short":"KCM","operator:wikidata":"Q6411393","operator:wikipedia":"en:King County Metro","public_transport":"platform","ref":"69465","route_ref":"250","wheelchair":"yes"}},{"type":"node","id":12117096047,"lat":47.6539421,"lon":-122.20443,"tags":{"bus":"yes","gtfs:feed":"US-WA-KCM","gtfs:stop_id":"69440","highway":"bus_stop","name":"Lake Washington Blvd NE & NE 52nd St","network":"King County Metro","network:short":"KCM","network:wikidata":"Q6411393","operator":"King County Metro","operator:short":"KCM","operator:wikidata":"Q6411393","operator:wikipedia":"en:King County Metro","public_transport":"platform","ref":"69440","route_ref":"250","wheelchair":"yes"}},{"type":"node","id":12117096048,"lat":47.6516113,"lon":-122.20417,"tags":{"bus":"yes","gtfs:feed":"US-WA-KCM","gtfs:stop_id":"69430","highway":"bus_stop","name":"Lake Washington Blvd NE & NE 46th St","network":"King County Metro","network:short":"KCM","network:wikidata":"Q6411393","operator":"King County Metro","operator:short":"KCM","operator:wikidata":"Q6411393","operator:wikipedia":"en:King County Metro","public_transport":"platform","ref":"69430","route_ref":"250","wheelchair":"yes"}},{"type":"node","id":12117096074,"lat":47.645565,"lon":-122.20182,"tags":{"bus":"yes","gtfs:feed":"US-WA-KCM","gtfs:stop_id":"68920","highway":"bus_stop","name":"Lake Washington Blvd NE & NE 38th Pl","network":"King County Metro","network:short":"KCM","network:wikidata":"Q6411393","operator":"King County Metro","operator:short":"KCM","operator:wikidata":"Q6411393","operator:wikipedia":"en:King County Metro","public_transport":"platform","ref":"68920","route_ref":"249;250;DART 249","wheelchair":"yes"}},{"type":"node","id":12117096075,"lat":47.6474838,"lon":-122.202934,"tags":{"bus":"yes","gtfs:feed":"US-WA-KCM","gtfs:stop_id":"68910","highway":"bus_stop","name":"Lake Washington Blvd NE & NE 43rd St","network":"King County Metro","network:short":"KCM","network:wikidata":"Q6411393","operator":"King County Metro","operator:short":"KCM","operator:wikidata":"Q6411393","operator:wikipedia":"en:King County Metro","public_transport":"platform","ref":"68910","route_ref":"250","wheelchair":"yes"}},{"type":"node","id":12117096076,"lat":47.6540909,"lon":-122.204643,"tags":{"bus":"yes","gtfs:feed":"US-WA-KCM","gtfs:stop_id":"68890","highway":"bus_stop","name":"Lake Washington Blvd NE & NE 52nd St","network":"King County Metro","network:short":"KCM","network:wikidata":"Q6411393","operator":"King County Metro","operator:short":"KCM","operator:wikidata":"Q6411393","operator:wikipedia":"en:King County Metro","public_transport":"platform","ref":"68890","route_ref":"250","wheelchair":"yes"}},{"type":"node","id":12117096077,"lat":47.6567497,"lon":-122.204956,"tags":{"bus":"yes","gtfs:feed":"US-WA-KCM","gtfs:stop_id":"68871","highway":"bus_stop","name":"Lake Washington Blvd NE & Lakeview Dr NE","network":"King County Metro","network:short":"KCM","network:wikidata":"Q6411393","operator":"King County Metro","operator:short":"KCM","operator:wikidata":"Q6411393","operator:wikipedia":"en:King County Metro","public_transport":"platform","ref":"68871","route_ref":"250","wheelchair":"yes"}},{"type":"node","id":12117096083,"lat":47.6459808,"lon":-122.131401,"tags":{"bus":"yes","gtfs:feed":"US-WA-KCM","gtfs:stop_id":"68404","highway":"bus_stop","name":"NE 40th St & 156th Ave NE","network":"King County Metro","network:short":"KCM","network:wikidata":"Q6411393","operator":"King County Metro","operator:short":"KCM","operator:wikidata":"Q6411393","operator:wikipedia":"en:King County Metro","public_transport":"platform","ref":"68404","route_ref":"249;269;895","wheelchair":"yes"}},{"type":"node","id":12121320228,"lat":47.6645982,"lon":-122.1392782,"tags":{"amenity":"bench"}},{"type":"node","id":12121320240,"lat":47.6645774,"lon":-122.1387448,"tags":{"amenity":"bench"}},{"type":"node","id":12125403624,"lat":47.6445169,"lon":-122.1337084,"tags":{"amenity":"shelter","bench":"yes","bin":"yes","lit":"yes","operator":"King County Metro","shelter_type":"public_transport","wheelchair":"yes"}},{"type":"node","id":12209306650,"lat":47.6674714,"lon":-122.1457978,"tags":{"amenity":"bench","backrest":"yes"}},{"type":"node","id":12209306652,"lat":47.667497,"lon":-122.1457899,"tags":{"amenity":"bench","backrest":"yes"}},{"type":"node","id":12209306655,"lat":47.6676763,"lon":-122.1463732,"tags":{"amenity":"bench","backrest":"yes"}},{"type":"node","id":12209306657,"lat":47.6677196,"lon":-122.1463665,"tags":{"amenity":"bench","backrest":"yes"}},{"type":"node","id":12209306659,"lat":47.6676263,"lon":-122.1463902,"tags":{"amenity":"bench","backrest":"yes"}},{"type":"node","id":12291034303,"lat":47.6645033,"lon":-122.1901825},{"type":"node","id":12291034304,"lat":47.6645021,"lon":-122.1901401},{"type":"node","id":12511451498,"lat":47.644053,"lon":-122.2018501},{"type":"node","id":12511451499,"lat":47.6440706,"lon":-122.2018577},{"type":"node","id":12863800732,"lat":47.6593131,"lon":-122.1319189,"tags":{"amenity":"bench","backrest":"yes","colour":"brown","material":"wood","seats":"3"}},{"type":"node","id":12865408131,"lat":47.6608496,"lon":-122.2070053,"tags":{"amenity":"bench"}},{"type":"node","id":12865437565,"lat":47.6624012,"lon":-122.1731223,"tags":{"amenity":"bench"}},{"type":"node","id":12865437566,"lat":47.6624223,"lon":-122.1731356,"tags":{"amenity":"bench"}},{"type":"node","id":12865437567,"lat":47.6624041,"lon":-122.1732674,"tags":{"amenity":"bench"}},{"type":"node","id":12865437568,"lat":47.6624175,"lon":-122.1732958,"tags":{"amenity":"bench"}},{"type":"node","id":12865437569,"lat":47.6624114,"lon":-122.1733233,"tags":{"amenity":"bench"}},{"type":"node","id":12865437599,"lat":47.6617912,"lon":-122.1743337,"tags":{"amenity":"bench"}},{"type":"node","id":12865437600,"lat":47.66179,"lon":-122.1741427,"tags":{"amenity":"bench"}},{"type":"node","id":12865437601,"lat":47.6616332,"lon":-122.1739152,"tags":{"amenity":"bench"}},{"type":"node","id":12865437602,"lat":47.6616056,"lon":-122.1739142,"tags":{"amenity":"bench"}},{"type":"node","id":13073418648,"lat":47.6462935,"lon":-122.1320592,"tags":{"amenity":"bench","backrest":"yes"}},{"type":"node","id":13073418649,"lat":47.6462773,"lon":-122.1320117,"tags":{"amenity":"bench","backrest":"yes"}},{"type":"node","id":13073418650,"lat":47.6462468,"lon":-122.1319983,"tags":{"amenity":"bench","backrest":"yes"}},{"type":"node","id":13146015397,"lat":47.6508104,"lon":-122.133438,"tags":{"amenity":"bench","backrest":"yes"}},{"type":"node","id":13146016380,"lat":47.6505811,"lon":-122.1332119,"tags":{"amenity":"bench","backrest":"yes"}},{"type":"node","id":13146016457,"lat":47.651024,"lon":-122.1334363,"tags":{"amenity":"bench","backrest":"yes"}},{"type":"node","id":13146020828,"lat":47.6510846,"lon":-122.1332285,"tags":{"amenity":"bench","backrest":"yes"}},{"type":"node","id":13146027245,"lat":47.6505864,"lon":-122.1332774,"tags":{"amenity":"bench","backrest":"yes"}},{"type":"node","id":13146031824,"lat":47.650621,"lon":-122.1331359,"tags":{"amenity":"bench","backrest":"yes"}},{"type":"node","id":13146063725,"lat":47.6448827,"lon":-122.1336717,"tags":{"amenity":"bench","backrest":"yes"}},{"type":"node","id":13146093935,"lat":47.6449149,"lon":-122.1336267,"tags":{"amenity":"bench","backrest":"yes"}},{"type":"node","id":13146093936,"lat":47.644543,"lon":-122.1335586,"tags":{"amenity":"bench","backrest":"yes"}},{"type":"node","id":13146103514,"lat":47.6446645,"lon":-122.1335878,"tags":{"amenity":"bench","backrest":"yes"}},{"type":"node","id":13146103515,"lat":47.6445179,"lon":-122.1335886,"tags":{"amenity":"bench","backrest":"yes"}},{"type":"node","id":13146118050,"lat":47.6446311,"lon":-122.1336139,"tags":{"amenity":"bench","backrest":"yes"}},{"type":"node","id":13153422986,"lat":47.646408,"lon":-122.1338695,"tags":{"amenity":"bench"}},{"type":"node","id":13153761037,"lat":47.6458458,"lon":-122.1335411,"tags":{"amenity":"bench","backrest":"no"}},{"type":"node","id":13153884915,"lat":47.6455249,"lon":-122.1336644,"tags":{"bicycle":"yes","railway":"subway_entrance","ref":"A","wheelchair":"yes"}},{"type":"node","id":13422426884,"lat":47.6443649,"lon":-122.1327052},{"type":"node","id":13422426885,"lat":47.6443426,"lon":-122.1326538},{"type":"node","id":13422427956,"lat":47.6441296,"lon":-122.1331435},{"type":"node","id":13422427998,"lat":47.644452,"lon":-122.1327486},{"type":"node","id":13422428034,"lat":47.6454612,"lon":-122.1329843},{"type":"node","id":13422428035,"lat":47.6454865,"lon":-122.133024},{"type":"node","id":13422428036,"lat":47.6455515,"lon":-122.1330396},{"type":"node","id":13422428037,"lat":47.6456592,"lon":-122.1331216},{"type":"node","id":13422428038,"lat":47.6456853,"lon":-122.133178},{"type":"node","id":13422428039,"lat":47.6456936,"lon":-122.1332091},{"type":"node","id":13422428054,"lat":47.6457012,"lon":-122.1332644},{"type":"node","id":13422428055,"lat":47.6456994,"lon":-122.1333299},{"type":"node","id":13422428056,"lat":47.6456743,"lon":-122.1334445},{"type":"node","id":13422428057,"lat":47.6456398,"lon":-122.1334914},{"type":"node","id":13422428058,"lat":47.6455492,"lon":-122.1335412},{"type":"node","id":13422428059,"lat":47.6455098,"lon":-122.1335558},{"type":"node","id":13422428060,"lat":47.645468,"lon":-122.1335621},{"type":"node","id":13422428061,"lat":47.6441566,"lon":-122.132822},{"type":"node","id":13422428062,"lat":47.6441744,"lon":-122.1325864},{"type":"node","id":13422428098,"lat":47.6441354,"lon":-122.1332344},{"type":"node","id":13422428099,"lat":47.6441558,"lon":-122.1332844},{"type":"node","id":13422428103,"lat":47.6457008,"lon":-122.1332798},{"type":"node","id":13422428182,"lat":47.6452017,"lon":-122.1335126},{"type":"way","id":210916739,"nodes":[2209473239,2209473235,2209473236,2209473246,2209473250,2209473238,2209473239],"tags":{"addr:city":"Kirkland","addr:country":"US","addr:housename":"3","addr:housenumber":"10413","addr:postcode":"98033","addr:state":"WA","addr:street":"Northeast 37th Circle","amenity":"clinic","building":"yes","building:levels":"1","healthcare":"clinic","name":"Pratt Clinic","website":"https://prattplasticsurgery.com/"}},{"type":"way","id":324624083,"nodes":[3313348249,3313348147,3313348162,3313348257,3313348249],"tags":{"addr:city":"Kirkland","addr:housenumber":"6605","addr:postcode":"98033","addr:street":"Lake Washington Boulevard Northeast","amenity":"toilets","building":"yes"}},{"type":"way","id":326680273,"nodes":[3333476171,3333476102,10801860198,3333476111,3333476178,12003343773,10801860203,3333476177,4340584789,3333476171],"tags":{"addr:city":"Kirkland","addr:housenumber":"5910","addr:postcode":"98033","addr:state":"WA","addr:street":"Lake Washington Boulevard Northeast","amenity":"restaurant","building":"retail","building:levels":"1","check_date":"2024-06-23","cuisine":"seafood","indoor_seating":"yes","name":"Ivars Seafood Bar","opening_hours":"Mo-Su 11:00-21:00","outdoor_seating":"patio","phone":"+1-425-827-5858","roof:levels":"0","toilets:wheelchair":"yes","website":"https://www.ivars.com/locations/seafood-bars","wheelchair":"yes"}},{"type":"way","id":326778048,"nodes":[3334413758,3334413701,3334413702,3334413760,3334413758],"tags":{"addr:city":"Kirkland","addr:housenumber":"10811","addr:postcode":"98033","addr:state":"WA","addr:street":"Northeast 47th Street","amenity":"toilets","building":"yes"}},{"type":"way","id":327515580,"nodes":[3343030686,3343030624,3343030646,3343030702,3343030686],"tags":{"amenity":"toilets","building":"yes"}},{"type":"way","id":369779615,"nodes":[3735373831,3735373832,3735373833,3735373834,3735373831],"tags":{"amenity":"toilets","building":"yes"}},{"type":"way","id":377367750,"nodes":[6731946651,13422428061,13422427956,13422428098,9413959853,13422428099,6778049776,13422428182,321156101,13422428060,13422428059,13422428058,12115457505,9413959849,13422428057,13422428056,9413959850,13422428055,13422428103,13422428054,13422428039,13422428038,13422428037,9413959848,13422428036,13422428035,13422428034,9413959847,11888529166,6731946646,13422427998,6315479381,13422426884,13422426885,3807447134,13422428062,9413959858,6731946651],"tags":{"addr:city":"Redmond","addr:housenumber":"15590","addr:postcode":"98052","addr:state":"WA","addr:street":"Northeast 36th Street","amenity":"bus_station","bus":"yes","name":"Redmond Technology Station","public_transport":"station","wheelchair":"yes","wikidata":"Q20712538"}},{"type":"way","id":413883023,"nodes":[4151072279,10789168521,10789168522,4151072280,11688561811,4775958858,4151072281,4151072282,4151072279],"tags":{"amenity":"toilets","building":"yes"}},{"type":"way","id":478890857,"nodes":[4720748384,4720748385,4720748386,4720748387,4720748384],"tags":{"leisure":"playground","max_age":"5","min_age":"2","surface":"woodchips","wheelchair":"no"}},{"type":"way","id":478892603,"nodes":[4720769636,4720769637,4720769638,4720769639,4720769636],"tags":{"amenity":"toilets","building":"yes"}},{"type":"way","id":484846203,"nodes":[2439935999,4775959026,4775959027,4775959028,4775959029,4775959030,4775959031,2439935999],"tags":{"amenity":"toilets","building":"yes","toilets:disposal":"flush"}},{"type":"way","id":604049559,"nodes":[5732604885,5732604886,5732604887,5732604888,5732604889,5732604890,5732604891],"tags":{"highway":"footway","surface":"unhewn_cobblestone","wheelchair":"no"}},{"type":"way","id":606899516,"nodes":[5753014820,5753014823,5753014824,5753014821,5753014820],"tags":{"addr:city":"Kirkland","addr:housenumber":"830","addr:postcode":"98033","addr:state":"WA","addr:street":"6th Street South","amenity":"hospital","emergency":"no","healthcare":"hospital","healthcare:speciality":"dentistry","name":"Eastside Therapeutic Resource","operator":"Eastside Therapeutic Resource"}},{"type":"way","id":667239922,"nodes":[6247310433,8703001669],"tags":{"footway":"traffic_island","highway":"footway","lit":"yes","surface":"concrete","wheelchair":"yes"}},{"type":"way","id":800508455,"nodes":[7487097911,7487097912,7487097913,7487097914,7487097915,7487097916,7487097917,7487097918,7487097919,7487097920,7487097911],"tags":{"blind":"no","fitness_station":"stairs","leisure":"fitness_station","sport":"fitness","wheelchair":"no"}},{"type":"way","id":865447424,"nodes":[8066641352,8066641351],"tags":{"handrail":"yes","highway":"steps","incline":"up","surface":"pebblestone","wheelchair":"no"}},{"type":"way","id":882880005,"nodes":[9498371009,8210556859,11182636347,11481601969,12010320898,8210556863],"tags":{"bridge":"yes","check_date:surface":"2024-04-27","covered":"yes","cycleway:surface":"concrete","footway:surface":"concrete","highway":"cycleway","layer":"1","lit":"yes","smoothness":"excellent","start_date":"2024-04-22","surface":"concrete","wheelchair":"yes"}},{"type":"way","id":933634354,"nodes":[8653489069,8653489070,8653489071,8653489072,8653489073,8653489074,8653489075,8653489076,8653489077,8653489078,8653489069],"tags":{"fitness_station":"box","leisure":"fitness_station","sport":"fitness","wheelchair":"yes"}},{"type":"way","id":939522668,"nodes":[8703001672,6247310433],"tags":{"footway":"traffic_island","highway":"footway","lit":"yes","surface":"concrete","wheelchair":"yes"}},{"type":"way","id":939522669,"nodes":[6247310436,8703001674],"tags":{"footway":"traffic_island","highway":"footway","lit":"yes","surface":"concrete","wheelchair":"yes"}},{"type":"way","id":939522670,"nodes":[9688911572,12511451499,6247310435,12511451498,6247310436],"tags":{"footway":"traffic_island","highway":"footway","lit":"yes","surface":"concrete","wheelchair":"yes"}},{"type":"way","id":939522672,"nodes":[8703001677,6247310439],"tags":{"footway":"traffic_island","highway":"footway","lit":"yes","surface":"concrete","wheelchair":"yes"}},{"type":"way","id":939522675,"nodes":[8703001679,6247310439],"tags":{"footway":"traffic_island","highway":"footway","lit":"yes","surface":"concrete","wheelchair":"yes"}},{"type":"way","id":939522708,"nodes":[8703018744,2276341487],"tags":{"footway":"link","highway":"footway","surface":"asphalt","wheelchair":"yes"}},{"type":"way","id":1280800034,"nodes":[9498371009,11888487716,11888487714,11888487713,11888487712,11888487710,11888487709,11888487708,12010036575,11840550854,11840550853],"tags":{"bridge":"yes","check_date:surface":"2024-04-27","covered":"yes","cycleway:surface":"concrete","footway:surface":"concrete","highway":"footway","layer":"1","lit":"yes","smoothness":"excellent","start_date":"2024-04-22","surface":"concrete","wheelchair":"yes"}},{"type":"way","id":1328486081,"nodes":[12291034303,12291034304],"tags":{"amenity":"bench","armrest":"no","backrest":"no","colour":"#dedede","material":"metal","seats":"8"}},{"type":"way","id":1352261208,"nodes":[6247310433,8703001673],"tags":{"footway":"traffic_island","highway":"footway","lit":"yes","surface":"concrete","wheelchair":"yes"}},{"type":"way","id":1352261209,"nodes":[6247310439,8703001680],"tags":{"footway":"traffic_island","highway":"footway","lit":"yes","surface":"concrete","wheelchair":"yes"}},{"type":"way","id":1352261211,"nodes":[6247310436,8703001675],"tags":{"footway":"traffic_island","highway":"footway","lit":"yes","surface":"concrete","wheelchair":"yes"}}]}